{"type":"FeatureCollection", "features": [
{"type":"Feature","geometry":{"type":"Polygon","coordinates":[[[-103.2605,24.0655],[-103.3878,24.2423],[-103.4156,24.3088],[-103.4331,24.3584],[-103.4367,24.3474],[-103.4624,24.3206],[-103.4842,24.3181],[-103.4861,24.3001],[-103.5081,24.2877],[-103.5477,24.2915],[-103.5683,24.2864],[-103.5632,24.2572],[-103.5586,24.2438],[-103.5655,24.2114],[-103.5595,24.1941],[-103.5796,24.1785],[-103.6058,24.1512],[-103.622,24.1175],[-103.636,24.1103],[-103.6604,24.1493],[-103.6952,24.1303],[-103.7456,24.089],[-103.7525,24.0679],[-103.7511,24.0529],[-103.7132,24.0284],[-103.7047,24.0141],[-103.687,24.0002],[-103.6576,23.989],[-103.6121,23.9816],[-103.5832,23.9917],[-103.5671,23.9868],[-103.5707,24.0086],[-103.5348,24.0144],[-103.5197,24.0018],[-103.4985,24.0029],[-103.4749,23.9949],[-103.4383,24.0008],[-103.4357,23.9859],[-103.4174,23.9891],[-103.4132,23.9688],[-103.3775,23.9713],[-103.3392,24.0091],[-103.3098,23.9851],[-103.3005,23.9775],[-103.2605,24.0655]]]},"properties":{"CVE_ENT":"32","CVE_MUN":"029","CVEGEO":"32029","NOMGEO":"Miguel Auza"}},
{"type":"Feature","geometry":{"type":"Polygon","coordinates":[[[-103.2366,21.3264],[-103.2485,21.3299],[-103.2543,21.3341],[-103.2587,21.3409],[-103.2637,21.3441],[-103.2883,21.3459],[-103.3054,21.3392],[-103.3282,21.345],[-103.3416,21.3402],[-103.3465,21.3104],[-103.3591,21.3052],[-103.392,21.276],[-103.4007,21.2893],[-103.4139,21.2785],[-103.4047,21.2512],[-103.4163,21.206],[-103.4306,21.1804],[-103.4575,21.1695],[-103.4688,21.1435],[-103.4351,21.142],[-103.4164,21.1362],[-103.4232,21.1241],[-103.3957,21.0976],[-103.3976,21.085],[-103.3684,21.0567],[-103.347,21.0442],[-103.3285,21.0553],[-103.3053,21.0572],[-103.2966,21.0648],[-103.2798,21.0568],[-103.2615,21.0634],[-103.2582,21.0831],[-103.2504,21.0984],[-103.2497,21.1226],[-103.2858,21.135],[-103.2801,21.157],[-103.2927,21.1942],[-103.2486,21.2012],[-103.2368,21.2132],[-103.2411,21.2265],[-103.2289,21.2456],[-103.2551,21.2603],[-103.2597,21.2878],[-103.237,21.3138],[-103.2366,21.3264]]]},"properties":{"CVE_ENT":"32","CVE_MUN":"028","CVEGEO":"32028","NOMGEO":"Mezquital del Oro"}},
{"type":"Feature","geometry":{"type":"Polygon","coordinates":[[[-101.6004,24.7544],[-101.6223,24.759],[-101.6408,24.8007],[-101.609,24.7897],[-101.6013,24.8356],[-101.6563,24.8608],[-101.6851,24.84],[-101.7735,24.8755],[-101.8319,24.9722],[-101.8488,25.0176],[-102.0818,25.0707],[-102.2376,25.1185],[-102.2955,25.1252],[-102.4633,25.1159],[-102.4537,25.0481],[-102.4438,25.0397],[-102.4276,25.0434],[-102.4215,25.0331],[-102.3876,25.0406],[-102.3772,25.0374],[-102.3125,24.9735],[-102.3078,24.9436],[-102.2767,24.9394],[-102.257,24.9509],[-102.2422,24.9493],[-102.2376,24.9361],[-102.2104,24.9379],[-102.178,24.9148],[-102.1534,24.8864],[-102.1444,24.8848],[-102.1234,24.8605],[-102.1009,24.8194],[-101.9835,24.7751],[-101.9164,24.7443],[-101.8775,24.723],[-101.7972,24.6975],[-101.7869,24.687],[-101.7498,24.7133],[-101.7246,24.718],[-101.6842,24.7126],[-101.6716,24.6794],[-101.6299,24.6772],[-101.6133,24.6913],[-101.5909,24.7196],[-101.5978,24.754],[-101.6004,24.7544]]]},"properties":{"CVE_ENT":"32","CVE_MUN":"027","CVEGEO":"32027","NOMGEO":"Melchor Ocampo"}},
{"type":"Feature","geometry":{"type":"Polygon","coordinates":[[[-102.4537,25.0481],[-102.4468,24.9995],[-102.6697,25.0666],[-102.6522,25.0448],[-102.6289,25.0083],[-102.643,24.9786],[-102.673,24.9788],[-102.6731,24.9428],[-102.5662,24.9022],[-102.5654,24.8664],[-102.5492,24.8299],[-102.5122,24.7097],[-102.4946,24.6126],[-102.4798,24.4904],[-102.487,24.4442],[-102.48,24.4282],[-102.5201,24.4239],[-102.5339,24.4077],[-102.6066,24.4112],[-102.6115,24.4004],[-102.573,24.3893],[-102.5685,24.354],[-102.5496,24.3521],[-102.5447,24.3316],[-102.517,24.3451],[-102.5009,24.3348],[-102.4848,24.306],[-102.4487,24.2783],[-102.4242,24.2493],[-102.4234,24.2328],[-102.4134,24.2245],[-102.3614,24.2126],[-102.3603,24.1668],[-102.3546,24.1518],[-102.3286,24.1505],[-102.3163,24.1345],[-102.2826,24.1328],[-102.2845,24.0832],[-102.2907,24.0527],[-102.2782,24.0351],[-102.2797,24.0087],[-102.2686,23.9939],[-102.2284,23.97],[-102.1948,23.9573],[-102.1628,23.9566],[-102.1607,23.9379],[-102.1391,23.9027],[-102.0976,23.9168],[-102.0909,23.9034],[-102.0917,23.8805],[-102.0853,23.8572],[-102.0719,23.8549],[-102.0528,23.8654],[-102.0424,23.8634],[-102.0181,23.8339],[-102.0099,23.8129],[-101.9851,23.8193],[-101.9623,23.8332],[-101.938,23.8248],[-101.9205,23.8441],[-101.8898,23.8343],[-101.8256,23.8328],[-101.7727,23.8189],[-101.7594,23.8121],[-101.7483,23.8226],[-101.7327,23.8185],[-101.7017,23.8329],[-101.6756,23.8373],[-101.6644,23.8284],[-101.6236,23.8307],[-101.5977,23.8165],[-101.5757,23.8095],[-101.5649,23.8165],[-101.5448,23.813],[-101.5165,23.823],[-101.5127,23.8139],[-101.5195,23.7773],[-101.515,23.7644],[-101.5341,23.7524],[-101.4983,23.7271],[-101.4667,23.6937],[-101.3404,23.7972],[-101.327,23.8127],[-101.2481,23.8764],[-101.1926,23.9186],[-101.2094,24.0869],[-101.2662,24.1056],[-101.2981,24.1218],[-101.3221,24.1292],[-101.3366,24.1487],[-101.3545,24.161],[-101.3744,24.1865],[-101.402,24.2098],[-101.4123,24.2279],[-101.4335,24.2515],[-101.4037,24.3199],[-101.3894,24.3742],[-101.3774,24.451],[-101.3703,24.5128],[-101.3887,24.519],[-101.4074,24.5143],[-101.4297,24.5282],[-101.4303,24.5471],[-101.417,24.5684],[-101.4427,24.5919],[-101.4627,24.6004],[-101.4734,24.6184],[-101.4548,24.6284],[-101.4291,24.6625],[-101.4157,24.668],[-101.4381,24.6911],[-101.4208,24.7123],[-101.4486,24.7462],[-101.4616,24.7368],[-101.4917,24.7438],[-101.5406,24.7456],[-101.5978,24.754],[-101.5909,24.7196],[-101.6133,24.6913],[-101.6299,24.6772],[-101.6716,24.6794],[-101.6842,24.7126],[-101.7246,24.718],[-101.7498,24.7133],[-101.7869,24.687],[-101.7972,24.6975],[-101.8775,24.723],[-101.9164,24.7443],[-101.9835,24.7751],[-102.1009,24.8194],[-102.1234,24.8605],[-102.1444,24.8848],[-102.1534,24.8864],[-102.178,24.9148],[-102.2104,24.9379],[-102.2376,24.9361],[-102.2422,24.9493],[-102.257,24.9509],[-102.2767,24.9394],[-102.3078,24.9436],[-102.3125,24.9735],[-102.3772,25.0374],[-102.3876,25.0406],[-102.4215,25.0331],[-102.4276,25.0434],[-102.4438,25.0397],[-102.4537,25.0481]]]},"properties":{"CVE_ENT":"32","CVE_MUN":"026","CVEGEO":"32026","NOMGEO":"Mazapil"}},
{"type":"Feature","geometry":{"type":"Polygon","coordinates":[[[-102.1112,22.3859],[-102.1103,22.4008],[-102.135,22.4073],[-102.2171,22.4154],[-102.213,22.4431],[-102.1979,22.462],[-102.1923,22.4869],[-102.2015,22.5025],[-102.2289,22.5174],[-102.2499,22.5192],[-102.2498,22.5081],[-102.2757,22.5123],[-102.292,22.5146],[-102.3069,22.5017],[-102.2983,22.4596],[-102.2899,22.42],[-102.2709,22.4118],[-102.2503,22.3872],[-102.2532,22.3745],[-102.212,22.3727],[-102.212,22.3625],[-102.189,22.3624],[-102.1807,22.3504],[-102.1621,22.3485],[-102.1538,22.3614],[-102.1275,22.3814],[-102.1123,22.3802],[-102.1112,22.3859]]]},"properties":{"CVE_ENT":"32","CVE_MUN":"025","CVEGEO":"32025","NOMGEO":"Luis Moya"}},
{"type":"Feature","geometry":{"type":"Polygon","coordinates":[[[-102.1123,22.3802],[-102.1275,22.3814],[-102.1538,22.3614],[-102.1621,22.3485],[-102.1498,22.3472],[-102.1532,22.2904],[-102.1241,22.287],[-102.0896,22.289],[-102.0756,22.3061],[-102.0373,22.299],[-102.03,22.2855],[-102.022,22.2443],[-102.0025,22.2414],[-101.9997,22.2337],[-101.9994,22.2195],[-101.9854,22.2187],[-101.97,22.2307],[-101.9414,22.223],[-101.9171,22.2213],[-101.8958,22.2253],[-101.8917,22.1988],[-101.866,22.1718],[-101.8102,22.1728],[-101.7839,22.166],[-101.7813,22.1781],[-101.8186,22.1909],[-101.82,22.2311],[-101.7968,22.2499],[-101.7922,22.2994],[-101.8421,22.2962],[-101.8665,22.3226],[-101.9005,22.3295],[-101.9375,22.3497],[-101.9785,22.3533],[-102.0193,22.3492],[-102.0186,22.3604],[-102.0841,22.3609],[-102.1123,22.3802]]]},"properties":{"CVE_ENT":"32","CVE_MUN":"024","CVEGEO":"32024","NOMGEO":"Loreto"}},
{"type":"Feature","geometry":{"type":"Polygon","coordinates":[[[-102.2757,22.5123],[-102.2695,22.5632],[-102.3055,22.5539],[-102.3185,22.5549],[-102.3307,22.5716],[-102.3411,22.5707],[-102.3649,22.5861],[-102.3767,22.5702],[-102.3625,22.5575],[-102.3773,22.5454],[-102.377,22.5279],[-102.4107,22.5206],[-102.3842,22.4819],[-102.4118,22.4693],[-102.3954,22.4511],[-102.421,22.4366],[-102.4431,22.4356],[-102.4408,22.4473],[-102.4766,22.4695],[-102.4795,22.4409],[-102.4937,22.4354],[-102.5134,22.4141],[-102.5398,22.3742],[-102.4926,22.3675],[-102.4838,22.3398],[-102.4712,22.3363],[-102.4656,22.3502],[-102.3879,22.3641],[-102.3784,22.3609],[-102.3593,22.385],[-102.3214,22.3885],[-102.321,22.4183],[-102.312,22.4408],[-102.3118,22.4569],[-102.2983,22.4596],[-102.3069,22.5017],[-102.292,22.5146],[-102.2757,22.5123]]]},"properties":{"CVE_ENT":"32","CVE_MUN":"008","CVEGEO":"32008","NOMGEO":"Cuauhtémoc"}},
{"type":"Feature","geometry":{"type":"Polygon","coordinates":[[[-103.3016,22.6393],[-103.3425,22.6489],[-103.3583,22.6385],[-103.3709,22.643],[-103.3838,22.6615],[-103.394,22.6622],[-103.4166,22.644],[-103.415,22.6306],[-103.4624,22.6065],[-103.4682,22.567],[-103.4839,22.5553],[-103.5325,22.5594],[-103.5375,22.5705],[-103.56,22.5606],[-103.5687,22.5693],[-103.5836,22.5613],[-103.6102,22.5595],[-103.5993,22.5264],[-103.5861,22.5255],[-103.5919,22.5028],[-103.5812,22.4986],[-103.5806,22.4774],[-103.5715,22.4692],[-103.5722,22.4411],[-103.5606,22.4231],[-103.5784,22.4105],[-103.594,22.4072],[-103.5928,22.3893],[-103.6067,22.3383],[-103.635,22.3435],[-103.645,22.3178],[-103.6378,22.2952],[-103.6192,22.2818],[-103.5997,22.2777],[-103.6208,22.2475],[-103.6309,22.2389],[-103.6413,22.2096],[-103.6491,22.2021],[-103.661,22.167],[-103.6908,22.1283],[-103.6717,22.1088],[-103.648,22.1005],[-103.6285,22.1063],[-103.6047,22.0979],[-103.5803,22.1257],[-103.5585,22.1365],[-103.5382,22.1214],[-103.5158,22.129],[-103.5159,22.1099],[-103.5016,22.1056],[-103.4769,22.1141],[-103.4701,22.1055],[-103.4496,22.1144],[-103.4387,22.1183],[-103.43,22.1356],[-103.426,22.1746],[-103.409,22.2154],[-103.3857,22.2125],[-103.383,22.227],[-103.3618,22.2392],[-103.3377,22.2452],[-103.3119,22.2333],[-103.2991,22.2491],[-103.3121,22.2589],[-103.308,22.2804],[-103.2978,22.2983],[-103.3069,22.3063],[-103.3277,22.3074],[-103.3384,22.2875],[-103.3525,22.2813],[-103.351,22.3247],[-103.3626,22.3364],[-103.3647,22.3695],[-103.3293,22.3845],[-103.3152,22.4047],[-103.3054,22.3904],[-103.295,22.4303],[-103.2994,22.4627],[-103.2781,22.4987],[-103.2765,22.5146],[-103.2612,22.5287],[-103.2429,22.5687],[-103.2514,22.578],[-103.2412,22.5973],[-103.2976,22.6217],[-103.3016,22.6393]]]},"properties":{"CVE_ENT":"32","CVE_MUN":"031","CVEGEO":"32031","NOMGEO":"Monte Escobedo"}},
{"type":"Feature","geometry":{"type":"Polygon","coordinates":[[[-103.2024,24.4214],[-103.2228,24.4171],[-103.234,24.4358],[-103.2535,24.4473],[-103.2649,24.4344],[-103.2822,24.4293],[-103.3059,24.4339],[-103.33,24.4282],[-103.3862,24.423],[-103.3941,24.4321],[-103.412,24.4271],[-103.4289,24.4117],[-103.4254,24.3794],[-103.4331,24.3584],[-103.4156,24.3088],[-103.3878,24.2423],[-103.2605,24.0655],[-103.2584,24.0637],[-103.239,24.0635],[-103.2385,24.1483],[-103.2463,24.1678],[-103.2287,24.1817],[-103.2451,24.1998],[-103.2323,24.2149],[-103.2026,24.2188],[-103.2291,24.2734],[-103.2407,24.322],[-103.1853,24.3142],[-103.1632,24.3229],[-103.1456,24.3423],[-103.2198,24.3597],[-103.1896,24.3881],[-103.2058,24.3888],[-103.2024,24.4214]]]},"properties":{"CVE_ENT":"32","CVE_MUN":"022","CVEGEO":"32022","NOMGEO":"Juan Aldama"}},
{"type":"Feature","geometry":{"type":"Polygon","coordinates":[[[-102.8684,21.8605],[-102.8695,21.8609],[-102.8726,21.8603],[-102.882,21.8526],[-102.8907,21.8321],[-102.933,21.816],[-102.9669,21.8256],[-102.9721,21.8415],[-103.0021,21.8407],[-103.0234,21.856],[-103.0437,21.852],[-103.0498,21.8591],[-103.0722,21.8589],[-103.0874,21.8646],[-103.0753,21.8276],[-103.0854,21.8145],[-103.083,21.7773],[-103.0589,21.7768],[-103.0444,21.7692],[-103.0415,21.7579],[-103.0251,21.7465],[-103.005,21.7178],[-102.9925,21.715],[-102.9631,21.7208],[-102.9528,21.7125],[-102.9162,21.7124],[-102.8924,21.7188],[-102.8696,21.7426],[-102.8655,21.7333],[-102.8446,21.7194],[-102.8443,21.7077],[-102.8173,21.6856],[-102.8053,21.671],[-102.7792,21.6792],[-102.7615,21.6929],[-102.7477,21.716],[-102.7453,21.7201],[-102.7722,21.7378],[-102.7923,21.755],[-102.8169,21.7665],[-102.8324,21.7979],[-102.8533,21.7991],[-102.8473,21.8334],[-102.8581,21.8332],[-102.8646,21.8435],[-102.8667,21.844],[-102.8709,21.8462],[-102.8742,21.8528],[-102.8728,21.8564],[-102.8684,21.8605]]]},"properties":{"CVE_ENT":"32","CVE_MUN":"018","CVEGEO":"32018","NOMGEO":"Huanusco"}},
{"type":"Feature","geometry":{"type":"Polygon","coordinates":[[[-101.7839,22.166],[-101.8102,22.1728],[-101.866,22.1718],[-101.8917,22.1988],[-101.8958,22.2253],[-101.9171,22.2213],[-101.9414,22.223],[-101.97,22.2307],[-101.9854,22.2187],[-101.9994,22.2195],[-102.001,22.1681],[-102.0295,22.1687],[-102.0443,22.1534],[-102.0171,22.154],[-102.0259,22.1298],[-101.986,22.1208],[-101.9676,22.1112],[-101.8812,22.0541],[-101.8643,22.0415],[-101.8623,22.0467],[-101.8554,22.0414],[-101.8615,22.0359],[-101.8605,22.0332],[-101.8614,22.0294],[-101.8617,22.0289],[-101.859,22.028],[-101.8406,22.0266],[-101.8157,22.02],[-101.8019,22.0278],[-101.7812,22.0331],[-101.7718,22.0651],[-101.7995,22.1021],[-101.7903,22.1157],[-101.7839,22.166]]]},"properties":{"CVE_ENT":"32","CVE_MUN":"052","CVEGEO":"32052","NOMGEO":"Villa García"}},
{"type":"Feature","geometry":{"type":"Polygon","coordinates":[[[-101.9482,22.652],[-102.1249,22.783],[-102.1761,22.843],[-102.1921,22.8649],[-102.197,22.8826],[-102.2125,22.8541],[-102.2173,22.8345],[-102.2458,22.7459],[-102.2461,22.7345],[-102.2273,22.7423],[-102.2094,22.7391],[-102.1973,22.7454],[-102.1604,22.7183],[-102.1766,22.7113],[-102.1682,22.6899],[-102.1751,22.6735],[-102.1961,22.6494],[-102.1789,22.6349],[-102.1723,22.6057],[-102.1457,22.5727],[-102.1271,22.569],[-102.1297,22.5301],[-102.0901,22.5238],[-102.0819,22.5364],[-102.0869,22.5553],[-102.0684,22.5766],[-102.0674,22.5853],[-102.0361,22.5999],[-102.0341,22.6137],[-102.0192,22.6283],[-101.9999,22.6611],[-101.9482,22.652]]]},"properties":{"CVE_ENT":"32","CVE_MUN":"016","CVEGEO":"32016","NOMGEO":"General Pánfilo Natera"}},
{"type":"Feature","geometry":{"type":"Polygon","coordinates":[[[-101.656,22.5138],[-101.6747,22.5065],[-101.696,22.5204],[-101.7462,22.5087],[-101.7354,22.4802],[-101.7715,22.4882],[-101.7834,22.465],[-101.7978,22.4701],[-101.8167,22.4073],[-101.7978,22.3908],[-101.8033,22.3722],[-101.8347,22.3756],[-101.8462,22.3522],[-101.7779,22.3511],[-101.7592,22.3528],[-101.7639,22.3312],[-101.778,22.3003],[-101.7342,22.2929],[-101.7067,22.3006],[-101.6862,22.3191],[-101.6788,22.3353],[-101.6161,22.3219],[-101.6354,22.3476],[-101.6393,22.3814],[-101.6268,22.3924],[-101.6214,22.4126],[-101.6052,22.4149],[-101.5865,22.4281],[-101.5941,22.437],[-101.6342,22.4563],[-101.6141,22.4786],[-101.6373,22.4798],[-101.6576,22.491],[-101.656,22.5138]]]},"properties":{"CVE_ENT":"32","CVE_MUN":"054","CVEGEO":"32054","NOMGEO":"Villa Hidalgo"}},
{"type":"Feature","geometry":{"type":"Polygon","coordinates":[[[-102.7015,23.673],[-102.7437,23.676],[-102.7903,23.686],[-102.7928,23.6701],[-102.8126,23.6543],[-102.8288,23.6027],[-102.8442,23.5748],[-102.8772,23.5594],[-102.8655,23.5395],[-102.8682,23.5124],[-102.8783,23.4871],[-102.8701,23.4754],[-102.8566,23.479],[-102.8339,23.4651],[-102.8113,23.4708],[-102.8007,23.4809],[-102.7767,23.4844],[-102.7655,23.5286],[-102.7469,23.5385],[-102.6826,23.5157],[-102.6616,23.5162],[-102.6439,23.5333],[-102.6171,23.5138],[-102.5972,23.5197],[-102.5677,23.5168],[-102.5547,23.5423],[-102.5685,23.5481],[-102.575,23.5664],[-102.6061,23.5811],[-102.6214,23.6083],[-102.6295,23.6318],[-102.6449,23.6366],[-102.6392,23.657],[-102.6483,23.6702],[-102.7015,23.673]]]},"properties":{"CVE_ENT":"32","CVE_MUN":"006","CVEGEO":"32006","NOMGEO":"Cañitas de Felipe Pescador"}},
{"type":"Feature","geometry":{"type":"Polygon","coordinates":[[[-102.7113,23.0576],[-102.7266,23.0518],[-102.753,23.0568],[-102.7668,23.0714],[-102.818,23.0713],[-102.8394,23.0608],[-102.8389,23.0509],[-102.8743,23.0485],[-102.8786,23.0204],[-102.9016,23.0227],[-102.9043,22.9797],[-102.8947,22.9791],[-102.8858,22.985],[-102.8176,22.9815],[-102.8179,22.9697],[-102.786,22.9653],[-102.7697,22.9567],[-102.7532,22.96],[-102.6944,22.9818],[-102.6885,22.9973],[-102.6901,23.035],[-102.7113,23.0576]]]},"properties":{"CVE_ENT":"32","CVE_MUN":"013","CVEGEO":"32013","NOMGEO":"General Enrique Estrada"}},
{"type":"Feature","geometry":{"type":"Polygon","coordinates":[[[-101.0805,24.5912],[-101.1276,24.6234],[-101.1646,24.6816],[-101.179,24.733],[-101.2017,24.7655],[-101.215,24.7752],[-101.2361,24.7779],[-101.3131,24.8014],[-101.3421,24.8134],[-101.4022,24.7882],[-101.4127,24.7721],[-101.4486,24.7462],[-101.4208,24.7123],[-101.4381,24.6911],[-101.4157,24.668],[-101.4291,24.6625],[-101.4548,24.6284],[-101.4734,24.6184],[-101.4627,24.6004],[-101.4427,24.5919],[-101.417,24.5684],[-101.4303,24.5471],[-101.4297,24.5282],[-101.4074,24.5143],[-101.3887,24.519],[-101.3703,24.5128],[-101.3774,24.451],[-101.3894,24.3742],[-101.4037,24.3199],[-101.4335,24.2515],[-101.4123,24.2279],[-101.402,24.2098],[-101.3744,24.1865],[-101.3545,24.161],[-101.3366,24.1487],[-101.3221,24.1292],[-101.2981,24.1218],[-101.2662,24.1056],[-101.2094,24.0869],[-101.2167,24.1597],[-101.1732,24.1641],[-101.0654,24.207],[-101.0127,24.3908],[-100.9873,24.4325],[-101.0316,24.5104],[-101.0805,24.5912]]]},"properties":{"CVE_ENT":"32","CVE_MUN":"007","CVEGEO":"32007","NOMGEO":"Concepción del Oro"}},
{"type":"Feature","geometry":{"type":"Polygon","coordinates":[[[-102.7175,21.5715],[-102.7254,21.5898],[-102.7374,21.5868],[-102.7638,21.5958],[-102.7754,21.6216],[-102.7836,21.6598],[-102.8028,21.6675],[-102.8196,21.6502],[-102.8121,21.6345],[-102.8175,21.6198],[-102.8492,21.6314],[-102.8604,21.6106],[-102.8689,21.5826],[-102.8822,21.5677],[-102.8835,21.5505],[-102.901,21.5365],[-102.9199,21.5128],[-102.9419,21.5086],[-102.9384,21.4943],[-102.9385,21.4902],[-102.945,21.4852],[-102.9462,21.4835],[-102.9475,21.4799],[-102.95,21.4753],[-102.9519,21.4694],[-102.9456,21.4526],[-102.9536,21.419],[-102.942,21.4138],[-102.9421,21.4003],[-102.9623,21.4014],[-102.9706,21.376],[-102.9804,21.3618],[-102.9807,21.3511],[-102.9978,21.3476],[-103.0202,21.3328],[-103.0332,21.2963],[-103.0349,21.2738],[-103.0496,21.2634],[-103.0451,21.2492],[-102.9895,21.2567],[-102.9781,21.2405],[-102.9499,21.2345],[-102.9478,21.2146],[-102.9107,21.2052],[-102.903,21.2352],[-102.8774,21.2368],[-102.8636,21.2529],[-102.852,21.2755],[-102.8488,21.2932],[-102.8371,21.3034],[-102.8155,21.2945],[-102.8176,21.3185],[-102.7837,21.3295],[-102.7739,21.3168],[-102.7553,21.3232],[-102.7578,21.3392],[-102.728,21.3571],[-102.7327,21.3692],[-102.7291,21.3874],[-102.736,21.3996],[-102.6996,21.4076],[-102.6918,21.4152],[-102.7048,21.4429],[-102.7166,21.4588],[-102.7437,21.453],[-102.7538,21.4632],[-102.7622,21.4995],[-102.7443,21.5148],[-102.7497,21.5476],[-102.7316,21.5726],[-102.7175,21.5715]]]},"properties":{"CVE_ENT":"32","CVE_MUN":"034","CVEGEO":"32034","NOMGEO":"Nochistlán de Mejía"}},
{"type":"Feature","geometry":{"type":"Polygon","coordinates":[[[-101.9482,22.652],[-101.9999,22.6611],[-102.0192,22.6283],[-102.0341,22.6137],[-102.0361,22.5999],[-102.0674,22.5853],[-102.0684,22.5766],[-102.0869,22.5553],[-102.0418,22.5344],[-102.0442,22.5012],[-102.0741,22.49],[-102.0463,22.4444],[-102.0451,22.4279],[-102.0218,22.4379],[-102.0076,22.4607],[-101.9877,22.4608],[-101.9821,22.4751],[-101.9051,22.4686],[-101.8886,22.4615],[-101.8677,22.4736],[-101.845,22.5018],[-101.8173,22.4748],[-101.7993,22.4706],[-101.8371,22.4997],[-101.8304,22.512],[-101.8199,22.5513],[-101.873,22.5631],[-101.8533,22.656],[-101.9398,22.6457],[-101.9461,22.6504],[-101.9482,22.652]]]},"properties":{"CVE_ENT":"32","CVE_MUN":"053","CVEGEO":"32053","NOMGEO":"Villa González Ortega"}},
{"type":"Feature","geometry":{"type":"Polygon","coordinates":[[[-102.6943,22.6223],[-102.7078,22.6294],[-102.7031,22.649],[-102.7397,22.6571],[-102.7439,22.6708],[-102.7603,22.6666],[-102.7874,22.675],[-102.7844,22.6512],[-102.7875,22.6332],[-102.7776,22.6057],[-102.8082,22.5953],[-102.8191,22.5809],[-102.8109,22.5606],[-102.8145,22.5442],[-102.8551,22.5505],[-102.8775,22.5406],[-102.8903,22.5557],[-102.9111,22.5593],[-102.9286,22.5425],[-102.9136,22.514],[-102.9416,22.508],[-102.9556,22.4962],[-102.9651,22.4736],[-102.951,22.4592],[-102.9728,22.4484],[-103.0023,22.4563],[-103.015,22.455],[-103.0219,22.4367],[-103.0193,22.4186],[-103.0464,22.3874],[-103.0661,22.3795],[-103.0754,22.3686],[-103.0544,22.3497],[-103.0632,22.3326],[-103.0556,22.3072],[-103.0447,22.2972],[-103.0483,22.2774],[-103.0239,22.2731],[-103.0371,22.2525],[-103.0576,22.2379],[-103.0583,22.2228],[-103.0728,22.2104],[-103.1061,22.1914],[-103.1014,22.1786],[-103.1087,22.1534],[-103.0776,22.1357],[-103.0845,22.114],[-103.1042,22.1012],[-103.1266,22.104],[-103.1543,22.0722],[-103.1079,22.0634],[-103.1062,22.047],[-103.0503,22.0417],[-103.0544,22.0567],[-103.0449,22.1111],[-103.0325,22.1052],[-103.0165,22.1294],[-103.0068,22.1364],[-102.9825,22.1391],[-102.9563,22.1273],[-102.948,22.0904],[-102.9247,22.0904],[-102.913,22.0733],[-102.9243,22.058],[-102.9164,22.0417],[-102.9206,22.0267],[-102.8991,22.0207],[-102.8853,22.0258],[-102.8587,22.0218],[-102.8591,22.002],[-102.824,22.0062],[-102.8055,21.9963],[-102.7816,22.0286],[-102.761,22.0463],[-102.7558,22.0737],[-102.7249,22.0902],[-102.7185,22.0908],[-102.7096,22.0966],[-102.6978,22.1015],[-102.6967,22.1025],[-102.6941,22.1039],[-102.6937,22.1044],[-102.6934,22.1048],[-102.6911,22.1062],[-102.6901,22.1234],[-102.6863,22.137],[-102.6694,22.1596],[-102.6759,22.1756],[-102.6458,22.2043],[-102.6414,22.2284],[-102.67,22.2457],[-102.6687,22.2919],[-102.6121,22.2915],[-102.6011,22.3143],[-102.6101,22.3342],[-102.6259,22.3358],[-102.6316,22.351],[-102.6445,22.3526],[-102.655,22.3892],[-102.6676,22.3988],[-102.6825,22.4201],[-102.6917,22.4211],[-102.6935,22.4432],[-102.6864,22.4595],[-102.6729,22.4689],[-102.6636,22.5],[-102.6696,22.513],[-102.6899,22.5192],[-102.71,22.5182],[-102.7207,22.5359],[-102.744,22.5464],[-102.7287,22.5717],[-102.7133,22.6204],[-102.6943,22.6223]]]},"properties":{"CVE_ENT":"32","CVE_MUN":"055","CVEGEO":"32055","NOMGEO":"Villanueva"}},
{"type":"Feature","geometry":{"type":"Polygon","coordinates":[[[-103.419,21.8962],[-103.4517,21.8527],[-103.4585,21.8352],[-103.4947,21.8229],[-103.5028,21.8331],[-103.5315,21.8174],[-103.5261,21.8051],[-103.5606,21.8011],[-103.5726,21.8035],[-103.5691,21.7886],[-103.5404,21.7706],[-103.5288,21.7732],[-103.5091,21.7418],[-103.5098,21.713],[-103.5179,21.7115],[-103.5267,21.6756],[-103.5408,21.6653],[-103.5487,21.6499],[-103.5258,21.6389],[-103.5127,21.6585],[-103.4852,21.6823],[-103.4816,21.6958],[-103.4622,21.697],[-103.4572,21.7099],[-103.427,21.7283],[-103.4034,21.7532],[-103.4036,21.7782],[-103.3894,21.7944],[-103.3651,21.7887],[-103.3614,21.8184],[-103.3289,21.8072],[-103.3269,21.8208],[-103.3089,21.8341],[-103.3154,21.8572],[-103.3306,21.8567],[-103.3565,21.8652],[-103.401,21.8706],[-103.419,21.8962]]]},"properties":{"CVE_ENT":"32","CVE_MUN":"003","CVEGEO":"32003","NOMGEO":"Atolinga"}},
{"type":"Feature","geometry":{"type":"Polygon","coordinates":[[[-103.2584,24.0637],[-103.2605,24.0655],[-103.3005,23.9775],[-103.3098,23.9851],[-103.3278,23.9579],[-103.2988,23.9479],[-103.295,23.928],[-103.3335,23.9217],[-103.3474,23.8733],[-103.356,23.8708],[-103.3727,23.8375],[-103.3897,23.8389],[-103.3587,23.7991],[-103.3515,23.7732],[-103.36,23.7461],[-103.3404,23.7499],[-103.2938,23.7698],[-103.2203,23.7818],[-103.22,23.7586],[-103.2338,23.7402],[-103.2029,23.7171],[-103.2064,23.6786],[-103.1866,23.6769],[-103.1705,23.6956],[-103.1311,23.6953],[-103.0994,23.6912],[-103.1131,23.6681],[-103.1102,23.6553],[-103.1159,23.6333],[-103.0756,23.6256],[-103.0475,23.6329],[-103.0291,23.621],[-103.0311,23.5952],[-103.0157,23.5907],[-102.9594,23.5949],[-102.9323,23.5917],[-102.897,23.5626],[-102.8772,23.5594],[-102.8442,23.5748],[-102.8288,23.6027],[-102.8126,23.6543],[-102.7928,23.6701],[-102.7903,23.686],[-102.7437,23.676],[-102.7015,23.673],[-102.6737,23.6861],[-102.6885,23.7033],[-102.6962,23.7341],[-102.7328,23.7517],[-102.7269,23.7668],[-102.7303,23.7981],[-102.7363,23.8531],[-102.7566,23.8684],[-102.7848,23.8781],[-102.8247,23.8824],[-102.8934,23.8855],[-102.9665,23.8859],[-102.9904,23.8646],[-103.0159,23.881],[-103.0326,23.8995],[-103.0754,23.8994],[-103.098,23.8921],[-103.1434,23.9081],[-103.1559,23.918],[-103.2588,24.0628],[-103.2584,24.0637]]]},"properties":{"CVE_ENT":"32","CVE_MUN":"039","CVEGEO":"32039","NOMGEO":"Río Grande"}},
{"type":"Feature","geometry":{"type":"Polygon","coordinates":[[[-101.3657,22.692],[-101.3601,22.7143],[-101.3928,22.7381],[-101.4111,22.7477],[-101.4912,22.7419],[-101.497,22.7015],[-101.5674,22.6568],[-101.5738,22.6128],[-101.5953,22.6239],[-101.5901,22.589],[-101.656,22.5138],[-101.6576,22.491],[-101.6373,22.4798],[-101.6141,22.4786],[-101.6342,22.4563],[-101.5941,22.437],[-101.5865,22.4281],[-101.6052,22.4149],[-101.6214,22.4126],[-101.6268,22.3924],[-101.6393,22.3814],[-101.6354,22.3476],[-101.6161,22.3219],[-101.6788,22.3353],[-101.6862,22.3191],[-101.7067,22.3006],[-101.7342,22.2929],[-101.778,22.3003],[-101.7922,22.2994],[-101.7968,22.2499],[-101.82,22.2311],[-101.8186,22.1909],[-101.7813,22.1781],[-101.7839,22.166],[-101.7903,22.1157],[-101.7995,22.1021],[-101.7718,22.0651],[-101.7812,22.0331],[-101.8019,22.0278],[-101.7848,22.0227],[-101.7776,22.0073],[-101.751,22.0146],[-101.73,22.0021],[-101.7323,21.9951],[-101.7107,21.9739],[-101.6829,21.9629],[-101.6591,21.9416],[-101.6507,21.9077],[-101.6368,21.9077],[-101.6204,21.9186],[-101.5918,21.9151],[-101.5698,21.9171],[-101.5691,21.8947],[-101.5614,21.8361],[-101.5482,21.8341],[-101.5371,21.8106],[-101.522,21.818],[-101.5105,21.7991],[-101.4963,21.8099],[-101.5035,21.8301],[-101.4861,21.8419],[-101.4832,21.8677],[-101.4665,21.8802],[-101.4102,21.9087],[-101.412,21.9187],[-101.4304,21.9323],[-101.4052,21.9485],[-101.3997,21.9637],[-101.3605,21.9952],[-101.3275,21.997],[-101.3524,22.0131],[-101.3828,22.0207],[-101.3745,22.0414],[-101.3541,22.0448],[-101.3508,22.0878],[-101.3294,22.1356],[-101.3413,22.1521],[-101.3513,22.1768],[-101.3243,22.2099],[-101.3529,22.2292],[-101.37,22.2533],[-101.3854,22.2651],[-101.4163,22.2673],[-101.398,22.2824],[-101.3985,22.2939],[-101.4255,22.3244],[-101.4351,22.3415],[-101.433,22.3633],[-101.3819,22.3575],[-101.3736,22.4396],[-101.3748,22.4565],[-101.3137,22.4535],[-101.3154,22.4696],[-101.2857,22.5079],[-101.2941,22.527],[-101.2883,22.5622],[-101.2936,22.5845],[-101.3057,22.6099],[-101.3162,22.6175],[-101.3369,22.6588],[-101.3594,22.6535],[-101.38,22.6758],[-101.3657,22.692]]]},"properties":{"CVE_ENT":"32","CVE_MUN":"038","CVEGEO":"32038","NOMGEO":"Pinos"}},
{"type":"Feature","geometry":{"type":"Polygon","coordinates":[[[-102.9243,22.058],[-102.913,22.0733],[-102.9247,22.0904],[-102.948,22.0904],[-102.9563,22.1273],[-102.9825,22.1391],[-103.0068,22.1364],[-103.0165,22.1294],[-103.0325,22.1052],[-103.0449,22.1111],[-103.0544,22.0567],[-103.0503,22.0417],[-103.1062,22.047],[-103.11,22.0174],[-103.1328,22.003],[-103.1437,22.008],[-103.1725,21.9966],[-103.1437,21.9684],[-103.1391,21.953],[-103.1505,21.917],[-103.1504,21.8962],[-103.1165,21.8875],[-103.1091,21.8723],[-103.0874,21.8646],[-103.0779,21.876],[-103.0604,21.8806],[-103.0149,21.8818],[-103.0151,21.9071],[-103.0373,21.9144],[-103.0185,21.9356],[-103.0062,21.9582],[-103.0162,21.9675],[-102.9742,22.0467],[-102.9608,22.049],[-102.9404,22.0647],[-102.9243,22.058]]]},"properties":{"CVE_ENT":"32","CVE_MUN":"015","CVEGEO":"32015","NOMGEO":"El Plateado de Joaquín Amaro"}},
{"type":"Feature","geometry":{"type":"Polygon","coordinates":[[[-102.197,22.8826],[-102.2282,22.9965],[-102.2335,23.0249],[-102.2616,23.007],[-102.2615,22.9889],[-102.3211,22.9843],[-102.342,22.9723],[-102.3428,22.9558],[-102.3869,22.9516],[-102.4101,22.9546],[-102.4158,22.9041],[-102.3939,22.8966],[-102.3958,22.8704],[-102.4047,22.8478],[-102.4152,22.8351],[-102.4307,22.8353],[-102.4536,22.8026],[-102.4843,22.8012],[-102.5021,22.7879],[-102.5393,22.7764],[-102.5458,22.7528],[-102.5642,22.729],[-102.5573,22.7051],[-102.5714,22.6947],[-102.5707,22.675],[-102.597,22.6689],[-102.6156,22.6336],[-102.6409,22.6278],[-102.6572,22.6173],[-102.6482,22.6004],[-102.6246,22.6051],[-102.6117,22.6021],[-102.6014,22.6128],[-102.5687,22.6011],[-102.5495,22.6076],[-102.5621,22.5816],[-102.5625,22.5596],[-102.5111,22.5398],[-102.4946,22.5471],[-102.5051,22.5611],[-102.4992,22.5835],[-102.4742,22.5777],[-102.467,22.5962],[-102.4726,22.6235],[-102.4463,22.6135],[-102.4284,22.6005],[-102.4335,22.6187],[-102.4257,22.6354],[-102.4067,22.6375],[-102.3998,22.6621],[-102.388,22.6614],[-102.3612,22.6762],[-102.3712,22.7031],[-102.3805,22.7004],[-102.3925,22.724],[-102.4029,22.7636],[-102.395,22.7636],[-102.3835,22.7958],[-102.399,22.7967],[-102.3996,22.8112],[-102.3699,22.8026],[-102.2173,22.8345],[-102.2125,22.8541],[-102.197,22.8826]]]},"properties":{"CVE_ENT":"32","CVE_MUN":"017","CVEGEO":"32017","NOMGEO":"Guadalupe"}},
{"type":"Feature","geometry":{"type":"Polygon","coordinates":[[[-102.8972,22.9045],[-102.9199,22.9081],[-102.9279,22.9207],[-102.9546,22.9031],[-102.9819,22.898],[-103.0008,22.9199],[-103.0138,22.9144],[-103.038,22.9224],[-103.0483,22.9023],[-103.0743,22.9135],[-103.1078,22.9078],[-103.1244,22.8718],[-103.1576,22.853],[-103.1685,22.8773],[-103.2032,22.887],[-103.2043,22.8652],[-103.1921,22.8562],[-103.1973,22.84],[-103.2291,22.8219],[-103.2431,22.8088],[-103.2364,22.7912],[-103.2439,22.7695],[-103.2352,22.7512],[-103.2496,22.7379],[-103.2319,22.7026],[-103.2162,22.6953],[-103.201,22.6941],[-103.1887,22.6819],[-103.1681,22.6964],[-103.1451,22.6797],[-103.145,22.6659],[-103.1327,22.6445],[-103.1139,22.6522],[-103.0876,22.6402],[-103.0826,22.6302],[-103.0813,22.602],[-103.0953,22.5918],[-103.1093,22.5721],[-103.1054,22.5632],[-103.0619,22.5507],[-103.0554,22.5389],[-103.0637,22.5239],[-103.0541,22.5066],[-103.0341,22.5273],[-103.0152,22.5175],[-103.0076,22.5278],[-102.9787,22.5147],[-102.9556,22.4962],[-102.9416,22.508],[-102.9136,22.514],[-102.9286,22.5425],[-102.9111,22.5593],[-102.8903,22.5557],[-102.8775,22.5406],[-102.8551,22.5505],[-102.8145,22.5442],[-102.8109,22.5606],[-102.8191,22.5809],[-102.8082,22.5953],[-102.7776,22.6057],[-102.7875,22.6332],[-102.7844,22.6512],[-102.7874,22.675],[-102.7805,22.6979],[-102.7619,22.7221],[-102.7802,22.7334],[-102.7794,22.7657],[-102.7733,22.7818],[-102.793,22.7947],[-102.8429,22.8095],[-102.8432,22.838],[-102.8414,22.8509],[-102.8663,22.8507],[-102.8584,22.8901],[-102.8745,22.8997],[-102.8972,22.9045]]]},"properties":{"CVE_ENT":"32","CVE_MUN":"020","CVEGEO":"32020","NOMGEO":"Jerez"}},
{"type":"Feature","geometry":{"type":"Polygon","coordinates":[[[-102.9804,21.3618],[-102.9952,21.3738],[-102.9919,21.3961],[-103.0002,21.4077],[-103.0261,21.4128],[-103.039,21.4261],[-103.082,21.4265],[-103.1062,21.4426],[-103.1188,21.4422],[-103.1342,21.4559],[-103.15,21.4483],[-103.1707,21.4493],[-103.1913,21.4384],[-103.2197,21.4548],[-103.2321,21.4313],[-103.2223,21.4184],[-103.2587,21.3974],[-103.2573,21.383],[-103.2621,21.3466],[-103.2587,21.3409],[-103.2485,21.3299],[-103.2391,21.3284],[-103.2349,21.3265],[-103.2278,21.335],[-103.2173,21.3393],[-103.1613,21.3239],[-103.1413,21.3285],[-103.1145,21.3202],[-103.1092,21.2998],[-103.089,21.3068],[-103.075,21.2993],[-103.034,21.297],[-103.0202,21.3328],[-102.9978,21.3476],[-102.9807,21.3511],[-102.9804,21.3618]]]},"properties":{"CVE_ENT":"32","CVE_MUN":"023","CVEGEO":"32023","NOMGEO":"Juchipila"}},
{"type":"Feature","geometry":{"type":"Polygon","coordinates":[[[-103.1977,21.5853],[-103.2339,21.554],[-103.2443,21.501],[-103.2538,21.5155],[-103.2904,21.5227],[-103.291,21.5166],[-103.3276,21.5217],[-103.315,21.536],[-103.3675,21.5641],[-103.3701,21.5705],[-103.4307,21.5769],[-103.4541,21.5831],[-103.5117,21.5924],[-103.5009,21.5555],[-103.4864,21.5094],[-103.4691,21.5063],[-103.4259,21.4857],[-103.3191,21.4803],[-103.2794,21.4711],[-103.265,21.4545],[-103.2321,21.4313],[-103.2197,21.4548],[-103.2145,21.4648],[-103.1772,21.5632],[-103.1698,21.5827],[-103.1977,21.5853]]]},"properties":{"CVE_ENT":"32","CVE_MUN":"058","CVEGEO":"32058","NOMGEO":"Santa María de la Paz"}},
{"type":"Feature","geometry":{"type":"Polygon","coordinates":[[[-102.0869,22.5553],[-102.0819,22.5364],[-102.0901,22.5238],[-102.1297,22.5301],[-102.1271,22.569],[-102.1457,22.5727],[-102.1723,22.6057],[-102.1789,22.6349],[-102.1961,22.6494],[-102.1751,22.6735],[-102.1682,22.6899],[-102.1766,22.7113],[-102.1604,22.7183],[-102.1973,22.7454],[-102.2094,22.7391],[-102.2273,22.7423],[-102.2461,22.7345],[-102.2469,22.7062],[-102.2554,22.6895],[-102.313,22.6904],[-102.3612,22.6762],[-102.388,22.6614],[-102.3998,22.6621],[-102.4067,22.6375],[-102.4257,22.6354],[-102.4335,22.6187],[-102.4284,22.6005],[-102.3849,22.5985],[-102.3649,22.5861],[-102.3411,22.5707],[-102.3307,22.5716],[-102.3185,22.5549],[-102.3055,22.5539],[-102.2695,22.5632],[-102.2757,22.5123],[-102.2498,22.5081],[-102.2499,22.5192],[-102.2289,22.5174],[-102.2015,22.5025],[-102.1923,22.4869],[-102.1979,22.462],[-102.213,22.4431],[-102.2171,22.4154],[-102.135,22.4073],[-102.1103,22.4008],[-102.1112,22.3859],[-102.0903,22.4012],[-102.0649,22.4077],[-102.0451,22.4279],[-102.0463,22.4444],[-102.0741,22.49],[-102.0442,22.5012],[-102.0418,22.5344],[-102.0869,22.5553]]]},"properties":{"CVE_ENT":"32","CVE_MUN":"036","CVEGEO":"32036","NOMGEO":"Ojocaliente"}},
{"type":"Feature","geometry":{"type":"Polygon","coordinates":[[[-102.2461,22.7345],[-102.2458,22.7459],[-102.2173,22.8345],[-102.3699,22.8026],[-102.3996,22.8112],[-102.399,22.7967],[-102.3835,22.7958],[-102.395,22.7636],[-102.4029,22.7636],[-102.3925,22.724],[-102.3805,22.7004],[-102.3712,22.7031],[-102.3612,22.6762],[-102.313,22.6904],[-102.2554,22.6895],[-102.2469,22.7062],[-102.2461,22.7345]]]},"properties":{"CVE_ENT":"32","CVE_MUN":"057","CVEGEO":"32057","NOMGEO":"Trancoso"}},
{"type":"Feature","geometry":{"type":"Polygon","coordinates":[[[-103.1725,21.9966],[-103.1918,21.9982],[-103.1982,21.9846],[-103.1931,21.9696],[-103.2215,21.968],[-103.2451,21.9772],[-103.2647,21.9718],[-103.2786,21.9897],[-103.3024,21.9705],[-103.3101,21.9591],[-103.3387,21.9423],[-103.3453,21.9144],[-103.3748,21.9137],[-103.3892,21.8987],[-103.3851,21.8909],[-103.3613,21.8977],[-103.3454,21.892],[-103.3,21.8919],[-103.2717,21.9127],[-103.2403,21.9173],[-103.2266,21.9083],[-103.2022,21.9025],[-103.1726,21.9156],[-103.1505,21.917],[-103.1391,21.953],[-103.1437,21.9684],[-103.1725,21.9966]]]},"properties":{"CVE_ENT":"32","CVE_MUN":"030","CVEGEO":"32030","NOMGEO":"Momax"}},
{"type":"Feature","geometry":{"type":"Polygon","coordinates":[[[-102.6533,22.9339],[-102.6629,22.9158],[-102.6844,22.9192],[-102.6879,22.8973],[-102.7085,22.8963],[-102.712,22.8775],[-102.7794,22.8795],[-102.791,22.8573],[-102.795,22.8356],[-102.7711,22.8414],[-102.7452,22.8331],[-102.7475,22.8049],[-102.7144,22.8115],[-102.6946,22.8105],[-102.6848,22.8171],[-102.638,22.8185],[-102.6286,22.8153],[-102.6226,22.7915],[-102.5931,22.7943],[-102.5854,22.8115],[-102.5871,22.8276],[-102.574,22.8322],[-102.5706,22.8519],[-102.5774,22.8663],[-102.5927,22.8764],[-102.6021,22.8933],[-102.614,22.8769],[-102.6412,22.9019],[-102.6569,22.9069],[-102.6533,22.9339]]]},"properties":{"CVE_ENT":"32","CVE_MUN":"032","CVEGEO":"32032","NOMGEO":"Morelos"}},
{"type":"Feature","geometry":{"type":"Polygon","coordinates":[[[-102.5854,22.8115],[-102.5931,22.7943],[-102.6226,22.7915],[-102.6286,22.8153],[-102.638,22.8185],[-102.6848,22.8171],[-102.6946,22.8105],[-102.7144,22.8115],[-102.7475,22.8049],[-102.7452,22.8331],[-102.7711,22.8414],[-102.795,22.8356],[-102.8432,22.838],[-102.8429,22.8095],[-102.793,22.7947],[-102.7733,22.7818],[-102.7794,22.7657],[-102.7802,22.7334],[-102.7619,22.7221],[-102.7805,22.6979],[-102.7874,22.675],[-102.7603,22.6666],[-102.7439,22.6708],[-102.7397,22.6571],[-102.7031,22.649],[-102.7078,22.6294],[-102.6943,22.6223],[-102.6572,22.6173],[-102.6409,22.6278],[-102.6156,22.6336],[-102.597,22.6689],[-102.5707,22.675],[-102.5714,22.6947],[-102.5573,22.7051],[-102.5642,22.729],[-102.5458,22.7528],[-102.5393,22.7764],[-102.5471,22.7972],[-102.5653,22.8079],[-102.5854,22.8115]]]},"properties":{"CVE_ENT":"32","CVE_MUN":"056","CVEGEO":"32056","NOMGEO":"Zacatecas"}},
{"type":"Feature","geometry":{"type":"Polygon","coordinates":[[[-101.7993,22.4706],[-101.8173,22.4748],[-101.845,22.5018],[-101.8677,22.4736],[-101.8886,22.4615],[-101.9051,22.4686],[-101.9821,22.4751],[-101.9877,22.4608],[-102.0076,22.4607],[-102.0218,22.4379],[-102.0451,22.4279],[-102.0649,22.4077],[-102.0903,22.4012],[-102.1112,22.3859],[-102.1123,22.3802],[-102.0841,22.3609],[-102.0186,22.3604],[-102.0193,22.3492],[-101.9785,22.3533],[-101.9375,22.3497],[-101.9005,22.3295],[-101.8665,22.3226],[-101.8421,22.2962],[-101.7922,22.2994],[-101.778,22.3003],[-101.7639,22.3312],[-101.7592,22.3528],[-101.7779,22.3511],[-101.8462,22.3522],[-101.8347,22.3756],[-101.8033,22.3722],[-101.7978,22.3908],[-101.8167,22.4073],[-101.7978,22.4701],[-101.7993,22.4706]]]},"properties":{"CVE_ENT":"32","CVE_MUN":"035","CVEGEO":"32035","NOMGEO":"Noria de Ángeles"}},
{"type":"Feature","geometry":{"type":"Polygon","coordinates":[[[-102.6099,23.0704],[-102.6174,23.0884],[-102.6645,23.1214],[-102.68,23.1017],[-102.6892,23.0801],[-102.7113,23.0576],[-102.6901,23.035],[-102.6885,22.9973],[-102.6944,22.9818],[-102.7532,22.96],[-102.7697,22.9567],[-102.786,22.9653],[-102.8179,22.9697],[-102.8176,22.9815],[-102.8858,22.985],[-102.8947,22.9791],[-102.8969,22.9563],[-102.9081,22.9373],[-102.8972,22.9045],[-102.8745,22.8997],[-102.8584,22.8901],[-102.8663,22.8507],[-102.8414,22.8509],[-102.8432,22.838],[-102.795,22.8356],[-102.791,22.8573],[-102.7794,22.8795],[-102.712,22.8775],[-102.7085,22.8963],[-102.6879,22.8973],[-102.6844,22.9192],[-102.6629,22.9158],[-102.6533,22.9339],[-102.6264,22.9344],[-102.6251,23.0206],[-102.6352,23.0379],[-102.6078,23.0372],[-102.6027,23.0505],[-102.6099,23.0704]]]},"properties":{"CVE_ENT":"32","CVE_MUN":"005","CVEGEO":"32005","NOMGEO":"Calera"}},
{"type":"Feature","geometry":{"type":"Polygon","coordinates":[[[-102.8772,23.5594],[-102.897,23.5626],[-102.9323,23.5917],[-102.9594,23.5949],[-102.9595,23.4667],[-102.9783,23.4777],[-103.0141,23.4756],[-103.0453,23.454],[-103.0631,23.4471],[-103.086,23.4463],[-103.0926,23.439],[-103.1348,23.4276],[-103.1494,23.4159],[-103.1811,23.4209],[-103.1897,23.4019],[-103.2339,23.4136],[-103.2327,23.4352],[-103.2531,23.4459],[-103.2719,23.4462],[-103.2804,23.4372],[-103.2967,23.4473],[-103.3097,23.4472],[-103.3235,23.4229],[-103.3465,23.4077],[-103.3766,23.4148],[-103.4005,23.3982],[-103.4039,23.4156],[-103.4856,23.4108],[-103.4961,23.4097],[-103.4944,23.3856],[-103.5139,23.3821],[-103.5132,23.3574],[-103.5236,23.3501],[-103.4965,23.3306],[-103.4707,23.3035],[-103.4819,23.2627],[-103.4943,23.2506],[-103.4955,23.2312],[-103.4837,23.2009],[-103.5049,23.1919],[-103.5176,23.1626],[-103.5087,23.1518],[-103.5118,23.1254],[-103.4503,23.1126],[-103.4322,23.1206],[-103.4147,23.0761],[-103.3922,23.0502],[-103.3772,23.0602],[-103.3465,23.0526],[-103.3416,23.0466],[-103.3021,23.0313],[-103.2937,23.0367],[-103.2802,23.0183],[-103.2601,23.0086],[-103.2413,23.0097],[-103.2482,22.9677],[-103.2242,22.9551],[-103.2208,22.9471],[-103.2443,22.9028],[-103.225,22.9012],[-103.2161,22.8889],[-103.2032,22.887],[-103.1685,22.8773],[-103.1576,22.853],[-103.1244,22.8718],[-103.1078,22.9078],[-103.0743,22.9135],[-103.0483,22.9023],[-103.038,22.9224],[-103.0138,22.9144],[-103.0008,22.9199],[-102.9819,22.898],[-102.9546,22.9031],[-102.9279,22.9207],[-102.9199,22.9081],[-102.8972,22.9045],[-102.9081,22.9373],[-102.8969,22.9563],[-102.8947,22.9791],[-102.9043,22.9797],[-102.9016,23.0227],[-102.8786,23.0204],[-102.8743,23.0485],[-102.8389,23.0509],[-102.8394,23.0608],[-102.818,23.0713],[-102.7668,23.0714],[-102.753,23.0568],[-102.7266,23.0518],[-102.7113,23.0576],[-102.6892,23.0801],[-102.68,23.1017],[-102.6645,23.1214],[-102.6174,23.0884],[-102.6099,23.0704],[-102.5756,23.0795],[-102.55,23.1069],[-102.5252,23.1492],[-102.5183,23.1692],[-102.4929,23.1824],[-102.5449,23.2183],[-102.5178,23.2469],[-102.5201,23.2615],[-102.5018,23.2879],[-102.5065,23.31],[-102.5226,23.3148],[-102.5397,23.3279],[-102.5611,23.3371],[-102.5587,23.3634],[-102.5237,23.3935],[-102.4986,23.4239],[-102.4882,23.4415],[-102.4861,23.4605],[-102.5398,23.4805],[-102.5345,23.5033],[-102.5677,23.5168],[-102.5972,23.5197],[-102.6171,23.5138],[-102.6439,23.5333],[-102.6616,23.5162],[-102.6826,23.5157],[-102.7469,23.5385],[-102.7655,23.5286],[-102.7767,23.4844],[-102.8007,23.4809],[-102.8113,23.4708],[-102.8339,23.4651],[-102.8566,23.479],[-102.8701,23.4754],[-102.8783,23.4871],[-102.8682,23.5124],[-102.8655,23.5395],[-102.8772,23.5594]]]},"properties":{"CVE_ENT":"32","CVE_MUN":"010","CVEGEO":"32010","NOMGEO":"Fresnillo"}},
{"type":"Feature","geometry":{"type":"Polygon","coordinates":[[[-102.9463,21.4839],[-102.9822,21.4964],[-103.0038,21.5133],[-103.0152,21.5037],[-103.0309,21.5054],[-103.0405,21.5253],[-103.0557,21.5167],[-103.0742,21.5242],[-103.0835,21.5353],[-103.1111,21.54],[-103.1288,21.5345],[-103.1572,21.5491],[-103.1603,21.5609],[-103.1772,21.5632],[-103.2145,21.4648],[-103.2197,21.4548],[-103.1913,21.4384],[-103.1707,21.4493],[-103.15,21.4483],[-103.1342,21.4559],[-103.1188,21.4422],[-103.1062,21.4426],[-103.082,21.4265],[-103.039,21.4261],[-103.0261,21.4128],[-103.0002,21.4077],[-102.9919,21.3961],[-102.9952,21.3738],[-102.9804,21.3618],[-102.9706,21.376],[-102.9623,21.4014],[-102.9421,21.4003],[-102.942,21.4138],[-102.9536,21.419],[-102.9456,21.4526],[-102.9519,21.4694],[-102.95,21.4753],[-102.9475,21.4799],[-102.9463,21.4839]]]},"properties":{"CVE_ENT":"32","CVE_MUN":"001","CVEGEO":"32001","NOMGEO":"Apozol"}},
{"type":"Feature","geometry":{"type":"Polygon","coordinates":[[[-103.4139,21.2785],[-103.4196,21.2888],[-103.4179,21.3155],[-103.4362,21.3293],[-103.4592,21.3192],[-103.4817,21.3024],[-103.4907,21.304],[-103.5214,21.2906],[-103.5328,21.2774],[-103.5516,21.2696],[-103.5509,21.2533],[-103.5807,21.2469],[-103.5766,21.2168],[-103.5823,21.1954],[-103.6056,21.211],[-103.6062,21.1947],[-103.616,21.1956],[-103.6204,21.1927],[-103.6245,21.1931],[-103.6164,21.1861],[-103.6114,21.1787],[-103.6146,21.1582],[-103.6042,21.1537],[-103.5917,21.1286],[-103.5701,21.1178],[-103.534,21.1307],[-103.5315,21.142],[-103.5146,21.1447],[-103.5041,21.1277],[-103.4688,21.1435],[-103.4575,21.1695],[-103.4306,21.1804],[-103.4163,21.206],[-103.4047,21.2512],[-103.4139,21.2785]]]},"properties":{"CVE_ENT":"32","CVE_MUN":"011","CVEGEO":"32011","NOMGEO":"Trinidad García de la Cadena"}},
{"type":"Feature","geometry":{"type":"Polygon","coordinates":[[[-102.7175,21.5715],[-102.7316,21.5726],[-102.7497,21.5476],[-102.7443,21.5148],[-102.7622,21.4995],[-102.7538,21.4632],[-102.7437,21.453],[-102.7166,21.4588],[-102.7048,21.4429],[-102.6918,21.4152],[-102.6996,21.4076],[-102.736,21.3996],[-102.7291,21.3874],[-102.7133,21.3798],[-102.7006,21.3613],[-102.7001,21.3457],[-102.6818,21.3392],[-102.6426,21.3672],[-102.6415,21.3865],[-102.6526,21.4059],[-102.655,21.4401],[-102.6369,21.4589],[-102.6488,21.4748],[-102.6248,21.5014],[-102.6422,21.5187],[-102.642,21.5359],[-102.6975,21.5491],[-102.6951,21.5729],[-102.7175,21.5715]]]},"properties":{"CVE_ENT":"32","CVE_MUN":"002","CVEGEO":"32002","NOMGEO":"Apulco"}},
{"type":"Feature","geometry":{"type":"Polygon","coordinates":[[[-102.9594,23.5949],[-103.0157,23.5907],[-103.0311,23.5952],[-103.0291,23.621],[-103.0475,23.6329],[-103.0756,23.6256],[-103.1159,23.6333],[-103.1102,23.6553],[-103.1131,23.6681],[-103.0994,23.6912],[-103.1311,23.6953],[-103.1705,23.6956],[-103.1866,23.6769],[-103.2064,23.6786],[-103.2029,23.7171],[-103.2338,23.7402],[-103.22,23.7586],[-103.2203,23.7818],[-103.2938,23.7698],[-103.3404,23.7499],[-103.36,23.7461],[-103.3729,23.7379],[-103.3764,23.7161],[-103.3704,23.701],[-103.4081,23.6988],[-103.3909,23.6729],[-103.3958,23.6644],[-103.3864,23.6403],[-103.3703,23.6368],[-103.399,23.6101],[-103.4651,23.6073],[-103.4924,23.5518],[-103.4775,23.5406],[-103.4576,23.5113],[-103.4476,23.4792],[-103.4701,23.4645],[-103.4793,23.449],[-103.4856,23.4108],[-103.4039,23.4156],[-103.4005,23.3982],[-103.3766,23.4148],[-103.3465,23.4077],[-103.3235,23.4229],[-103.3097,23.4472],[-103.2967,23.4473],[-103.2804,23.4372],[-103.2719,23.4462],[-103.2531,23.4459],[-103.2327,23.4352],[-103.2339,23.4136],[-103.1897,23.4019],[-103.1811,23.4209],[-103.1494,23.4159],[-103.1348,23.4276],[-103.0926,23.439],[-103.086,23.4463],[-103.0631,23.4471],[-103.0453,23.454],[-103.0141,23.4756],[-102.9783,23.4777],[-102.9595,23.4667],[-102.9594,23.5949]]]},"properties":{"CVE_ENT":"32","CVE_MUN":"040","CVEGEO":"32040","NOMGEO":"Sain Alto"}},
{"type":"Feature","geometry":{"type":"Polygon","coordinates":[[[-100.7999,24.5562],[-100.8104,24.5516],[-100.8478,24.5556],[-100.9022,24.5839],[-100.9588,24.5427],[-101.0805,24.5912],[-101.0316,24.5104],[-100.9873,24.4325],[-100.9879,24.4178],[-101.0099,24.3851],[-101.0033,24.3677],[-101.0106,24.3568],[-101.0067,24.3358],[-100.9453,24.2812],[-100.8504,24.3435],[-100.7423,24.4604],[-100.7999,24.5562]]]},"properties":{"CVE_ENT":"32","CVE_MUN":"041","CVEGEO":"32041","NOMGEO":"El Salvador"}},
{"type":"Feature","geometry":{"type":"Polygon","coordinates":[[[-102.2601,23.0459],[-102.2967,23.0471],[-102.3172,23.042],[-102.3593,23.0415],[-102.3482,23.0697],[-102.3234,23.0904],[-102.3061,23.0955],[-102.3906,23.1097],[-102.3905,23.0948],[-102.5244,23.0942],[-102.5248,23.0678],[-102.5467,23.0697],[-102.5756,23.0795],[-102.6099,23.0704],[-102.6027,23.0505],[-102.6078,23.0372],[-102.6352,23.0379],[-102.6251,23.0206],[-102.6264,22.9344],[-102.6533,22.9339],[-102.6569,22.9069],[-102.6412,22.9019],[-102.614,22.8769],[-102.6021,22.8933],[-102.5927,22.8764],[-102.5774,22.8663],[-102.5706,22.8519],[-102.5556,22.8662],[-102.5428,22.849],[-102.525,22.8666],[-102.5068,22.8734],[-102.4682,22.8732],[-102.458,22.8853],[-102.4265,22.8939],[-102.4347,22.9146],[-102.4495,22.9309],[-102.422,22.9348],[-102.4292,22.9611],[-102.4101,22.9546],[-102.3869,22.9516],[-102.3428,22.9558],[-102.342,22.9723],[-102.3211,22.9843],[-102.2615,22.9889],[-102.2616,23.007],[-102.2335,23.0249],[-102.2381,23.0476],[-102.2601,23.0459]]]},"properties":{"CVE_ENT":"32","CVE_MUN":"037","CVEGEO":"32037","NOMGEO":"Pánuco"}},
{"type":"Feature","geometry":{"type":"Polygon","coordinates":[[[-103.7269,23.2985],[-103.7538,23.3034],[-103.7736,23.2985],[-103.7769,23.2873],[-103.7958,23.2822],[-103.8132,23.3196],[-103.8249,23.3229],[-103.857,23.3159],[-103.8665,23.3059],[-103.8849,23.3104],[-103.8888,23.2878],[-103.9015,23.277],[-103.9477,23.2769],[-103.9674,23.2919],[-103.9687,23.301],[-103.9908,23.3144],[-104.0246,23.3059],[-104.0393,23.3135],[-104.0604,23.3001],[-104.0784,23.3111],[-104.0885,23.3075],[-104.1144,23.3172],[-104.1202,23.2868],[-104.129,23.1822],[-104.1721,23.1284],[-104.1736,22.9824],[-104.1628,22.9749],[-104.1539,22.9718],[-104.1303,22.9785],[-104.1176,22.9915],[-104.1258,23.0154],[-104.1194,23.0318],[-104.088,23.0294],[-104.0683,23.0223],[-104.0563,23.0284],[-104.035,23.0518],[-104.0159,23.0539],[-103.9932,23.0733],[-103.9819,23.0648],[-103.9609,23.0657],[-103.9368,23.0517],[-103.9127,23.0611],[-103.9072,23.0456],[-103.8904,23.0332],[-103.8786,23.0612],[-103.8584,23.0896],[-103.8478,23.0878],[-103.8232,23.0959],[-103.8045,23.0942],[-103.7811,23.1149],[-103.7706,23.157],[-103.7564,23.1626],[-103.7415,23.1571],[-103.729,23.1727],[-103.707,23.1795],[-103.6873,23.1965],[-103.6585,23.191],[-103.6592,23.2176],[-103.6523,23.2327],[-103.6697,23.2353],[-103.6741,23.2216],[-103.6874,23.2168],[-103.6889,23.2448],[-103.7243,23.2568],[-103.7305,23.2702],[-103.7269,23.2985]]]},"properties":{"CVE_ENT":"32","CVE_MUN":"021","CVEGEO":"32021","NOMGEO":"Jiménez del Teul"}},
{"type":"Feature","geometry":{"type":"Polygon","coordinates":[[[-103.2321,21.4313],[-103.265,21.4545],[-103.2794,21.4711],[-103.3191,21.4803],[-103.4259,21.4857],[-103.4691,21.5063],[-103.4864,21.5094],[-103.4866,21.4904],[-103.4704,21.4779],[-103.4821,21.4589],[-103.4855,21.4344],[-103.5031,21.4029],[-103.5147,21.3964],[-103.5039,21.3768],[-103.5233,21.352],[-103.5581,21.3482],[-103.5686,21.3376],[-103.5844,21.3354],[-103.603,21.3491],[-103.6315,21.3416],[-103.6634,21.3383],[-103.6717,21.3225],[-103.6822,21.3188],[-103.7032,21.3259],[-103.7208,21.308],[-103.7222,21.2846],[-103.7162,21.2679],[-103.6899,21.2854],[-103.6658,21.2906],[-103.6571,21.2821],[-103.6351,21.2832],[-103.6413,21.2595],[-103.6366,21.2401],[-103.6402,21.2221],[-103.6535,21.2087],[-103.6328,21.1934],[-103.6299,21.194],[-103.6204,21.1927],[-103.6062,21.1947],[-103.6056,21.211],[-103.5823,21.1954],[-103.5766,21.2168],[-103.5807,21.2469],[-103.5509,21.2533],[-103.5516,21.2696],[-103.5328,21.2774],[-103.5214,21.2906],[-103.4907,21.304],[-103.4817,21.3024],[-103.4592,21.3192],[-103.4362,21.3293],[-103.4179,21.3155],[-103.4196,21.2888],[-103.4007,21.2893],[-103.392,21.276],[-103.3591,21.3052],[-103.3465,21.3104],[-103.3416,21.3402],[-103.3282,21.345],[-103.3054,21.3392],[-103.2883,21.3459],[-103.2637,21.3441],[-103.2587,21.3409],[-103.2621,21.3466],[-103.2573,21.383],[-103.2587,21.3974],[-103.2223,21.4184],[-103.2321,21.4313]]]},"properties":{"CVE_ENT":"32","CVE_MUN":"047","CVEGEO":"32047","NOMGEO":"Teúl de González Ortega"}},
{"type":"Feature","geometry":{"type":"Polygon","coordinates":[[[-103.1586,21.6331],[-103.1594,21.635],[-103.1587,21.6368],[-103.1615,21.6434],[-103.1669,21.6495],[-103.1841,21.6512],[-103.188,21.6485],[-103.1914,21.6485],[-103.1996,21.6598],[-103.2242,21.6706],[-103.2492,21.666],[-103.2658,21.6833],[-103.2885,21.6877],[-103.2874,21.7012],[-103.305,21.709],[-103.3427,21.6969],[-103.3523,21.7139],[-103.3712,21.7057],[-103.3897,21.7053],[-103.3935,21.7213],[-103.427,21.7283],[-103.4572,21.7099],[-103.4622,21.697],[-103.4816,21.6958],[-103.4852,21.6823],[-103.5127,21.6585],[-103.5258,21.6389],[-103.5483,21.6497],[-103.5555,21.6341],[-103.5504,21.597],[-103.5547,21.5766],[-103.5449,21.5723],[-103.5219,21.5793],[-103.5104,21.5538],[-103.5009,21.5555],[-103.5117,21.5924],[-103.4541,21.5831],[-103.4307,21.5769],[-103.3701,21.5705],[-103.3675,21.5641],[-103.315,21.536],[-103.3276,21.5217],[-103.291,21.5166],[-103.2904,21.5227],[-103.2538,21.5155],[-103.2443,21.501],[-103.2339,21.554],[-103.1977,21.5853],[-103.2022,21.6019],[-103.18,21.6134],[-103.1586,21.6331]]]},"properties":{"CVE_ENT":"32","CVE_MUN":"045","CVEGEO":"32045","NOMGEO":"Tepechitlán"}},
{"type":"Feature","geometry":{"type":"Polygon","coordinates":[[[-102.2797,24.0087],[-102.3046,23.9798],[-102.3252,23.9793],[-102.4724,24.0101],[-102.4877,23.9741],[-102.557,24.0154],[-102.5628,23.9877],[-102.576,23.9723],[-102.6073,23.9724],[-102.6083,23.9662],[-102.5829,23.9541],[-102.5831,23.9465],[-102.5408,23.946],[-102.5466,23.9084],[-102.5287,23.9007],[-102.5351,23.8661],[-102.5539,23.8438],[-102.6192,23.7994],[-102.6669,23.7901],[-102.6689,23.7961],[-102.7303,23.7981],[-102.7269,23.7668],[-102.7328,23.7517],[-102.6962,23.7341],[-102.6885,23.7033],[-102.6737,23.6861],[-102.7015,23.673],[-102.6483,23.6702],[-102.6392,23.657],[-102.6449,23.6366],[-102.6295,23.6318],[-102.6214,23.6083],[-102.6061,23.5811],[-102.575,23.5664],[-102.5685,23.5481],[-102.5547,23.5423],[-102.5677,23.5168],[-102.5345,23.5033],[-102.5398,23.4805],[-102.4861,23.4605],[-102.4882,23.4415],[-102.4986,23.4239],[-102.5237,23.3935],[-102.5587,23.3634],[-102.5611,23.3371],[-102.5397,23.3279],[-102.5226,23.3148],[-102.5065,23.31],[-102.5018,23.2879],[-102.5201,23.2615],[-102.5178,23.2469],[-102.5449,23.2183],[-102.4929,23.1824],[-102.5183,23.1692],[-102.5252,23.1492],[-102.55,23.1069],[-102.5756,23.0795],[-102.5467,23.0697],[-102.5248,23.0678],[-102.5244,23.0942],[-102.3905,23.0948],[-102.3906,23.1097],[-102.3061,23.0955],[-102.3234,23.0904],[-102.3482,23.0697],[-102.3593,23.0415],[-102.3172,23.042],[-102.2967,23.0471],[-102.2601,23.0459],[-102.2513,23.0716],[-102.2237,23.1194],[-102.2142,23.1313],[-102.241,23.1694],[-102.2395,23.2095],[-102.2894,23.2317],[-102.2858,23.2733],[-102.2528,23.2712],[-102.2447,23.2768],[-102.2316,23.3151],[-102.2411,23.315],[-102.2547,23.2808],[-102.296,23.3205],[-102.2683,23.3423],[-102.2536,23.365],[-102.2382,23.4469],[-102.1936,23.4476],[-102.1962,23.4249],[-102.1913,23.4014],[-102.1686,23.3989],[-102.1688,23.361],[-102.1225,23.3539],[-102.0119,23.3727],[-101.7751,23.4476],[-101.4667,23.6937],[-101.4983,23.7271],[-101.5341,23.7524],[-101.515,23.7644],[-101.5195,23.7773],[-101.5127,23.8139],[-101.5165,23.823],[-101.5448,23.813],[-101.5649,23.8165],[-101.5757,23.8095],[-101.5977,23.8165],[-101.6236,23.8307],[-101.6644,23.8284],[-101.6756,23.8373],[-101.7017,23.8329],[-101.7327,23.8185],[-101.7483,23.8226],[-101.7594,23.8121],[-101.7727,23.8189],[-101.8256,23.8328],[-101.8898,23.8343],[-101.9205,23.8441],[-101.938,23.8248],[-101.9623,23.8332],[-101.9851,23.8193],[-102.0099,23.8129],[-102.0181,23.8339],[-102.0424,23.8634],[-102.0528,23.8654],[-102.0719,23.8549],[-102.0853,23.8572],[-102.0917,23.8805],[-102.0909,23.9034],[-102.0976,23.9168],[-102.1391,23.9027],[-102.1607,23.9379],[-102.1628,23.9566],[-102.1948,23.9573],[-102.2284,23.97],[-102.2686,23.9939],[-102.2797,24.0087]]]},"properties":{"CVE_ENT":"32","CVE_MUN":"051","CVEGEO":"32051","NOMGEO":"Villa de Cos"}},
{"type":"Feature","geometry":{"type":"Polygon","coordinates":[[[-102.4101,22.9546],[-102.4292,22.9611],[-102.422,22.9348],[-102.4495,22.9309],[-102.4347,22.9146],[-102.4265,22.8939],[-102.458,22.8853],[-102.4682,22.8732],[-102.5068,22.8734],[-102.525,22.8666],[-102.5428,22.849],[-102.5556,22.8662],[-102.5706,22.8519],[-102.574,22.8322],[-102.5871,22.8276],[-102.5854,22.8115],[-102.5653,22.8079],[-102.5471,22.7972],[-102.5393,22.7764],[-102.5021,22.7879],[-102.4843,22.8012],[-102.4536,22.8026],[-102.4307,22.8353],[-102.4152,22.8351],[-102.4047,22.8478],[-102.3958,22.8704],[-102.3939,22.8966],[-102.4158,22.9041],[-102.4101,22.9546]]]},"properties":{"CVE_ENT":"32","CVE_MUN":"050","CVEGEO":"32050","NOMGEO":"Vetagrande"}},
{"type":"Feature","geometry":{"type":"Polygon","coordinates":[[[-103.5176,23.1626],[-103.5583,23.1496],[-103.5758,23.161],[-103.6213,23.1411],[-103.6355,23.1097],[-103.665,23.0978],[-103.677,23.1126],[-103.6975,23.1075],[-103.7121,23.1102],[-103.7342,23.102],[-103.7588,23.1005],[-103.7658,23.0807],[-103.7868,23.0809],[-103.8066,23.0748],[-103.8309,23.0609],[-103.8418,23.0661],[-103.8786,23.0612],[-103.8904,23.0332],[-103.9072,23.0456],[-103.9127,23.0611],[-103.9368,23.0517],[-103.9609,23.0657],[-103.9819,23.0648],[-103.9932,23.0733],[-104.0159,23.0539],[-104.035,23.0518],[-104.0563,23.0284],[-104.0683,23.0223],[-104.088,23.0294],[-104.1194,23.0318],[-104.1258,23.0154],[-104.1176,22.9915],[-104.1303,22.9785],[-104.1539,22.9718],[-104.1628,22.9749],[-104.1682,22.9636],[-104.1653,22.9418],[-104.1538,22.9365],[-104.1511,22.9221],[-104.1348,22.9157],[-104.1119,22.8884],[-104.1063,22.8569],[-104.1157,22.8484],[-104.1044,22.8325],[-104.1101,22.823],[-104.0947,22.8002],[-104.0907,22.7753],[-104.1194,22.7623],[-104.1377,22.7681],[-104.1574,22.7597],[-104.1822,22.7583],[-104.1914,22.7707],[-104.221,22.7794],[-104.2373,22.7498],[-104.2663,22.7365],[-104.2637,22.7168],[-104.2776,22.7024],[-104.2744,22.6849],[-104.2883,22.6635],[-104.2891,22.6493],[-104.2693,22.6358],[-104.2761,22.6157],[-104.2603,22.5952],[-104.2706,22.589],[-104.2889,22.5609],[-104.3057,22.5579],[-104.3227,22.533],[-104.3195,22.5177],[-104.3028,22.492],[-104.2961,22.473],[-104.299,22.4617],[-104.3148,22.4488],[-104.3202,22.4301],[-104.3445,22.4176],[-104.3488,22.4097],[-104.35,22.3864],[-104.3253,22.3807],[-104.2931,22.3651],[-104.2926,22.3443],[-104.2579,22.3477],[-104.2544,22.3925],[-104.241,22.4128],[-104.2088,22.4225],[-104.1992,22.4073],[-104.1777,22.3896],[-104.1646,22.3924],[-104.1775,22.4233],[-104.1716,22.4431],[-104.1908,22.446],[-104.1999,22.4563],[-104.1868,22.4663],[-104.2023,22.4887],[-104.1895,22.5078],[-104.1781,22.5053],[-104.1557,22.5154],[-104.1431,22.5047],[-104.113,22.5033],[-104.1208,22.5156],[-104.1027,22.5314],[-104.0799,22.5332],[-104.0688,22.522],[-104.0712,22.5024],[-104.0548,22.4894],[-104.0516,22.4667],[-104.0622,22.4513],[-104.0634,22.4326],[-104.0728,22.4203],[-104.0807,22.3909],[-104.0788,22.3769],[-104.0949,22.3763],[-104.0973,22.3578],[-104.0675,22.3614],[-104.0488,22.3764],[-104.0232,22.3645],[-104.0033,22.3899],[-104.0059,22.4087],[-103.9918,22.4111],[-103.9746,22.4332],[-103.9606,22.4332],[-103.9587,22.4511],[-103.9386,22.4627],[-103.9312,22.4767],[-103.9417,22.5022],[-103.9848,22.5191],[-104.0056,22.5366],[-103.9839,22.5541],[-103.9999,22.5645],[-103.9902,22.573],[-103.9889,22.5925],[-104.0181,22.597],[-104.0332,22.6322],[-104.0155,22.6689],[-104.0466,22.6842],[-104.0642,22.707],[-104.0477,22.7122],[-104.0408,22.7281],[-104.0257,22.7433],[-103.9919,22.748],[-103.9329,22.7453],[-103.91,22.7501],[-103.8983,22.7283],[-103.8751,22.7372],[-103.8541,22.7298],[-103.8216,22.734],[-103.8198,22.7285],[-103.7814,22.7298],[-103.7548,22.7195],[-103.7513,22.695],[-103.7632,22.677],[-103.7587,22.6584],[-103.7685,22.6433],[-103.7617,22.6271],[-103.7735,22.6115],[-103.8196,22.5956],[-103.8252,22.588],[-103.8553,22.575],[-103.8602,22.5643],[-103.8538,22.5498],[-103.8669,22.5447],[-103.8752,22.5216],[-103.8623,22.5019],[-103.8697,22.4737],[-103.8812,22.4747],[-103.8824,22.4533],[-103.8761,22.4412],[-103.8873,22.4321],[-103.866,22.4152],[-103.8693,22.4013],[-103.8826,22.4016],[-103.9079,22.3621],[-103.9213,22.3479],[-103.926,22.3316],[-103.9159,22.3105],[-103.9112,22.2844],[-103.9175,22.2645],[-103.9017,22.2371],[-103.887,22.2271],[-103.8731,22.1784],[-103.8622,22.1718],[-103.8441,22.2221],[-103.8452,22.2614],[-103.8292,22.2899],[-103.8461,22.331],[-103.8454,22.3428],[-103.8199,22.3641],[-103.8112,22.3767],[-103.8063,22.4418],[-103.7838,22.4879],[-103.7843,22.5063],[-103.7691,22.5558],[-103.7445,22.5585],[-103.7266,22.5741],[-103.7115,22.5645],[-103.6628,22.548],[-103.6353,22.5601],[-103.6102,22.5595],[-103.5836,22.5613],[-103.5687,22.5693],[-103.56,22.5606],[-103.5375,22.5705],[-103.5325,22.5594],[-103.4839,22.5553],[-103.4682,22.567],[-103.4624,22.6065],[-103.415,22.6306],[-103.4166,22.644],[-103.394,22.6622],[-103.3838,22.6615],[-103.3709,22.643],[-103.3583,22.6385],[-103.3425,22.6489],[-103.3016,22.6393],[-103.2835,22.6754],[-103.2222,22.6796],[-103.2162,22.6953],[-103.2319,22.7026],[-103.2496,22.7379],[-103.2352,22.7512],[-103.2439,22.7695],[-103.2364,22.7912],[-103.2431,22.8088],[-103.2291,22.8219],[-103.1973,22.84],[-103.1921,22.8562],[-103.2043,22.8652],[-103.2032,22.887],[-103.2161,22.8889],[-103.225,22.9012],[-103.2443,22.9028],[-103.2208,22.9471],[-103.2242,22.9551],[-103.2482,22.9677],[-103.2413,23.0097],[-103.2601,23.0086],[-103.2802,23.0183],[-103.2937,23.0367],[-103.3021,23.0313],[-103.3416,23.0466],[-103.3465,23.0526],[-103.3772,23.0602],[-103.3922,23.0502],[-103.4147,23.0761],[-103.4322,23.1206],[-103.4503,23.1126],[-103.5118,23.1254],[-103.5087,23.1518],[-103.5176,23.1626]]]},"properties":{"CVE_ENT":"32","CVE_MUN":"049","CVEGEO":"32049","NOMGEO":"Valparaíso"}},
{"type":"Feature","geometry":{"type":"Polygon","coordinates":[[[-103.1505,21.917],[-103.1726,21.9156],[-103.2022,21.9025],[-103.2266,21.9083],[-103.2403,21.9173],[-103.2717,21.9127],[-103.3,21.8919],[-103.3454,21.892],[-103.3613,21.8977],[-103.3851,21.8909],[-103.3892,21.8987],[-103.4084,21.9076],[-103.419,21.8962],[-103.401,21.8706],[-103.3565,21.8652],[-103.3306,21.8567],[-103.3154,21.8572],[-103.3089,21.8341],[-103.3269,21.8208],[-103.3289,21.8072],[-103.3614,21.8184],[-103.3651,21.7887],[-103.3894,21.7944],[-103.4036,21.7782],[-103.4034,21.7532],[-103.427,21.7283],[-103.3935,21.7213],[-103.3897,21.7053],[-103.3712,21.7057],[-103.3523,21.7139],[-103.3427,21.6969],[-103.305,21.709],[-103.2874,21.7012],[-103.2885,21.6877],[-103.2658,21.6833],[-103.2492,21.666],[-103.2242,21.6706],[-103.1996,21.6598],[-103.1978,21.6582],[-103.1914,21.6485],[-103.1841,21.6512],[-103.1661,21.6431],[-103.1615,21.6434],[-103.1602,21.6419],[-103.1587,21.6368],[-103.1594,21.635],[-103.1588,21.6338],[-103.1585,21.6334],[-103.1586,21.6331],[-103.1581,21.633],[-103.1579,21.6328],[-103.1287,21.6435],[-103.1239,21.6731],[-103.0962,21.694],[-103.1049,21.7097],[-103.0795,21.7178],[-103.0719,21.7463],[-103.0896,21.7659],[-103.083,21.7773],[-103.0854,21.8145],[-103.0753,21.8276],[-103.0874,21.8646],[-103.1091,21.8723],[-103.1165,21.8875],[-103.1504,21.8962],[-103.1505,21.917]]]},"properties":{"CVE_ENT":"32","CVE_MUN":"048","CVEGEO":"32048","NOMGEO":"Tlaltenango de Sánchez Román"}},
{"type":"Feature","geometry":{"type":"Polygon","coordinates":[[[-102.9463,21.4839],[-102.9437,21.4866],[-102.9414,21.4886],[-102.9385,21.4902],[-102.9384,21.4943],[-102.9442,21.5044],[-102.9419,21.5086],[-102.9199,21.5128],[-102.901,21.5365],[-102.8835,21.5505],[-102.8822,21.5677],[-102.8689,21.5826],[-102.8604,21.6106],[-102.8492,21.6314],[-102.8175,21.6198],[-102.8121,21.6345],[-102.8196,21.6502],[-102.8028,21.6675],[-102.8189,21.6801],[-102.8443,21.7077],[-102.8446,21.7194],[-102.8655,21.7333],[-102.8696,21.7426],[-102.8924,21.7188],[-102.9162,21.7124],[-102.9528,21.7125],[-102.9631,21.7208],[-102.9925,21.715],[-103.005,21.7178],[-103.0251,21.7465],[-103.0415,21.7579],[-103.0444,21.7692],[-103.0589,21.7768],[-103.0823,21.7765],[-103.0896,21.7659],[-103.0823,21.7603],[-103.0775,21.7583],[-103.0719,21.7463],[-103.0795,21.7178],[-103.1049,21.7097],[-103.0962,21.694],[-103.1239,21.6731],[-103.1287,21.6435],[-103.1396,21.6365],[-103.1504,21.6341],[-103.1546,21.6319],[-103.1564,21.6322],[-103.1573,21.6329],[-103.1579,21.6328],[-103.1581,21.633],[-103.1586,21.6331],[-103.18,21.6134],[-103.2022,21.6019],[-103.1977,21.5853],[-103.1698,21.5827],[-103.1772,21.5632],[-103.1603,21.5609],[-103.1572,21.5491],[-103.1288,21.5345],[-103.1111,21.54],[-103.0835,21.5353],[-103.0742,21.5242],[-103.0557,21.5167],[-103.0405,21.5253],[-103.0309,21.5054],[-103.0152,21.5037],[-103.0038,21.5133],[-102.9822,21.4964],[-102.9463,21.4839]]]},"properties":{"CVE_ENT":"32","CVE_MUN":"019","CVEGEO":"32019","NOMGEO":"Jalpa"}},
{"type":"Feature","geometry":{"type":"Polygon","coordinates":[[[-103.0332,21.2963],[-103.075,21.2993],[-103.089,21.3068],[-103.1092,21.2998],[-103.1145,21.3202],[-103.1413,21.3285],[-103.1613,21.3239],[-103.2173,21.3393],[-103.2278,21.335],[-103.2316,21.3288],[-103.2349,21.3265],[-103.2357,21.3265],[-103.2366,21.3264],[-103.237,21.3138],[-103.2597,21.2878],[-103.2551,21.2603],[-103.2289,21.2456],[-103.2411,21.2265],[-103.2368,21.2132],[-103.2486,21.2012],[-103.2927,21.1942],[-103.2801,21.157],[-103.2858,21.135],[-103.2497,21.1226],[-103.2504,21.0984],[-103.2582,21.0831],[-103.2326,21.0791],[-103.2091,21.0941],[-103.1901,21.086],[-103.1834,21.0719],[-103.1702,21.0724],[-103.126,21.0548],[-103.0746,21.0743],[-103.0583,21.0985],[-103.0728,21.0983],[-103.0986,21.1312],[-103.0807,21.1383],[-103.0713,21.1534],[-103.0836,21.1821],[-103.0699,21.2319],[-103.0496,21.2634],[-103.0349,21.2738],[-103.0332,21.2963]]]},"properties":{"CVE_ENT":"32","CVE_MUN":"033","CVEGEO":"32033","NOMGEO":"Moyahua de Estrada"}},
{"type":"Feature","geometry":{"type":"Polygon","coordinates":[[[-102.6943,22.6223],[-102.7133,22.6204],[-102.7287,22.5717],[-102.744,22.5464],[-102.7207,22.5359],[-102.71,22.5182],[-102.6899,22.5192],[-102.6696,22.513],[-102.6636,22.5],[-102.6729,22.4689],[-102.6864,22.4595],[-102.6935,22.4432],[-102.6917,22.4211],[-102.6825,22.4201],[-102.6676,22.3988],[-102.655,22.3892],[-102.6445,22.3526],[-102.6316,22.351],[-102.6259,22.3358],[-102.6101,22.3342],[-102.6011,22.3143],[-102.6121,22.2915],[-102.527,22.2909],[-102.5066,22.2938],[-102.5013,22.3043],[-102.4702,22.3092],[-102.467,22.3191],[-102.4661,22.3223],[-102.4643,22.3212],[-102.4623,22.3228],[-102.4622,22.3228],[-102.4618,22.323],[-102.4613,22.3231],[-102.4609,22.3232],[-102.461,22.3318],[-102.4712,22.3363],[-102.4838,22.3398],[-102.4926,22.3675],[-102.5398,22.3742],[-102.5134,22.4141],[-102.4937,22.4354],[-102.4795,22.4409],[-102.4766,22.4695],[-102.4408,22.4473],[-102.4431,22.4356],[-102.421,22.4366],[-102.3954,22.4511],[-102.4118,22.4693],[-102.3842,22.4819],[-102.4107,22.5206],[-102.377,22.5279],[-102.3773,22.5454],[-102.3625,22.5575],[-102.3767,22.5702],[-102.3649,22.5861],[-102.3849,22.5985],[-102.4284,22.6005],[-102.4463,22.6135],[-102.4726,22.6235],[-102.467,22.5962],[-102.4742,22.5777],[-102.4992,22.5835],[-102.5051,22.5611],[-102.4946,22.5471],[-102.5111,22.5398],[-102.5625,22.5596],[-102.5621,22.5816],[-102.5495,22.6076],[-102.5687,22.6011],[-102.6014,22.6128],[-102.6117,22.6021],[-102.6246,22.6051],[-102.6482,22.6004],[-102.6572,22.6173],[-102.6943,22.6223]]]},"properties":{"CVE_ENT":"32","CVE_MUN":"012","CVEGEO":"32012","NOMGEO":"Genaro Codina"}},
{"type":"Feature","geometry":{"type":"Polygon","coordinates":[[[-103.1093,22.5721],[-103.1246,22.5752],[-103.1359,22.5913],[-103.1559,22.591],[-103.17,22.6017],[-103.1898,22.6069],[-103.2062,22.5719],[-103.2322,22.5638],[-103.2429,22.5687],[-103.2612,22.5287],[-103.2765,22.5146],[-103.2781,22.4987],[-103.2994,22.4627],[-103.295,22.4303],[-103.3054,22.3904],[-103.2887,22.4019],[-103.2858,22.4128],[-103.2596,22.4113],[-103.2522,22.3989],[-103.2347,22.3968],[-103.2196,22.4105],[-103.2043,22.4044],[-103.1894,22.3902],[-103.1709,22.3847],[-103.1687,22.3557],[-103.1941,22.332],[-103.2101,22.3283],[-103.2096,22.3146],[-103.2204,22.2964],[-103.2144,22.2775],[-103.1987,22.2838],[-103.1906,22.2985],[-103.1401,22.2937],[-103.099,22.2923],[-103.083,22.2771],[-103.0787,22.2582],[-103.0555,22.2473],[-103.0576,22.2379],[-103.0371,22.2525],[-103.0239,22.2731],[-103.0483,22.2774],[-103.0447,22.2972],[-103.0556,22.3072],[-103.0632,22.3326],[-103.0544,22.3497],[-103.0754,22.3686],[-103.0661,22.3795],[-103.0464,22.3874],[-103.0193,22.4186],[-103.0219,22.4367],[-103.015,22.455],[-103.0023,22.4563],[-102.9728,22.4484],[-102.951,22.4592],[-102.9651,22.4736],[-102.9556,22.4962],[-102.9787,22.5147],[-103.0076,22.5278],[-103.0152,22.5175],[-103.0341,22.5273],[-103.0541,22.5066],[-103.0637,22.5239],[-103.0554,22.5389],[-103.0619,22.5507],[-103.1054,22.5632],[-103.1093,22.5721]]]},"properties":{"CVE_ENT":"32","CVE_MUN":"046","CVEGEO":"32046","NOMGEO":"Tepetongo"}},
{"type":"Feature","geometry":{"type":"Polygon","coordinates":[[[-102.9243,22.058],[-102.9404,22.0647],[-102.9608,22.049],[-102.9742,22.0467],[-103.0162,21.9675],[-103.0062,21.9582],[-103.0185,21.9356],[-103.0373,21.9144],[-103.0151,21.9071],[-103.0149,21.8818],[-103.0604,21.8806],[-103.0779,21.876],[-103.0874,21.8646],[-103.0722,21.8589],[-103.0498,21.8591],[-103.0437,21.852],[-103.0234,21.856],[-103.0021,21.8407],[-102.9721,21.8415],[-102.9669,21.8256],[-102.933,21.816],[-102.8907,21.8321],[-102.882,21.8526],[-102.8726,21.8603],[-102.8695,21.8609],[-102.8684,21.8605],[-102.8679,21.861],[-102.8673,21.8613],[-102.8657,21.8629],[-102.8634,21.8638],[-102.8556,21.8845],[-102.8435,21.9264],[-102.8207,21.9642],[-102.8055,21.9963],[-102.824,22.0062],[-102.8591,22.002],[-102.8587,22.0218],[-102.8853,22.0258],[-102.8991,22.0207],[-102.9206,22.0267],[-102.9164,22.0417],[-102.9243,22.058]]]},"properties":{"CVE_ENT":"32","CVE_MUN":"044","CVEGEO":"32044","NOMGEO":"Tabasco"}},
{"type":"Feature","geometry":{"type":"Polygon","coordinates":[[[-103.5547,21.5766],[-103.5915,21.5891],[-103.5967,21.5655],[-103.6081,21.5565],[-103.6216,21.5584],[-103.6298,21.5734],[-103.6449,21.5765],[-103.6638,21.5581],[-103.6736,21.5549],[-103.6822,21.5565],[-103.6832,21.5577],[-103.6848,21.5567],[-103.6855,21.5568],[-103.6864,21.5565],[-103.6871,21.556],[-103.6879,21.555],[-103.6883,21.5541],[-103.689,21.5539],[-103.6891,21.5529],[-103.6898,21.5524],[-103.6901,21.5496],[-103.6896,21.5483],[-103.689,21.5419],[-103.6863,21.5351],[-103.6945,21.5289],[-103.6829,21.5215],[-103.6798,21.5112],[-103.6914,21.4961],[-103.7004,21.4682],[-103.6693,21.4657],[-103.6633,21.4465],[-103.6535,21.4359],[-103.6342,21.4393],[-103.6265,21.4345],[-103.6226,21.4239],[-103.6243,21.4203],[-103.6229,21.4166],[-103.6236,21.4149],[-103.6229,21.4131],[-103.5957,21.3926],[-103.5817,21.4268],[-103.5483,21.4405],[-103.5368,21.4293],[-103.5147,21.3964],[-103.5031,21.4029],[-103.4855,21.4344],[-103.4821,21.4589],[-103.4704,21.4779],[-103.4866,21.4904],[-103.4864,21.5094],[-103.5009,21.5555],[-103.5104,21.5538],[-103.5219,21.5793],[-103.5449,21.5723],[-103.5547,21.5766]]]},"properties":{"CVE_ENT":"32","CVE_MUN":"004","CVEGEO":"32004","NOMGEO":"Benito Juárez"}},
{"type":"Feature","geometry":{"type":"Polygon","coordinates":[[[-103.1093,22.5721],[-103.0953,22.5918],[-103.0813,22.602],[-103.0826,22.6302],[-103.0876,22.6402],[-103.1139,22.6522],[-103.1327,22.6445],[-103.145,22.6659],[-103.1451,22.6797],[-103.1681,22.6964],[-103.1887,22.6819],[-103.201,22.6941],[-103.2162,22.6953],[-103.2222,22.6796],[-103.2835,22.6754],[-103.3016,22.6393],[-103.2976,22.6217],[-103.2412,22.5973],[-103.2514,22.578],[-103.2429,22.5687],[-103.2322,22.5638],[-103.2062,22.5719],[-103.1898,22.6069],[-103.17,22.6017],[-103.1559,22.591],[-103.1359,22.5913],[-103.1246,22.5752],[-103.1093,22.5721]]]},"properties":{"CVE_ENT":"32","CVE_MUN":"043","CVEGEO":"32043","NOMGEO":"Susticacán"}},
{"type":"Feature","geometry":{"type":"Polygon","coordinates":[[[-103.3098,23.9851],[-103.3392,24.0091],[-103.3775,23.9713],[-103.4132,23.9688],[-103.4174,23.9891],[-103.4357,23.9859],[-103.4383,24.0008],[-103.4749,23.9949],[-103.4985,24.0029],[-103.5197,24.0018],[-103.5348,24.0144],[-103.5707,24.0086],[-103.5671,23.9868],[-103.5832,23.9917],[-103.6121,23.9816],[-103.6576,23.989],[-103.687,24.0002],[-103.7047,24.0141],[-103.7132,24.0284],[-103.7511,24.0529],[-103.7525,24.0679],[-103.7456,24.089],[-103.8103,24.0401],[-103.8133,24.022],[-103.8431,24.027],[-103.8503,23.9888],[-103.8339,23.9696],[-103.8184,23.9649],[-103.8308,23.9078],[-103.8531,23.8746],[-103.8478,23.861],[-103.8326,23.8489],[-103.8312,23.8247],[-103.8161,23.8077],[-103.8203,23.7919],[-103.8332,23.7848],[-103.8624,23.7526],[-103.8545,23.7279],[-103.841,23.7013],[-103.8511,23.6796],[-103.7851,23.6766],[-103.7935,23.6309],[-103.8113,23.6136],[-103.8492,23.6401],[-103.8774,23.629],[-103.8791,23.6116],[-103.8549,23.608],[-103.8141,23.5798],[-103.8078,23.5584],[-103.7819,23.5451],[-103.7936,23.5105],[-103.7875,23.4901],[-103.806,23.4646],[-103.7969,23.4292],[-103.7757,23.427],[-103.7419,23.4392],[-103.74,23.4106],[-103.7319,23.3545],[-103.7212,23.3198],[-103.7269,23.2985],[-103.7305,23.2702],[-103.7243,23.2568],[-103.6889,23.2448],[-103.6874,23.2168],[-103.6741,23.2216],[-103.6697,23.2353],[-103.6523,23.2327],[-103.6592,23.2176],[-103.6585,23.191],[-103.6873,23.1965],[-103.707,23.1795],[-103.729,23.1727],[-103.7415,23.1571],[-103.7564,23.1626],[-103.7706,23.157],[-103.7811,23.1149],[-103.8045,23.0942],[-103.8232,23.0959],[-103.8478,23.0878],[-103.8584,23.0896],[-103.8786,23.0612],[-103.8418,23.0661],[-103.8309,23.0609],[-103.8066,23.0748],[-103.7868,23.0809],[-103.7658,23.0807],[-103.7588,23.1005],[-103.7342,23.102],[-103.7121,23.1102],[-103.6975,23.1075],[-103.677,23.1126],[-103.665,23.0978],[-103.6355,23.1097],[-103.6213,23.1411],[-103.5758,23.161],[-103.5583,23.1496],[-103.5176,23.1626],[-103.5049,23.1919],[-103.4837,23.2009],[-103.4955,23.2312],[-103.4943,23.2506],[-103.4819,23.2627],[-103.4707,23.3035],[-103.4965,23.3306],[-103.5236,23.3501],[-103.5132,23.3574],[-103.5139,23.3821],[-103.4944,23.3856],[-103.4961,23.4097],[-103.4856,23.4108],[-103.4793,23.449],[-103.4701,23.4645],[-103.4476,23.4792],[-103.4576,23.5113],[-103.4775,23.5406],[-103.4924,23.5518],[-103.4651,23.6073],[-103.399,23.6101],[-103.3703,23.6368],[-103.3864,23.6403],[-103.3958,23.6644],[-103.3909,23.6729],[-103.4081,23.6988],[-103.3704,23.701],[-103.3764,23.7161],[-103.3729,23.7379],[-103.36,23.7461],[-103.3515,23.7732],[-103.3587,23.7991],[-103.3897,23.8389],[-103.3727,23.8375],[-103.356,23.8708],[-103.3474,23.8733],[-103.3335,23.9217],[-103.295,23.928],[-103.2988,23.9479],[-103.3278,23.9579],[-103.3098,23.9851]]]},"properties":{"CVE_ENT":"32","CVE_MUN":"042","CVEGEO":"32042","NOMGEO":"Sombrerete"}},
{"type":"Feature","geometry":{"type":"Polygon","coordinates":[[[-102.8915,24.4608],[-102.9014,24.4286],[-102.9674,24.4577],[-102.9836,24.4333],[-103.0432,24.4665],[-103.0751,24.4226],[-103.0875,24.436],[-103.0985,24.4016],[-103.1395,24.4285],[-103.166,24.4353],[-103.1873,24.4233],[-103.2024,24.4214],[-103.2058,24.3888],[-103.1896,24.3881],[-103.2198,24.3597],[-103.1456,24.3423],[-103.1632,24.3229],[-103.1853,24.3142],[-103.2407,24.322],[-103.2291,24.2734],[-103.2026,24.2188],[-103.2323,24.2149],[-103.2451,24.1998],[-103.2287,24.1817],[-103.2463,24.1678],[-103.2385,24.1483],[-103.239,24.0635],[-103.2584,24.0637],[-103.2588,24.0628],[-103.1559,23.918],[-103.1434,23.9081],[-103.098,23.8921],[-103.0754,23.8994],[-103.0326,23.8995],[-103.0159,23.881],[-102.9904,23.8646],[-102.9665,23.8859],[-102.8934,23.8855],[-102.8247,23.8824],[-102.7848,23.8781],[-102.7566,23.8684],[-102.7363,23.8531],[-102.7303,23.7981],[-102.6689,23.7961],[-102.6669,23.7901],[-102.6192,23.7994],[-102.5539,23.8438],[-102.5351,23.8661],[-102.5287,23.9007],[-102.5466,23.9084],[-102.5408,23.946],[-102.5831,23.9465],[-102.5829,23.9541],[-102.6083,23.9662],[-102.6073,23.9724],[-102.576,23.9723],[-102.5628,23.9877],[-102.557,24.0154],[-102.4877,23.9741],[-102.4724,24.0101],[-102.3252,23.9793],[-102.3046,23.9798],[-102.2797,24.0087],[-102.2782,24.0351],[-102.2907,24.0527],[-102.2845,24.0832],[-102.2826,24.1328],[-102.3163,24.1345],[-102.3286,24.1505],[-102.3546,24.1518],[-102.3603,24.1668],[-102.3614,24.2126],[-102.4134,24.2245],[-102.4234,24.2328],[-102.4242,24.2493],[-102.4487,24.2783],[-102.4848,24.306],[-102.5009,24.3348],[-102.517,24.3451],[-102.5447,24.3316],[-102.5496,24.3521],[-102.5685,24.354],[-102.573,24.3893],[-102.6115,24.4004],[-102.6447,24.3914],[-102.6624,24.3816],[-102.704,24.3741],[-102.7516,24.3758],[-102.7889,24.4062],[-102.8124,24.3895],[-102.8308,24.3852],[-102.8459,24.3981],[-102.8606,24.4345],[-102.8915,24.4608]]]},"properties":{"CVE_ENT":"32","CVE_MUN":"014","CVEGEO":"32014","NOMGEO":"General Francisco R. Murguía"}},
{"type":"Feature","geometry":{"type":"Polygon","coordinates":[[[-103.7269,23.2985],[-103.7212,23.3198],[-103.7319,23.3545],[-103.74,23.4106],[-103.7419,23.4392],[-103.7757,23.427],[-103.7969,23.4292],[-103.806,23.4646],[-103.7875,23.4901],[-103.7936,23.5105],[-103.7819,23.5451],[-103.8078,23.5584],[-103.8141,23.5798],[-103.8549,23.608],[-103.8791,23.6116],[-103.8905,23.5797],[-103.9119,23.5761],[-103.9163,23.5657],[-103.9628,23.5299],[-103.9725,23.5272],[-104.0242,23.4945],[-104.0651,23.4635],[-104.081,23.4213],[-104.0863,23.3986],[-104.0994,23.3786],[-104.1112,23.3512],[-104.1144,23.3172],[-104.0885,23.3075],[-104.0784,23.3111],[-104.0604,23.3001],[-104.0393,23.3135],[-104.0246,23.3059],[-103.9908,23.3144],[-103.9687,23.301],[-103.9674,23.2919],[-103.9477,23.2769],[-103.9015,23.277],[-103.8888,23.2878],[-103.8849,23.3104],[-103.8665,23.3059],[-103.857,23.3159],[-103.8249,23.3229],[-103.8132,23.3196],[-103.7958,23.2822],[-103.7769,23.2873],[-103.7736,23.2985],[-103.7538,23.3034],[-103.7269,23.2985]]]},"properties":{"CVE_ENT":"32","CVE_MUN":"009","CVEGEO":"32009","NOMGEO":"Chalchihuites"}}
]}