{"type":"FeatureCollection", "features": [
{"type":"Feature","geometry":{"type":"MultiPolygon","coordinates":[[[[-114.7373,18.3721],[-114.7556,18.3665],[-114.7584,18.3441],[-114.7521,18.3389],[-114.7094,18.3505],[-114.6996,18.3455],[-114.6805,18.3613],[-114.6933,18.3715],[-114.7277,18.3666],[-114.7373,18.3721]]],[[[-103.8827,19.1165],[-103.8922,19.11],[-103.9,19.0778],[-103.9063,19.0704],[-103.9137,19.0365],[-103.9082,19.0147],[-103.9199,18.9824],[-103.9142,18.9577],[-103.9441,18.9403],[-103.9436,18.9207],[-103.9527,18.8792],[-103.9621,18.867],[-103.9725,18.8647],[-103.9475,18.8421],[-103.8766,18.7992],[-103.8034,18.7489],[-103.7431,18.693],[-103.7189,18.7104],[-103.6976,18.7559],[-103.6854,18.7573],[-103.6807,18.7721],[-103.6375,18.7835],[-103.62,18.8014],[-103.6249,18.8262],[-103.6441,18.8372],[-103.6503,18.8408],[-103.6522,18.8489],[-103.6942,18.8655],[-103.6935,18.8832],[-103.7207,18.9016],[-103.7692,18.911],[-103.7762,18.9178],[-103.7515,18.9449],[-103.784,18.9561],[-103.7776,18.9779],[-103.7779,18.9838],[-103.7806,18.9986],[-103.7807,18.9999],[-103.7699,19.0001],[-103.7741,19.0599],[-103.7889,19.0594],[-103.8573,19.0456],[-103.856,19.0806],[-103.8484,19.1079],[-103.8678,19.1011],[-103.8766,19.1109],[-103.8838,19.1123],[-103.8827,19.1165]]],[[[-110.9863,18.8611],[-111.0087,18.8459],[-111.0083,18.836],[-111.0447,18.8161],[-111.0463,18.8022],[-111.0221,18.7699],[-111.0151,18.7536],[-110.989,18.753],[-110.9845,18.7448],[-110.9641,18.7409],[-110.9575,18.7222],[-110.9199,18.7326],[-110.9157,18.777],[-110.9176,18.7992],[-110.9382,18.8217],[-110.948,18.8404],[-110.9595,18.8394],[-110.9698,18.8544],[-110.9863,18.8611]]]]},"properties":{"CVE_ENT":"06","CVE_MUN":"009","CVEGEO":"06009","NOMGEO":"Tecomán"}},
{"type":"Feature","geometry":{"type":"Polygon","coordinates":[[[-103.5141,19.2172],[-103.514,19.2188],[-103.511,19.2217],[-103.5107,19.2246],[-103.5065,19.2278],[-103.5077,19.2304],[-103.5059,19.2371],[-103.5088,19.2397],[-103.5094,19.2408],[-103.5099,19.2433],[-103.5077,19.2464],[-103.5075,19.25],[-103.5055,19.2547],[-103.5067,19.2923],[-103.4957,19.3186],[-103.4941,19.3223],[-103.4868,19.3274],[-103.4863,19.3375],[-103.4864,19.3379],[-103.4865,19.3379],[-103.4866,19.3381],[-103.4869,19.3383],[-103.487,19.3393],[-103.4876,19.3402],[-103.4897,19.3412],[-103.4937,19.3462],[-103.5019,19.345],[-103.5235,19.3595],[-103.5248,19.3691],[-103.5562,19.407],[-103.5772,19.4169],[-103.5863,19.4395],[-103.6029,19.4639],[-103.6154,19.475],[-103.6124,19.4889],[-103.626,19.4861],[-103.6301,19.475],[-103.6688,19.4622],[-103.6723,19.4307],[-103.6568,19.4292],[-103.6485,19.4269],[-103.6512,19.3962],[-103.6703,19.393],[-103.6748,19.3743],[-103.6732,19.3541],[-103.6792,19.3258],[-103.6625,19.3205],[-103.6812,19.2747],[-103.6629,19.2695],[-103.6587,19.2555],[-103.6749,19.2411],[-103.655,19.2131],[-103.6276,19.2044],[-103.5743,19.2298],[-103.5664,19.2167],[-103.5228,19.2151],[-103.5141,19.2172]]]},"properties":{"CVE_ENT":"06","CVE_MUN":"005","CVEGEO":"06005","NOMGEO":"Cuauhtémoc"}},
{"type":"Feature","geometry":{"type":"Polygon","coordinates":[[[-103.6792,19.3258],[-103.6732,19.3541],[-103.6748,19.3743],[-103.6703,19.393],[-103.6512,19.3962],[-103.6485,19.4269],[-103.6568,19.4292],[-103.6755,19.4115],[-103.6843,19.3847],[-103.6993,19.3631],[-103.7035,19.3426],[-103.7204,19.3258],[-103.7422,19.3112],[-103.7479,19.2907],[-103.8572,19.345],[-103.8779,19.3389],[-103.8824,19.3502],[-103.8944,19.3429],[-103.899,19.343],[-103.8999,19.3421],[-103.9056,19.3411],[-103.9099,19.3419],[-103.916,19.3586],[-103.9361,19.3484],[-103.9612,19.3621],[-103.9814,19.3633],[-103.9837,19.3486],[-104.0261,19.3143],[-104.0293,19.2922],[-104.005,19.2907],[-103.9826,19.2827],[-103.9571,19.2907],[-103.8964,19.2546],[-103.8425,19.2506],[-103.8345,19.2575],[-103.8105,19.2544],[-103.8021,19.2646],[-103.7761,19.237],[-103.7301,19.2572],[-103.702,19.2981],[-103.6792,19.3258]]]},"properties":{"CVE_ENT":"06","CVE_MUN":"010","CVEGEO":"06010","NOMGEO":"Villa de Álvarez"}},
{"type":"Feature","geometry":{"type":"Polygon","coordinates":[[[-103.8995,19.4345],[-103.9648,19.4542],[-103.974,19.4746],[-104.0056,19.4723],[-104.0391,19.4847],[-104.0617,19.4977],[-104.0715,19.4835],[-104.0767,19.4802],[-104.0866,19.442],[-104.0709,19.4352],[-104.0838,19.4156],[-104.0902,19.393],[-104.1188,19.3717],[-104.1333,19.3537],[-104.1229,19.321],[-104.1541,19.3144],[-104.1735,19.3143],[-104.1895,19.3024],[-104.2233,19.3017],[-104.2193,19.2969],[-104.1766,19.2855],[-104.1727,19.2772],[-104.1403,19.2679],[-104.1226,19.2581],[-104.093,19.2494],[-104.0759,19.2512],[-104.0688,19.2458],[-104.0487,19.2486],[-104.0341,19.2659],[-104.0552,19.2805],[-104.0662,19.2811],[-104.0629,19.3009],[-104.0518,19.3063],[-104.0293,19.2922],[-104.0261,19.3143],[-103.9837,19.3486],[-103.9814,19.3633],[-103.9612,19.3621],[-103.9361,19.3484],[-103.916,19.3586],[-103.9099,19.3419],[-103.8999,19.3421],[-103.8863,19.3541],[-103.8818,19.3573],[-103.8854,19.368],[-103.8811,19.3935],[-103.8836,19.4126],[-103.8843,19.4173],[-103.8845,19.4178],[-103.885,19.4189],[-103.8855,19.4231],[-103.8897,19.424],[-103.8995,19.4345]]]},"properties":{"CVE_ENT":"06","CVE_MUN":"008","CVEGEO":"06008","NOMGEO":"Minatitlán"}},
{"type":"Feature","geometry":{"type":"Polygon","coordinates":[[[-103.5141,19.2172],[-103.5228,19.2151],[-103.5664,19.2167],[-103.5743,19.2298],[-103.6276,19.2044],[-103.655,19.2131],[-103.6749,19.2411],[-103.6587,19.2555],[-103.6629,19.2695],[-103.6812,19.2747],[-103.6625,19.3205],[-103.6792,19.3258],[-103.702,19.2981],[-103.7301,19.2572],[-103.7761,19.237],[-103.7818,19.1778],[-103.7803,19.1517],[-103.7935,19.1549],[-103.8258,19.136],[-103.817,19.1218],[-103.7826,19.0888],[-103.7845,19.0782],[-103.7761,19.072],[-103.7277,19.0715],[-103.7182,19.0885],[-103.6824,19.0748],[-103.645,19.0562],[-103.6469,19.0219],[-103.6295,19.0297],[-103.6118,19.0285],[-103.6031,19.0102],[-103.5922,19.0045],[-103.5854,18.9772],[-103.59,18.947],[-103.5907,18.9035],[-103.5806,18.8862],[-103.5781,18.8753],[-103.5723,18.8726],[-103.5722,18.8802],[-103.569,18.8837],[-103.5692,18.8882],[-103.5689,18.8925],[-103.5593,18.8965],[-103.5574,18.9068],[-103.5284,18.9123],[-103.5225,18.9279],[-103.4895,18.9687],[-103.4908,18.9958],[-103.4968,19.0113],[-103.494,19.0218],[-103.4898,19.0253],[-103.4885,19.0276],[-103.5256,19.0778],[-103.5175,19.0982],[-103.5236,19.1156],[-103.511,19.132],[-103.5092,19.156],[-103.4976,19.1746],[-103.4982,19.186],[-103.5109,19.1997],[-103.5151,19.2116],[-103.5141,19.2172]]]},"properties":{"CVE_ENT":"06","CVE_MUN":"002","CVEGEO":"06002","NOMGEO":"Colima"}},
{"type":"Feature","geometry":{"type":"Polygon","coordinates":[[[-104.2437,19.3101],[-104.2619,19.3077],[-104.2828,19.2973],[-104.294,19.3035],[-104.2992,19.2975],[-104.3106,19.2895],[-104.3148,19.2794],[-104.3411,19.2899],[-104.3579,19.2706],[-104.3743,19.2819],[-104.3869,19.2714],[-104.3956,19.2713],[-104.4,19.2671],[-104.4032,19.2718],[-104.3978,19.2849],[-104.3975,19.2868],[-104.4009,19.2891],[-104.4203,19.2796],[-104.4238,19.2821],[-104.4292,19.2793],[-104.43,19.2793],[-104.4316,19.2792],[-104.4357,19.2791],[-104.4381,19.2788],[-104.4384,19.2629],[-104.4597,19.254],[-104.474,19.2365],[-104.4884,19.2472],[-104.5061,19.2451],[-104.5233,19.2604],[-104.5545,19.2371],[-104.5704,19.2148],[-104.5676,19.2001],[-104.5769,19.1802],[-104.6003,19.1791],[-104.591,19.1499],[-104.6131,19.1565],[-104.6161,19.178],[-104.6286,19.1732],[-104.6704,19.1857],[-104.6803,19.1759],[-104.594,19.1485],[-104.5629,19.144],[-104.4894,19.1246],[-104.4711,19.1129],[-104.4515,19.1085],[-104.4396,19.0948],[-104.4174,19.1054],[-104.4039,19.0967],[-104.3949,19.1139],[-104.3731,19.1197],[-104.3538,19.1145],[-104.3158,19.0912],[-104.3062,19.0781],[-104.3041,19.0588],[-104.33,19.0512],[-104.3329,19.0198],[-104.2836,19.0087],[-104.1769,18.9693],[-104.1199,18.9442],[-104.1166,18.9438],[-104.1157,18.9463],[-104.1188,18.9477],[-104.1174,18.9516],[-104.1157,18.9553],[-104.1037,18.9818],[-104.0999,18.9871],[-104.078,18.9874],[-104.0669,19.0091],[-104.0409,19.0125],[-104.0231,19.0388],[-104.0313,19.07],[-104.0679,19.1019],[-104.0625,19.1187],[-104.069,19.1286],[-104.0638,19.1551],[-104.0483,19.1639],[-104.0321,19.1815],[-104.0345,19.2125],[-104.0532,19.2169],[-104.0616,19.2351],[-104.0697,19.2405],[-104.0688,19.2458],[-104.0759,19.2512],[-104.093,19.2494],[-104.1226,19.2581],[-104.1403,19.2679],[-104.1727,19.2772],[-104.1766,19.2855],[-104.2193,19.2969],[-104.2437,19.3101]]]},"properties":{"CVE_ENT":"06","CVE_MUN":"007","CVEGEO":"06007","NOMGEO":"Manzanillo"}},
{"type":"Feature","geometry":{"type":"Polygon","coordinates":[[[-103.5812,18.8759],[-103.5907,18.9035],[-103.59,18.947],[-103.5854,18.9772],[-103.5922,19.0045],[-103.6031,19.0102],[-103.6118,19.0285],[-103.6295,19.0297],[-103.6469,19.0219],[-103.645,19.0562],[-103.6824,19.0748],[-103.7182,19.0885],[-103.7277,19.0715],[-103.7669,19.0707],[-103.7724,19.0642],[-103.7699,19.0001],[-103.7807,18.9999],[-103.7806,18.9986],[-103.7779,18.9838],[-103.7776,18.9779],[-103.784,18.9561],[-103.7515,18.9449],[-103.7762,18.9178],[-103.7692,18.911],[-103.7207,18.9016],[-103.6935,18.8832],[-103.6942,18.8655],[-103.6522,18.8489],[-103.6503,18.8408],[-103.6441,18.8372],[-103.6249,18.8262],[-103.6246,18.8261],[-103.6183,18.8454],[-103.6406,18.8672],[-103.6203,18.893],[-103.6016,18.8813],[-103.5812,18.8759]]]},"properties":{"CVE_ENT":"06","CVE_MUN":"006","CVEGEO":"06006","NOMGEO":"Ixtlahuacán"}},
{"type":"Feature","geometry":{"type":"Polygon","coordinates":[[[-103.6124,19.4889],[-103.6126,19.4897],[-103.613,19.4902],[-103.6132,19.4906],[-103.6137,19.4924],[-103.6141,19.495],[-103.6114,19.4952],[-103.6062,19.5006],[-103.6183,19.5125],[-103.6532,19.5007],[-103.6649,19.5026],[-103.6904,19.492],[-103.7162,19.457],[-103.7346,19.4437],[-103.752,19.4452],[-103.7678,19.4346],[-103.7927,19.4275],[-103.8208,19.4105],[-103.8221,19.4225],[-103.8236,19.4248],[-103.8235,19.4272],[-103.8279,19.4334],[-103.8249,19.4381],[-103.8318,19.4401],[-103.8329,19.4401],[-103.8337,19.4394],[-103.834,19.4395],[-103.8341,19.4397],[-103.8345,19.4398],[-103.8352,19.4397],[-103.8362,19.4394],[-103.8371,19.4385],[-103.8383,19.439],[-103.8425,19.4373],[-103.8548,19.4309],[-103.8638,19.4474],[-103.8794,19.4445],[-103.8911,19.4636],[-103.9088,19.4536],[-103.8855,19.4231],[-103.885,19.4189],[-103.8845,19.4178],[-103.8843,19.4173],[-103.8836,19.4126],[-103.8869,19.4056],[-103.8811,19.3935],[-103.8854,19.368],[-103.8818,19.3573],[-103.899,19.343],[-103.8944,19.3429],[-103.8824,19.3502],[-103.8779,19.3389],[-103.8572,19.345],[-103.7479,19.2907],[-103.7422,19.3112],[-103.7204,19.3258],[-103.7035,19.3426],[-103.6993,19.3631],[-103.6843,19.3847],[-103.6755,19.4115],[-103.6568,19.4292],[-103.6723,19.4307],[-103.6688,19.4622],[-103.6301,19.475],[-103.626,19.4861],[-103.6124,19.4889]]]},"properties":{"CVE_ENT":"06","CVE_MUN":"003","CVEGEO":"06003","NOMGEO":"Comala"}},
{"type":"Feature","geometry":{"type":"Polygon","coordinates":[[[-103.8963,19.0977],[-103.9371,19.1189],[-103.9607,19.1173],[-103.9831,19.133],[-104.0054,19.1333],[-104.0368,19.152],[-104.061,19.1516],[-104.069,19.1286],[-104.0625,19.1187],[-104.0679,19.1019],[-104.0313,19.07],[-104.0231,19.0388],[-104.0409,19.0125],[-104.0669,19.0091],[-104.078,18.9874],[-104.0999,18.9871],[-104.1188,18.9477],[-104.1157,18.9463],[-104.1166,18.9438],[-104.0587,18.9092],[-103.9832,18.8723],[-103.9621,18.867],[-103.9527,18.8792],[-103.9436,18.9207],[-103.9441,18.9403],[-103.9142,18.9577],[-103.9199,18.9824],[-103.9082,19.0147],[-103.9137,19.0365],[-103.9063,19.0704],[-103.8963,19.0977]]]},"properties":{"CVE_ENT":"06","CVE_MUN":"001","CVEGEO":"06001","NOMGEO":"Armería"}},
{"type":"Feature","geometry":{"type":"Polygon","coordinates":[[[-104.0293,19.2922],[-104.0518,19.3063],[-104.0629,19.3009],[-104.0662,19.2811],[-104.0552,19.2805],[-104.0341,19.2659],[-104.0487,19.2486],[-104.0688,19.2458],[-104.0616,19.2351],[-104.0607,19.2251],[-104.0532,19.2169],[-104.0345,19.2125],[-104.0321,19.1815],[-104.0483,19.1639],[-104.0638,19.1551],[-104.061,19.1516],[-104.0368,19.152],[-104.0054,19.1333],[-103.9831,19.133],[-103.9607,19.1173],[-103.9371,19.1189],[-103.8963,19.0977],[-103.8922,19.11],[-103.8838,19.1123],[-103.8824,19.112],[-103.8766,19.1109],[-103.8678,19.1011],[-103.8484,19.1079],[-103.856,19.0806],[-103.8573,19.0456],[-103.7889,19.0594],[-103.7845,19.0782],[-103.7826,19.0888],[-103.817,19.1218],[-103.8258,19.136],[-103.7935,19.1549],[-103.7803,19.1517],[-103.7818,19.1778],[-103.7761,19.237],[-103.8021,19.2646],[-103.8105,19.2544],[-103.8345,19.2575],[-103.8425,19.2506],[-103.8964,19.2546],[-103.9571,19.2907],[-103.9826,19.2827],[-104.005,19.2907],[-104.0293,19.2922]]]},"properties":{"CVE_ENT":"06","CVE_MUN":"004","CVEGEO":"06004","NOMGEO":"Coquimatlán"}}
]}