{"type":"FeatureCollection", "features": [
{"type":"Feature","geometry":{"type":"Polygon","coordinates":[[[-100.048,17.4031],[-100.0721,17.3996],[-100.0854,17.4244],[-100.1154,17.4544],[-100.1348,17.4581],[-100.1571,17.4041],[-100.1067,17.357],[-100.2141,17.3017],[-100.2076,17.2856],[-100.2193,17.2553],[-100.2196,17.2244],[-100.25,17.1829],[-100.2208,17.1643],[-100.2468,17.1528],[-100.2776,17.1518],[-100.291,17.1352],[-100.3046,17.0946],[-100.3005,17.0645],[-100.2887,17.0479],[-100.2849,17.0285],[-100.2513,17.0185],[-100.2308,17.0078],[-100.2287,16.9902],[-100.1695,16.969],[-100.1179,16.9479],[-100.0936,16.9438],[-100.0022,16.914],[-99.9714,16.9067],[-99.9708,16.9251],[-99.9437,16.9232],[-99.9333,16.9085],[-99.89,16.9117],[-99.8916,16.9294],[-99.9242,16.9439],[-99.8969,16.9721],[-99.8805,16.9728],[-99.8724,17.009],[-99.8569,17.0432],[-99.8836,17.0599],[-99.8896,17.0997],[-99.8841,17.1214],[-99.8511,17.124],[-99.8454,17.1671],[-99.8058,17.1736],[-99.8456,17.2287],[-99.8503,17.2457],[-99.8342,17.2772],[-99.8562,17.2799],[-99.8676,17.267],[-99.8939,17.2681],[-99.9069,17.2751],[-99.9216,17.2512],[-99.9551,17.2664],[-99.9619,17.2967],[-99.9792,17.3065],[-100.0376,17.3764],[-100.048,17.4031]]]},"properties":{"CVE_ENT":"12","CVE_MUN":"021","CVEGEO":"12021","NOMGEO":"Coyuca de Benítez"}},
{"type":"Feature","geometry":{"type":"Polygon","coordinates":[[[-99.537,18.6523],[-99.5491,18.6715],[-99.5591,18.6765],[-99.591,18.6543],[-99.6224,18.6654],[-99.6404,18.6918],[-99.6571,18.6768],[-99.6762,18.678],[-99.6804,18.7],[-99.717,18.7055],[-99.7388,18.7373],[-99.7422,18.7259],[-99.7572,18.7137],[-99.7549,18.6974],[-99.7708,18.6875],[-99.7843,18.6623],[-99.7861,18.6396],[-99.7708,18.6271],[-99.7679,18.6103],[-99.757,18.6201],[-99.7356,18.6126],[-99.7019,18.6214],[-99.6764,18.6124],[-99.6671,18.6036],[-99.664,18.5809],[-99.6442,18.5896],[-99.6346,18.6015],[-99.6205,18.5847],[-99.5971,18.5868],[-99.5975,18.6085],[-99.5687,18.6154],[-99.5573,18.6134],[-99.5395,18.6315],[-99.537,18.6523]]]},"properties":{"CVE_ENT":"12","CVE_MUN":"060","CVEGEO":"12060","NOMGEO":"Tetipac"}},
{"type":"Feature","geometry":{"type":"Polygon","coordinates":[[[-98.7063,17.3406],[-98.7358,17.3492],[-98.748,17.3416],[-98.765,17.3436],[-98.7729,17.3284],[-98.8046,17.3157],[-98.8262,17.287],[-98.8212,17.2688],[-98.8115,17.258],[-98.8347,17.2491],[-98.8552,17.2354],[-98.8613,17.2035],[-98.8581,17.1545],[-98.845,17.1329],[-98.842,17.1086],[-98.85,17.0893],[-98.8814,17.075],[-98.8778,17.0696],[-98.8058,17.0863],[-98.8083,17.1262],[-98.7967,17.1563],[-98.7814,17.1633],[-98.7744,17.1773],[-98.7578,17.1853],[-98.7574,17.1981],[-98.7337,17.2085],[-98.731,17.2319],[-98.7172,17.2398],[-98.7089,17.2821],[-98.6894,17.3008],[-98.6813,17.3005],[-98.7055,17.3335],[-98.7063,17.3406]]]},"properties":{"CVE_ENT":"12","CVE_MUN":"063","CVEGEO":"12063","NOMGEO":"Tlacoapa"}},
{"type":"Feature","geometry":{"type":"Polygon","coordinates":[[[-99.1946,16.7808],[-99.2003,16.8008],[-99.211,16.8128],[-99.2377,16.8242],[-99.2699,16.7952],[-99.2945,16.8048],[-99.2915,16.7876],[-99.2636,16.773],[-99.2579,16.7494],[-99.2632,16.7215],[-99.2585,16.7081],[-99.3097,16.6919],[-99.2943,16.6788],[-99.2862,16.648],[-99.2319,16.6341],[-99.2127,16.6452],[-99.2034,16.678],[-99.2086,16.6975],[-99.1991,16.7179],[-99.2034,16.7368],[-99.1968,16.745],[-99.2032,16.7742],[-99.1946,16.7808]]]},"properties":{"CVE_ENT":"12","CVE_MUN":"082","CVEGEO":"12082","NOMGEO":"Las Vigas"}},
{"type":"Feature","geometry":{"type":"Polygon","coordinates":[[[-98.5824,17.7125],[-98.6003,17.7412],[-98.6019,17.7795],[-98.6111,17.8023],[-98.6078,17.856],[-98.671,17.8276],[-98.7024,17.8035],[-98.7187,17.7873],[-98.7043,17.7766],[-98.7156,17.757],[-98.7331,17.7395],[-98.7301,17.7207],[-98.7467,17.719],[-98.7559,17.7003],[-98.7567,17.6851],[-98.7377,17.6742],[-98.7633,17.6548],[-98.7557,17.6135],[-98.7295,17.6176],[-98.7186,17.6634],[-98.7208,17.6713],[-98.6703,17.6783],[-98.6258,17.6886],[-98.6164,17.7025],[-98.6054,17.6994],[-98.5824,17.7125]]]},"properties":{"CVE_ENT":"12","CVE_MUN":"024","CVEGEO":"12024","NOMGEO":"Cualác"}},
{"type":"Feature","geometry":{"type":"Polygon","coordinates":[[[-99.9617,18.553],[-99.9897,18.5697],[-99.9993,18.5836],[-100.0106,18.5904],[-100.025,18.6069],[-100.0336,18.6062],[-100.0376,18.5966],[-100.0644,18.5859],[-100.0681,18.5912],[-100.0689,18.5644],[-100.0768,18.5488],[-100.0681,18.5205],[-100.0352,18.4937],[-100.0353,18.4801],[-100.0071,18.4838],[-100.0006,18.4748],[-100.0041,18.4562],[-100.0326,18.4566],[-100.0181,18.4255],[-100.0394,18.4042],[-100.0394,18.384],[-100.0673,18.3823],[-100.0617,18.3679],[-100.0554,18.3599],[-100.0752,18.3433],[-100.0892,18.3121],[-100.0887,18.2961],[-100.0604,18.2762],[-100.0759,18.2666],[-100.0726,18.2503],[-100.0837,18.2353],[-100.0821,18.2253],[-100.101,18.2124],[-100.0932,18.205],[-100.083,18.2152],[-100.0553,18.2112],[-100.0327,18.2228],[-100.0291,18.2352],[-99.9894,18.2388],[-99.9704,18.2299],[-99.9665,18.2495],[-99.9491,18.2363],[-99.9158,18.2308],[-99.9225,18.2135],[-99.9551,18.2196],[-99.9561,18.213],[-99.9865,18.2113],[-99.9941,18.2017],[-100.0187,18.2087],[-100.0007,18.1793],[-99.9866,18.1672],[-99.9759,18.1871],[-99.9402,18.1751],[-99.9178,18.1813],[-99.9049,18.2112],[-99.8979,18.2294],[-99.8809,18.2229],[-99.8719,18.2468],[-99.8537,18.2391],[-99.8328,18.2017],[-99.8262,18.2182],[-99.8131,18.2212],[-99.798,18.2418],[-99.7994,18.2634],[-99.8137,18.2684],[-99.8046,18.2929],[-99.7811,18.3065],[-99.75,18.3188],[-99.7417,18.3086],[-99.7236,18.3082],[-99.7121,18.3214],[-99.6809,18.3262],[-99.658,18.3051],[-99.6318,18.2966],[-99.6141,18.3092],[-99.6251,18.3301],[-99.6512,18.3375],[-99.644,18.3668],[-99.6763,18.3867],[-99.6702,18.4026],[-99.6815,18.4148],[-99.7018,18.4127],[-99.7058,18.4033],[-99.7381,18.3833],[-99.7577,18.3749],[-99.7786,18.3889],[-99.7955,18.3781],[-99.8063,18.4034],[-99.8135,18.4055],[-99.8122,18.4379],[-99.8347,18.437],[-99.8694,18.4704],[-99.8802,18.4704],[-99.9047,18.4875],[-99.915,18.477],[-99.9105,18.4554],[-99.9373,18.4361],[-99.9608,18.4959],[-99.9737,18.505],[-99.9623,18.5309],[-99.9503,18.5414],[-99.9617,18.553]]]},"properties":{"CVE_ENT":"12","CVE_MUN":"058","CVEGEO":"12058","NOMGEO":"Teloloapan"}},
{"type":"Feature","geometry":{"type":"Polygon","coordinates":[[[-98.7633,17.6548],[-98.7912,17.6609],[-98.8276,17.6174],[-98.8612,17.6067],[-98.9027,17.6231],[-98.9216,17.6227],[-98.9341,17.6338],[-98.9577,17.6417],[-98.9719,17.6409],[-98.9896,17.6553],[-99.0364,17.66],[-99.052,17.6544],[-99.073,17.6286],[-99.0776,17.595],[-99.0616,17.5902],[-99.042,17.6008],[-99.0267,17.5945],[-98.9989,17.5494],[-98.9637,17.5331],[-98.9111,17.4995],[-98.8885,17.4759],[-98.8951,17.468],[-98.8896,17.4462],[-98.9102,17.435],[-98.9174,17.4217],[-98.9527,17.4034],[-98.957,17.3687],[-98.9652,17.3493],[-98.9838,17.3362],[-98.9962,17.3176],[-98.9984,17.3013],[-98.9776,17.2935],[-98.9373,17.2907],[-98.9241,17.3036],[-98.914,17.3405],[-98.8846,17.3553],[-98.8695,17.3824],[-98.8528,17.3865],[-98.8171,17.4094],[-98.8149,17.4199],[-98.7966,17.422],[-98.7863,17.4422],[-98.7934,17.4577],[-98.793,17.4808],[-98.8389,17.4949],[-98.7986,17.5323],[-98.8074,17.5749],[-98.7884,17.5797],[-98.7679,17.5925],[-98.7633,17.6548]]]},"properties":{"CVE_ENT":"12","CVE_MUN":"010","CVEGEO":"12010","NOMGEO":"Atlixtac"}},
{"type":"Feature","geometry":{"type":"Polygon","coordinates":[[[-100.1926,17.4968],[-100.2067,17.4983],[-100.2399,17.4911],[-100.2709,17.5075],[-100.3976,17.5495],[-100.4702,17.5644],[-100.4681,17.5528],[-100.4825,17.533],[-100.4641,17.4994],[-100.4935,17.4845],[-100.4922,17.462],[-100.4841,17.4408],[-100.4896,17.4246],[-100.4583,17.4214],[-100.4575,17.4155],[-100.482,17.3846],[-100.502,17.3302],[-100.4893,17.3079],[-100.4866,17.2868],[-100.4985,17.2804],[-100.4965,17.2574],[-100.5284,17.2507],[-100.5186,17.2398],[-100.5178,17.2253],[-100.5366,17.1716],[-100.5393,17.1626],[-100.5076,17.1625],[-100.4953,17.1811],[-100.4711,17.1708],[-100.4772,17.1603],[-100.4509,17.1559],[-100.4302,17.1463],[-100.4255,17.1557],[-100.381,17.1312],[-100.3793,17.1132],[-100.3653,17.094],[-100.3514,17.0971],[-100.3549,17.0729],[-100.3362,17.0665],[-100.3005,17.0645],[-100.3046,17.0946],[-100.291,17.1352],[-100.2776,17.1518],[-100.2468,17.1528],[-100.2208,17.1643],[-100.25,17.1829],[-100.2196,17.2244],[-100.2193,17.2553],[-100.2076,17.2856],[-100.2141,17.3017],[-100.1067,17.357],[-100.1571,17.4041],[-100.1348,17.4581],[-100.1795,17.4741],[-100.1768,17.4827],[-100.1926,17.4968]]]},"properties":{"CVE_ENT":"12","CVE_MUN":"011","CVEGEO":"12011","NOMGEO":"Atoyac de Álvarez"}},
{"type":"Feature","geometry":{"type":"Polygon","coordinates":[[[-98.9506,17.0067],[-98.9504,17.0253],[-98.9716,17.0303],[-98.9889,17.0459],[-98.9687,17.0592],[-98.9796,17.0693],[-99.0005,17.061],[-99.01,17.0788],[-99.0388,17.0981],[-99.0746,17.104],[-99.0895,17.1174],[-99.1475,17.1282],[-99.1583,17.1365],[-99.1667,17.1494],[-99.1669,17.1504],[-99.1666,17.1546],[-99.1796,17.1582],[-99.182,17.1558],[-99.1825,17.1529],[-99.1833,17.1514],[-99.1837,17.1498],[-99.1848,17.1484],[-99.1877,17.1498],[-99.187,17.1512],[-99.1871,17.1526],[-99.2005,17.1709],[-99.2292,17.1625],[-99.2401,17.148],[-99.2616,17.1438],[-99.2537,17.1073],[-99.2523,17.0753],[-99.2654,17.0582],[-99.2677,17.0454],[-99.2542,17.0319],[-99.2242,17.0224],[-99.1781,17.035],[-99.1602,17.0017],[-99.1677,16.9909],[-99.1589,16.976],[-99.1613,16.9511],[-99.1445,16.9465],[-99.1498,16.9326],[-99.1618,16.9328],[-99.165,16.8641],[-99.1718,16.8556],[-99.1775,16.8247],[-99.1662,16.7846],[-99.1309,16.7867],[-99.1324,16.7766],[-99.1009,16.7809],[-99.0741,16.7735],[-99.0682,16.7707],[-99.0147,16.7807],[-98.9998,16.7928],[-99.0077,16.8088],[-99.0322,16.836],[-99.0432,16.8589],[-99.0582,16.8721],[-99.0954,16.8856],[-99.0775,16.8997],[-99.0475,16.9052],[-99.0405,16.9165],[-99.054,16.9289],[-99.0884,16.91],[-99.0713,16.9505],[-99.0726,16.9652],[-99.06,16.9693],[-99.0449,16.9602],[-99.0342,16.9743],[-99.0212,16.9629],[-99.0095,16.9945],[-98.9916,17.0207],[-98.9506,17.0067]]]},"properties":{"CVE_ENT":"12","CVE_MUN":"012","CVEGEO":"12012","NOMGEO":"Ayutla de los Libres"}},
{"type":"Feature","geometry":{"type":"Polygon","coordinates":[[[-98.3316,17.5195],[-98.3626,17.5031],[-98.3766,17.5112],[-98.3771,17.5243],[-98.3975,17.5158],[-98.4028,17.5299],[-98.4153,17.5364],[-98.4278,17.5532],[-98.4429,17.5542],[-98.4547,17.5304],[-98.4413,17.4739],[-98.4438,17.4572],[-98.4587,17.4553],[-98.467,17.4384],[-98.4664,17.4143],[-98.472,17.3927],[-98.4581,17.3763],[-98.4741,17.3666],[-98.463,17.3466],[-98.4526,17.3382],[-98.4411,17.3374],[-98.4336,17.3174],[-98.4146,17.3181],[-98.3906,17.3084],[-98.3994,17.2966],[-98.3967,17.279],[-98.3522,17.2699],[-98.3539,17.2418],[-98.3352,17.2416],[-98.3173,17.228],[-98.2816,17.2215],[-98.2844,17.211],[-98.2821,17.198],[-98.283,17.1905],[-98.281,17.188],[-98.277,17.175],[-98.2551,17.1815],[-98.2517,17.1934],[-98.2318,17.2025],[-98.2177,17.1869],[-98.2049,17.1913],[-98.2031,17.2163],[-98.2226,17.2386],[-98.2424,17.2506],[-98.2648,17.2464],[-98.2772,17.2501],[-98.2884,17.2386],[-98.3021,17.2463],[-98.3227,17.2748],[-98.3178,17.3024],[-98.3048,17.3275],[-98.2874,17.329],[-98.3049,17.3943],[-98.3359,17.4563],[-98.3324,17.472],[-98.3119,17.4775],[-98.3203,17.5069],[-98.3316,17.5195]]]},"properties":{"CVE_ENT":"12","CVE_MUN":"004","CVEGEO":"12004","NOMGEO":"Alcozauca de Guerrero"}},
{"type":"Feature","geometry":{"type":"Polygon","coordinates":[[[-101.494,17.9815],[-101.5197,17.9891],[-101.5536,18.0111],[-101.5873,18.0031],[-101.6033,18.0097],[-101.6275,18.0088],[-101.6599,18.0241],[-101.6814,18.0466],[-101.6881,18.0666],[-101.7047,18.0616],[-101.7315,18.0639],[-101.7376,18.0762],[-101.7626,18.0836],[-101.7814,18.0798],[-101.8112,18.0881],[-101.8554,18.122],[-101.884,18.1315],[-101.9015,18.1567],[-101.8817,18.171],[-101.8739,18.188],[-101.8615,18.1875],[-101.8184,18.2119],[-101.8191,18.2267],[-101.8856,18.2483],[-101.9046,18.2479],[-101.9274,18.2318],[-101.952,18.2279],[-101.9716,18.2331],[-101.9781,18.2073],[-102.0191,18.2021],[-102.0387,18.2082],[-102.0562,18.1955],[-102.0884,18.1954],[-102.1177,18.1869],[-102.1311,18.1889],[-102.1445,18.1849],[-102.1609,18.1654],[-102.1662,18.1373],[-102.1763,18.1274],[-102.1745,18.1144],[-102.1841,18.0616],[-102.1784,18.0379],[-102.1843,18.0276],[-102.1802,17.9989],[-102.1733,17.9896],[-102.1376,17.9697],[-102.1368,17.94],[-102.1125,17.9651],[-102.1014,17.9816],[-102.0657,17.988],[-102.0235,17.9858],[-101.968,17.9683],[-101.9367,17.9554],[-101.8564,17.9101],[-101.8248,17.8964],[-101.784,17.8647],[-101.7695,17.844],[-101.7693,17.8282],[-101.7489,17.8095],[-101.746,17.7917],[-101.7112,17.7699],[-101.6979,17.7933],[-101.6807,17.7807],[-101.6394,17.8155],[-101.6571,17.8277],[-101.5896,17.8271],[-101.5746,17.8231],[-101.5471,17.8283],[-101.528,17.8198],[-101.5161,17.8377],[-101.5596,17.8664],[-101.556,17.9077],[-101.5721,17.9066],[-101.5676,17.9251],[-101.531,17.9075],[-101.5119,17.906],[-101.5002,17.9179],[-101.4952,17.9355],[-101.4972,17.9506],[-101.4907,17.981],[-101.494,17.9815]]]},"properties":{"CVE_ENT":"12","CVE_MUN":"068","CVEGEO":"12068","NOMGEO":"La Unión de Isidoro Montes de Oca"}},
{"type":"Feature","geometry":{"type":"Polygon","coordinates":[[[-98.2696,17.1698],[-98.277,17.175],[-98.281,17.188],[-98.283,17.1905],[-98.2821,17.198],[-98.2844,17.211],[-98.2816,17.2215],[-98.3173,17.228],[-98.3352,17.2416],[-98.3539,17.2418],[-98.3522,17.2699],[-98.3967,17.279],[-98.3994,17.2966],[-98.3906,17.3084],[-98.4146,17.3181],[-98.4336,17.3174],[-98.4411,17.3374],[-98.4526,17.3382],[-98.463,17.3466],[-98.4777,17.3641],[-98.5017,17.3576],[-98.5015,17.3348],[-98.5181,17.3166],[-98.5172,17.2984],[-98.5372,17.291],[-98.5414,17.2746],[-98.5352,17.25],[-98.5557,17.236],[-98.5917,17.1885],[-98.609,17.1768],[-98.6185,17.1814],[-98.6198,17.1724],[-98.604,17.1602],[-98.5856,17.1315],[-98.5874,17.1059],[-98.5751,17.0899],[-98.5698,17.072],[-98.5783,17.0626],[-98.5679,17.0509],[-98.5553,17.0494],[-98.5411,17.0361],[-98.5192,17.0031],[-98.5366,16.9797],[-98.5548,16.9627],[-98.5546,16.9302],[-98.5658,16.9172],[-98.5281,16.9158],[-98.4807,16.8985],[-98.4658,16.9048],[-98.4604,16.8926],[-98.4599,16.8809],[-98.4455,16.8975],[-98.4469,16.9233],[-98.4327,16.9197],[-98.4317,16.9051],[-98.4081,16.8976],[-98.41,16.9121],[-98.4031,16.93],[-98.4147,16.9427],[-98.4074,16.9566],[-98.4152,16.9646],[-98.4628,16.9669],[-98.4633,16.9917],[-98.4936,16.9917],[-98.5255,17.0482],[-98.5232,17.0832],[-98.5341,17.1306],[-98.5274,17.1578],[-98.5272,17.1786],[-98.5353,17.2042],[-98.5378,17.2308],[-98.4814,17.2953],[-98.4692,17.2783],[-98.3992,17.2292],[-98.4156,17.2114],[-98.4258,17.1922],[-98.3928,17.1586],[-98.3739,17.1456],[-98.3306,17.1358],[-98.3108,17.1217],[-98.2911,17.1011],[-98.2878,17.0825],[-98.2481,17.0633],[-98.2444,17.05],[-98.2671,17.0519],[-98.2422,17.0373],[-98.2192,17.0421],[-98.2203,17.0672],[-98.2713,17.086],[-98.2712,17.1011],[-98.2811,17.1222],[-98.2641,17.1296],[-98.2558,17.1529],[-98.2696,17.1698]]]},"properties":{"CVE_ENT":"12","CVE_MUN":"043","CVEGEO":"12043","NOMGEO":"Metlatónoc"}},
{"type":"Feature","geometry":{"type":"Polygon","coordinates":[[[-100.0617,18.3679],[-100.0828,18.3666],[-100.0885,18.3507],[-100.1046,18.343],[-100.1122,18.3627],[-100.1401,18.3776],[-100.156,18.3716],[-100.1683,18.3773],[-100.175,18.4158],[-100.189,18.432],[-100.2024,18.4086],[-100.2105,18.4062],[-100.227,18.4309],[-100.2456,18.4213],[-100.2576,18.4284],[-100.269,18.3999],[-100.2679,18.3795],[-100.292,18.3816],[-100.2871,18.3604],[-100.3237,18.3165],[-100.3077,18.313],[-100.3175,18.2816],[-100.3224,18.2398],[-100.3331,18.2224],[-100.3311,18.2105],[-100.3168,18.1967],[-100.3068,18.1835],[-100.2816,18.1789],[-100.2991,18.148],[-100.2835,18.1414],[-100.2719,18.1015],[-100.2523,18.1024],[-100.2229,18.0799],[-100.211,18.0752],[-100.1802,18.1042],[-100.1605,18.1109],[-100.1483,18.1332],[-100.115,18.1103],[-100.0943,18.1077],[-100.091,18.1287],[-100.0723,18.1313],[-100.0881,18.1488],[-100.0932,18.205],[-100.101,18.2124],[-100.0821,18.2253],[-100.0837,18.2353],[-100.0726,18.2503],[-100.0759,18.2666],[-100.0604,18.2762],[-100.0887,18.2961],[-100.0892,18.3121],[-100.0752,18.3433],[-100.0554,18.3599],[-100.0617,18.3679]]]},"properties":{"CVE_ENT":"12","CVE_MUN":"007","CVEGEO":"12007","NOMGEO":"Arcelia"}},
{"type":"Feature","geometry":{"type":"Polygon","coordinates":[[[-100.4827,17.6342],[-100.5093,17.61],[-100.5116,17.5976],[-100.5335,17.5867],[-100.5615,17.5824],[-100.5662,17.5964],[-100.5953,17.5976],[-100.5962,17.6208],[-100.6365,17.6467],[-100.7098,17.6688],[-100.7513,17.6514],[-100.8202,17.6966],[-100.8785,17.6894],[-100.902,17.6178],[-100.8808,17.6139],[-100.887,17.5949],[-100.8994,17.5987],[-100.9037,17.5671],[-100.9448,17.5709],[-100.9711,17.5893],[-100.9833,17.5725],[-100.9852,17.5524],[-100.9957,17.5355],[-100.9826,17.5011],[-100.9734,17.4905],[-101.0218,17.4685],[-101.0379,17.4521],[-101.0432,17.4377],[-101.0296,17.4246],[-101.0338,17.407],[-101.0279,17.3964],[-101.0522,17.382],[-101.0528,17.3638],[-101.0787,17.3274],[-101.0538,17.3035],[-101.0553,17.2765],[-101.0063,17.2521],[-100.9882,17.2503],[-100.9083,17.2193],[-100.8717,17.2105],[-100.8242,17.1952],[-100.7627,17.1726],[-100.6761,17.1377],[-100.6158,17.1233],[-100.6153,17.1303],[-100.5687,17.1171],[-100.5569,17.1106],[-100.5309,17.1322],[-100.5627,17.1569],[-100.5366,17.1716],[-100.5178,17.2253],[-100.5186,17.2398],[-100.5284,17.2507],[-100.4965,17.2574],[-100.4985,17.2804],[-100.4866,17.2868],[-100.4893,17.3079],[-100.502,17.3302],[-100.482,17.3846],[-100.4575,17.4155],[-100.4583,17.4214],[-100.4896,17.4246],[-100.4841,17.4408],[-100.4922,17.462],[-100.4935,17.4845],[-100.4641,17.4994],[-100.4825,17.533],[-100.4681,17.5528],[-100.4702,17.5644],[-100.4657,17.6105],[-100.4827,17.6342]]]},"properties":{"CVE_ENT":"12","CVE_MUN":"057","CVEGEO":"12057","NOMGEO":"Técpan de Galeana"}},
{"type":"Feature","geometry":{"type":"Polygon","coordinates":[[[-98.5618,17.6856],[-98.5824,17.7125],[-98.6054,17.6994],[-98.6164,17.7025],[-98.6258,17.6886],[-98.6703,17.6783],[-98.7208,17.6713],[-98.7186,17.6634],[-98.7295,17.6176],[-98.7557,17.6135],[-98.7633,17.6548],[-98.7679,17.5925],[-98.7884,17.5797],[-98.8074,17.5749],[-98.7986,17.5323],[-98.7759,17.542],[-98.7562,17.5303],[-98.7323,17.5252],[-98.7174,17.5313],[-98.697,17.5177],[-98.6823,17.5193],[-98.6653,17.5107],[-98.6539,17.4977],[-98.6638,17.4802],[-98.6159,17.479],[-98.5995,17.4927],[-98.5701,17.5006],[-98.5692,17.4787],[-98.5804,17.4683],[-98.557,17.4541],[-98.5915,17.4511],[-98.601,17.4221],[-98.5771,17.4121],[-98.5548,17.4229],[-98.5117,17.4195],[-98.5388,17.3784],[-98.5303,17.3654],[-98.5303,17.3472],[-98.512,17.3429],[-98.5112,17.3588],[-98.4942,17.3773],[-98.4942,17.3916],[-98.5041,17.4012],[-98.4951,17.4159],[-98.5071,17.4339],[-98.5061,17.4543],[-98.5299,17.4407],[-98.5401,17.4435],[-98.5405,17.46],[-98.5301,17.476],[-98.5427,17.4867],[-98.5083,17.5094],[-98.4808,17.5236],[-98.4724,17.5055],[-98.4619,17.5086],[-98.4547,17.5304],[-98.4429,17.5542],[-98.4458,17.5681],[-98.4791,17.5717],[-98.4941,17.5634],[-98.5207,17.589],[-98.5154,17.6016],[-98.5524,17.6186],[-98.5592,17.6303],[-98.5461,17.6486],[-98.5618,17.6856]]]},"properties":{"CVE_ENT":"12","CVE_MUN":"066","CVEGEO":"12066","NOMGEO":"Tlapa de Comonfort"}},
{"type":"Feature","geometry":{"type":"Polygon","coordinates":[[[-99.2616,17.1438],[-99.3046,17.1458],[-99.3146,17.1605],[-99.3239,17.1547],[-99.3112,17.1362],[-99.3206,17.1226],[-99.3254,17.0967],[-99.314,17.0841],[-99.3077,17.0586],[-99.3321,17.0619],[-99.3347,17.0779],[-99.3671,17.1028],[-99.4086,17.1107],[-99.4149,17.1167],[-99.4741,17.128],[-99.4619,17.0967],[-99.4553,17.0655],[-99.4552,17.0585],[-99.431,17.0524],[-99.4444,17.0172],[-99.4247,17.0034],[-99.4065,17.0056],[-99.4148,16.9848],[-99.4012,16.9687],[-99.3763,16.9616],[-99.3872,16.9396],[-99.414,16.9441],[-99.4233,16.9168],[-99.4059,16.899],[-99.3803,16.8946],[-99.3832,16.9205],[-99.3647,16.9112],[-99.3294,16.9009],[-99.3098,16.8654],[-99.288,16.8834],[-99.2647,16.8672],[-99.2536,16.8301],[-99.2377,16.8242],[-99.211,16.8128],[-99.2003,16.8008],[-99.1946,16.7808],[-99.1696,16.7924],[-99.1775,16.8247],[-99.1718,16.8556],[-99.165,16.8641],[-99.1618,16.9328],[-99.1498,16.9326],[-99.1445,16.9465],[-99.1613,16.9511],[-99.1589,16.976],[-99.1677,16.9909],[-99.1602,17.0017],[-99.1781,17.035],[-99.2242,17.0224],[-99.2542,17.0319],[-99.2677,17.0454],[-99.2654,17.0582],[-99.2523,17.0753],[-99.2537,17.1073],[-99.2616,17.1438]]]},"properties":{"CVE_ENT":"12","CVE_MUN":"056","CVEGEO":"12056","NOMGEO":"Tecoanapa"}},
{"type":"Feature","geometry":{"type":"Polygon","coordinates":[[[-99.7202,17.2309],[-99.7269,17.1765],[-99.8058,17.1736],[-99.8454,17.1671],[-99.8511,17.124],[-99.8841,17.1214],[-99.8896,17.0997],[-99.8836,17.0599],[-99.8569,17.0432],[-99.8724,17.009],[-99.8805,16.9728],[-99.8969,16.9721],[-99.9242,16.9439],[-99.8916,16.9294],[-99.89,16.9117],[-99.9333,16.9085],[-99.9437,16.9232],[-99.9708,16.9251],[-99.9714,16.9067],[-99.957,16.8832],[-99.9454,16.8794],[-99.9152,16.8416],[-99.8825,16.8597],[-99.8629,16.8554],[-99.8518,16.8445],[-99.8696,16.8187],[-99.8658,16.8078],[-99.837,16.8056],[-99.8291,16.79],[-99.8191,16.7886],[-99.7622,16.7455],[-99.7039,16.714],[-99.6723,16.7008],[-99.6161,16.6844],[-99.6099,16.6886],[-99.606,16.7204],[-99.6214,16.7294],[-99.623,16.7486],[-99.6066,16.764],[-99.595,16.7946],[-99.5693,16.7984],[-99.5295,16.8358],[-99.5168,16.8693],[-99.5195,16.894],[-99.5327,16.9228],[-99.5233,16.9306],[-99.5026,16.9303],[-99.4929,16.9556],[-99.4736,16.972],[-99.5023,16.9955],[-99.5319,16.9757],[-99.559,16.9685],[-99.5827,16.9679],[-99.6041,16.9863],[-99.6125,17.0012],[-99.6081,17.0217],[-99.5907,17.0234],[-99.5772,17.0217],[-99.5683,17.0204],[-99.5645,17.0207],[-99.5592,17.0223],[-99.5628,17.0372],[-99.5704,17.0462],[-99.5442,17.0681],[-99.5531,17.0922],[-99.5512,17.1063],[-99.5645,17.1168],[-99.56,17.1297],[-99.5872,17.1323],[-99.5898,17.1574],[-99.6082,17.1711],[-99.6248,17.165],[-99.6365,17.1894],[-99.6537,17.1898],[-99.6691,17.2061],[-99.6625,17.2213],[-99.6697,17.2297],[-99.7181,17.227],[-99.7202,17.2309]]]},"properties":{"CVE_ENT":"12","CVE_MUN":"001","CVEGEO":"12001","NOMGEO":"Acapulco de Juárez"}},
{"type":"Feature","geometry":{"type":"Polygon","coordinates":[[[-99.525,17.9289],[-99.5125,17.9569],[-99.4941,17.9597],[-99.4816,17.9787],[-99.4499,17.9895],[-99.4529,18.0252],[-99.4757,18.0354],[-99.4905,18.0094],[-99.4953,17.9862],[-99.5222,17.973],[-99.5274,17.9616],[-99.5438,17.9683],[-99.5738,17.9563],[-99.5762,17.9315],[-99.5956,17.9398],[-99.6232,17.9337],[-99.63,17.9505],[-99.6673,17.9608],[-99.6771,17.9576],[-99.7019,17.9715],[-99.7317,17.9813],[-99.7426,17.9763],[-99.7654,18.0041],[-99.7826,17.9961],[-99.8001,17.9984],[-99.7985,17.9785],[-99.793,17.9574],[-99.7928,17.925],[-99.7968,17.9017],[-99.8221,17.898],[-99.8088,17.891],[-99.8093,17.8682],[-99.816,17.8412],[-99.8052,17.8229],[-99.8195,17.8011],[-99.8022,17.7924],[-99.7925,17.7692],[-99.7973,17.749],[-99.779,17.7426],[-99.7874,17.7292],[-99.7824,17.714],[-99.7446,17.7111],[-99.6973,17.7239],[-99.6575,17.7257],[-99.6508,17.7211],[-99.6549,17.6715],[-99.6234,17.6849],[-99.6162,17.6768],[-99.6331,17.5988],[-99.6042,17.5986],[-99.5763,17.6044],[-99.5521,17.6017],[-99.5103,17.6101],[-99.4975,17.6006],[-99.4668,17.592],[-99.4589,17.6315],[-99.4481,17.6551],[-99.4435,17.7058],[-99.4291,17.7335],[-99.4037,17.7392],[-99.3906,17.7432],[-99.4024,17.783],[-99.402,17.8098],[-99.4319,17.8557],[-99.444,17.8531],[-99.5,17.8666],[-99.5148,17.858],[-99.5415,17.8526],[-99.5618,17.8594],[-99.5584,17.9123],[-99.5375,17.9158],[-99.525,17.9289]]]},"properties":{"CVE_ENT":"12","CVE_MUN":"075","CVEGEO":"12075","NOMGEO":"Eduardo Neri"}},
{"type":"Feature","geometry":{"type":"Polygon","coordinates":[[[-99.4807,18.6846],[-99.4894,18.6733],[-99.4918,18.6452],[-99.537,18.6523],[-99.5395,18.6315],[-99.5573,18.6134],[-99.5687,18.6154],[-99.5975,18.6085],[-99.5971,18.5868],[-99.6205,18.5847],[-99.6346,18.6015],[-99.6442,18.5896],[-99.664,18.5809],[-99.6671,18.6036],[-99.6764,18.6124],[-99.7019,18.6214],[-99.7356,18.6126],[-99.757,18.6201],[-99.7679,18.6103],[-99.7724,18.5884],[-99.7539,18.5836],[-99.762,18.553],[-99.7244,18.5331],[-99.7151,18.5193],[-99.7011,18.4784],[-99.6904,18.4632],[-99.7131,18.4207],[-99.7018,18.4127],[-99.6815,18.4148],[-99.6702,18.4026],[-99.6763,18.3867],[-99.644,18.3668],[-99.63,18.3684],[-99.6125,18.3586],[-99.5878,18.3881],[-99.5646,18.3837],[-99.557,18.4083],[-99.5249,18.4105],[-99.5183,18.4384],[-99.5047,18.4389],[-99.4932,18.4623],[-99.4906,18.5146],[-99.4978,18.537],[-99.466,18.5651],[-99.4229,18.5621],[-99.4294,18.5889],[-99.4526,18.6118],[-99.4644,18.6437],[-99.4807,18.6846]]]},"properties":{"CVE_ENT":"12","CVE_MUN":"055","CVEGEO":"12055","NOMGEO":"Taxco de Alarcón"}},
{"type":"Feature","geometry":{"type":"Polygon","coordinates":[[[-99.9049,18.2112],[-99.9178,18.1813],[-99.9402,18.1751],[-99.9759,18.1871],[-99.9866,18.1672],[-100.0007,18.1793],[-100.0187,18.2087],[-99.9941,18.2017],[-99.9865,18.2113],[-99.9561,18.213],[-99.9551,18.2196],[-99.9225,18.2135],[-99.9158,18.2308],[-99.9491,18.2363],[-99.9665,18.2495],[-99.9704,18.2299],[-99.9894,18.2388],[-100.0291,18.2352],[-100.0327,18.2228],[-100.0553,18.2112],[-100.083,18.2152],[-100.0932,18.205],[-100.0881,18.1488],[-100.0723,18.1313],[-100.091,18.1287],[-100.0943,18.1077],[-100.115,18.1103],[-100.112,18.0775],[-100.1039,18.0688],[-100.084,18.0779],[-100.0839,18.052],[-100.104,18.0485],[-100.1029,18.0212],[-100.087,18.0005],[-100.0896,17.9908],[-100.0655,17.9862],[-100.0464,18.0006],[-100.0591,18.0188],[-100.0502,18.0369],[-100.0334,18.0411],[-100.0219,18.0318],[-100.0284,18.0193],[-100.0222,17.9929],[-100.0406,17.9875],[-100.0332,17.9565],[-100.0197,17.9503],[-99.991,17.9615],[-99.9719,17.9637],[-99.9611,17.9566],[-99.9312,17.9511],[-99.9308,17.9413],[-99.9089,17.9383],[-99.8837,17.9731],[-99.8858,17.9944],[-99.8791,18.0042],[-99.8867,18.0171],[-99.8771,18.0298],[-99.8708,18.0564],[-99.8839,18.0741],[-99.8799,18.0901],[-99.8681,18.0986],[-99.861,18.1505],[-99.8664,18.1514],[-99.8588,18.2053],[-99.8783,18.2173],[-99.8953,18.2062],[-99.9049,18.2112]]]},"properties":{"CVE_ENT":"12","CVE_MUN":"006","CVEGEO":"12006","NOMGEO":"Apaxtla de Castrejón"}},
{"type":"Feature","geometry":{"type":"Polygon","coordinates":[[[-99.7018,18.4127],[-99.7131,18.4207],[-99.6904,18.4632],[-99.7011,18.4784],[-99.7151,18.5193],[-99.7244,18.5331],[-99.762,18.553],[-99.7874,18.5459],[-99.79,18.532],[-99.8188,18.5207],[-99.8248,18.497],[-99.8395,18.4792],[-99.8405,18.456],[-99.8347,18.437],[-99.8122,18.4379],[-99.8135,18.4055],[-99.8063,18.4034],[-99.7955,18.3781],[-99.7786,18.3889],[-99.7577,18.3749],[-99.7381,18.3833],[-99.7058,18.4033],[-99.7018,18.4127]]]},"properties":{"CVE_ENT":"12","CVE_MUN":"037","CVEGEO":"12037","NOMGEO":"Ixcateopan de Cuauhtémoc"}},
{"type":"Feature","geometry":{"type":"Polygon","coordinates":[[[-98.5091,16.3631],[-98.5118,16.4048],[-98.5068,16.4235],[-98.479,16.4263],[-98.4777,16.4662],[-98.4897,16.4858],[-98.4892,16.516],[-98.5107,16.5248],[-98.5116,16.5346],[-98.5357,16.5354],[-98.535,16.4976],[-98.5555,16.4853],[-98.5815,16.4758],[-98.5833,16.4647],[-98.5573,16.4489],[-98.5552,16.4138],[-98.6228,16.4016],[-98.6125,16.3845],[-98.5688,16.3424],[-98.5687,16.3247],[-98.5551,16.319],[-98.5527,16.3163],[-98.5474,16.3212],[-98.5391,16.3441],[-98.5334,16.3516],[-98.5207,16.3601],[-98.5091,16.3631]]]},"properties":{"CVE_ENT":"12","CVE_MUN":"085","CVEGEO":"12085","NOMGEO":"San Nicolás"}},
{"type":"Feature","geometry":{"type":"Polygon","coordinates":[[[-100.5386,18.8441],[-100.5682,18.8497],[-100.5843,18.8582],[-100.5973,18.8758],[-100.6131,18.8871],[-100.6233,18.8717],[-100.6375,18.8676],[-100.6508,18.8406],[-100.6657,18.8345],[-100.6717,18.8209],[-100.6929,18.8007],[-100.7058,18.7964],[-100.7032,18.8246],[-100.724,18.8492],[-100.7369,18.852],[-100.7499,18.8681],[-100.7667,18.8654],[-100.7918,18.8342],[-100.7905,18.8254],[-100.7825,18.8017],[-100.7978,18.7868],[-100.7924,18.7622],[-100.7969,18.7463],[-100.7729,18.7326],[-100.7852,18.6946],[-100.7637,18.6829],[-100.7655,18.6642],[-100.7516,18.6335],[-100.7642,18.5817],[-100.7649,18.5612],[-100.7442,18.5181],[-100.732,18.521],[-100.7095,18.496],[-100.6495,18.4621],[-100.6372,18.4577],[-100.6353,18.443],[-100.5903,18.4147],[-100.5574,18.3968],[-100.5311,18.4306],[-100.5248,18.4269],[-100.5049,18.4639],[-100.5038,18.4823],[-100.5176,18.5061],[-100.4921,18.5393],[-100.4811,18.565],[-100.4819,18.5761],[-100.4715,18.6077],[-100.4743,18.6192],[-100.487,18.6404],[-100.4884,18.6532],[-100.4734,18.6909],[-100.4545,18.6944],[-100.4371,18.7506],[-100.4278,18.7666],[-100.4314,18.7807],[-100.4532,18.7809],[-100.4651,18.7944],[-100.4818,18.7987],[-100.4935,18.8239],[-100.514,18.8293],[-100.5386,18.8441]]]},"properties":{"CVE_ENT":"12","CVE_MUN":"027","CVEGEO":"12027","NOMGEO":"Cutzamala de Pinzón"}},
{"type":"Feature","geometry":{"type":"Polygon","coordinates":[[[-99.4229,18.5621],[-99.466,18.5651],[-99.4978,18.537],[-99.4906,18.5146],[-99.4932,18.4623],[-99.5047,18.4389],[-99.5183,18.4384],[-99.5249,18.4105],[-99.5092,18.3923],[-99.4709,18.3909],[-99.45,18.3842],[-99.4307,18.3643],[-99.4071,18.3732],[-99.4044,18.3941],[-99.3901,18.4044],[-99.371,18.4032],[-99.3609,18.424],[-99.3365,18.4109],[-99.3187,18.4066],[-99.3012,18.4125],[-99.3136,18.4284],[-99.3053,18.4398],[-99.2724,18.445],[-99.2687,18.4533],[-99.3042,18.4595],[-99.3284,18.4595],[-99.3283,18.4888],[-99.3551,18.4767],[-99.363,18.499],[-99.3792,18.5205],[-99.3903,18.5257],[-99.4078,18.5561],[-99.4229,18.5621]]]},"properties":{"CVE_ENT":"12","CVE_MUN":"015","CVEGEO":"12015","NOMGEO":"Buenavista de Cuéllar"}},
{"type":"Feature","geometry":{"type":"Polygon","coordinates":[[[-99.0988,17.8493],[-99.1266,17.8296],[-99.1774,17.8455],[-99.21,17.8488],[-99.2221,17.8564],[-99.2353,17.7907],[-99.237,17.7599],[-99.2677,17.7506],[-99.2698,17.7292],[-99.265,17.7041],[-99.2844,17.7002],[-99.2789,17.6819],[-99.2812,17.6524],[-99.2597,17.6552],[-99.2378,17.6524],[-99.2289,17.6402],[-99.1964,17.6661],[-99.1329,17.6836],[-99.1187,17.7153],[-99.1083,17.724],[-99.1073,17.7421],[-99.0971,17.7703],[-99.0971,17.7942],[-99.085,17.8177],[-99.0954,17.8295],[-99.0988,17.8493]]]},"properties":{"CVE_ENT":"12","CVE_MUN":"074","CVEGEO":"12074","NOMGEO":"Zitlala"}},
{"type":"Feature","geometry":{"type":"Polygon","coordinates":[[[-100.3005,17.0645],[-100.3362,17.0665],[-100.3549,17.0729],[-100.3514,17.0971],[-100.3653,17.094],[-100.3793,17.1132],[-100.381,17.1312],[-100.4255,17.1557],[-100.4302,17.1463],[-100.4509,17.1559],[-100.4772,17.1603],[-100.4711,17.1708],[-100.4953,17.1811],[-100.5076,17.1625],[-100.5393,17.1626],[-100.5366,17.1716],[-100.5627,17.1569],[-100.5309,17.1322],[-100.5569,17.1106],[-100.5687,17.1171],[-100.6153,17.1303],[-100.6158,17.1233],[-100.5464,17.1008],[-100.4869,17.0795],[-100.413,17.0566],[-100.2788,17.0097],[-100.2287,16.9902],[-100.2308,17.0078],[-100.2513,17.0185],[-100.2849,17.0285],[-100.2887,17.0479],[-100.3005,17.0645]]]},"properties":{"CVE_ENT":"12","CVE_MUN":"014","CVEGEO":"12014","NOMGEO":"Benito Juárez"}},
{"type":"Feature","geometry":{"type":"Polygon","coordinates":[[[-98.8553,16.6742],[-98.8724,16.6559],[-98.8996,16.6596],[-98.884,16.6923],[-98.8886,16.7177],[-98.8965,16.7207],[-98.9263,16.7103],[-98.9021,16.6893],[-98.9043,16.6808],[-98.9272,16.6614],[-98.976,16.6479],[-99.0131,16.6522],[-99.0422,16.6523],[-99.0585,16.6611],[-99.0703,16.6383],[-99.0543,16.6296],[-99.0492,16.6142],[-99.0497,16.5969],[-99.0799,16.5936],[-98.9862,16.5645],[-98.9072,16.5347],[-98.8887,16.5356],[-98.857,16.5282],[-98.8417,16.5484],[-98.8134,16.5546],[-98.8248,16.5662],[-98.818,16.5872],[-98.8259,16.6221],[-98.8553,16.6515],[-98.8485,16.6579],[-98.8553,16.6742]]]},"properties":{"CVE_ENT":"12","CVE_MUN":"018","CVEGEO":"12018","NOMGEO":"Copala"}},
{"type":"Feature","geometry":{"type":"Polygon","coordinates":[[[-98.765,17.3436],[-98.7587,17.3658],[-98.7594,17.3897],[-98.7417,17.4306],[-98.7516,17.4502],[-98.7623,17.4889],[-98.793,17.4808],[-98.7934,17.4577],[-98.7863,17.4422],[-98.7966,17.422],[-98.8149,17.4199],[-98.8171,17.4094],[-98.8528,17.3865],[-98.8695,17.3824],[-98.8846,17.3553],[-98.857,17.3543],[-98.8422,17.3354],[-98.839,17.3094],[-98.8255,17.2996],[-98.8389,17.2878],[-98.8625,17.2826],[-98.8773,17.2623],[-98.8895,17.235],[-98.903,17.2374],[-98.9268,17.2513],[-98.9364,17.2363],[-98.9298,17.2131],[-98.9181,17.2155],[-98.9051,17.2044],[-98.9259,17.1913],[-98.9292,17.1777],[-98.9197,17.1682],[-98.8849,17.171],[-98.8581,17.1545],[-98.8613,17.2035],[-98.8552,17.2354],[-98.8347,17.2491],[-98.8115,17.258],[-98.8212,17.2688],[-98.8262,17.287],[-98.8046,17.3157],[-98.7729,17.3284],[-98.765,17.3436]]]},"properties":{"CVE_ENT":"12","CVE_MUN":"072","CVEGEO":"12072","NOMGEO":"Zapotitlán Tablas"}},
{"type":"Feature","geometry":{"type":"Polygon","coordinates":[[[-98.5139,17.3332],[-98.5409,17.328],[-98.5533,17.3423],[-98.565,17.3346],[-98.5877,17.3351],[-98.6058,17.3269],[-98.6214,17.3421],[-98.6288,17.3341],[-98.637,17.326],[-98.6426,17.3276],[-98.6464,17.3204],[-98.6483,17.3169],[-98.6447,17.3135],[-98.636,17.3103],[-98.6145,17.3081],[-98.5986,17.2852],[-98.6109,17.2779],[-98.6239,17.2914],[-98.6317,17.2826],[-98.6243,17.2657],[-98.6332,17.2195],[-98.6268,17.1947],[-98.609,17.1768],[-98.5917,17.1885],[-98.5557,17.236],[-98.5352,17.25],[-98.5414,17.2746],[-98.5372,17.291],[-98.5172,17.2984],[-98.5181,17.3166],[-98.5109,17.3246],[-98.5139,17.3332]]]},"properties":{"CVE_ENT":"12","CVE_MUN":"009","CVEGEO":"12009","NOMGEO":"Atlamajalcingo del Monte"}},
{"type":"Feature","geometry":{"type":"Polygon","coordinates":[[[-98.5751,17.0899],[-98.5884,17.0998],[-98.6055,17.1226],[-98.6191,17.1302],[-98.6342,17.1185],[-98.6401,17.1019],[-98.698,17.1153],[-98.7037,17.1069],[-98.7268,17.0968],[-98.737,17.0823],[-98.7144,17.0544],[-98.7039,17.0283],[-98.6969,17.0029],[-98.6991,16.9929],[-98.7038,16.9857],[-98.6969,16.9861],[-98.6805,16.9802],[-98.6783,16.9928],[-98.66,16.9928],[-98.6442,16.97],[-98.5617,17.0075],[-98.5477,17],[-98.5366,16.9797],[-98.5192,17.0031],[-98.5411,17.0361],[-98.5553,17.0494],[-98.5679,17.0509],[-98.5783,17.0626],[-98.5698,17.072],[-98.5751,17.0899]]]},"properties":{"CVE_ENT":"12","CVE_MUN":"081","CVEGEO":"12081","NOMGEO":"Iliatenco"}},
{"type":"Feature","geometry":{"type":"Polygon","coordinates":[[[-98.7936,17.0495],[-98.7949,17.0491],[-98.7962,17.0478],[-98.7987,17.0481],[-98.7999,17.0444],[-98.8065,17.0413],[-98.8099,17.0364],[-98.8058,17.0275],[-98.7777,17.006],[-98.754,16.9431],[-98.7045,16.9172],[-98.7125,16.9707],[-98.7076,16.9811],[-98.7038,16.9857],[-98.6991,16.9929],[-98.6969,17.0029],[-98.7058,17.0281],[-98.7283,17.03],[-98.7564,17.047],[-98.7795,17.0475],[-98.7811,17.0462],[-98.7849,17.0476],[-98.7904,17.0485],[-98.7932,17.0487],[-98.7936,17.0495]]]},"properties":{"CVE_ENT":"12","CVE_MUN":"084","CVEGEO":"12084","NOMGEO":"Santa Cruz del Rincón"}},
{"type":"Feature","geometry":{"type":"Polygon","coordinates":[[[-98.0726,17.0644],[-98.0663,17.038],[-98.0788,17.0099],[-98.0961,17.0025],[-98.1366,17.023],[-98.152,17.0212],[-98.1531,17.0053],[-98.1655,16.9946],[-98.1958,16.9947],[-98.2163,17.0056],[-98.2349,16.9959],[-98.2143,16.9764],[-98.224,16.9617],[-98.2423,16.9556],[-98.2488,16.9345],[-98.2307,16.9229],[-98.1819,16.919],[-98.1808,16.9107],[-98.1552,16.8912],[-98.1511,16.8782],[-98.1385,16.8706],[-98.1474,16.8483],[-98.1717,16.8532],[-98.2121,16.8486],[-98.2363,16.8519],[-98.2497,16.8327],[-98.2483,16.8057],[-98.2581,16.78],[-98.2475,16.7711],[-98.2535,16.7487],[-98.2311,16.7363],[-98.2464,16.715],[-98.238,16.7074],[-98.2005,16.7119],[-98.1659,16.7217],[-98.139,16.7238],[-98.1257,16.7391],[-98.1354,16.7574],[-98.1082,16.761],[-98.1001,16.7986],[-98.0811,16.8334],[-98.0726,16.8754],[-98.0807,16.885],[-98.0897,16.9183],[-98.0953,16.9233],[-98.1065,16.9567],[-98.0971,16.9689],[-98.0752,17.0072],[-98.0575,17.0238],[-98.0252,17.0192],[-98.0073,17.0401],[-98.0457,17.0573],[-98.0726,17.0644]]]},"properties":{"CVE_ENT":"12","CVE_MUN":"071","CVEGEO":"12071","NOMGEO":"Xochistlahuaca"}},
{"type":"Feature","geometry":{"type":"Polygon","coordinates":[[[-98.4868,17.9908],[-98.5005,17.9956],[-98.5237,17.9942],[-98.5296,17.9758],[-98.5849,17.9739],[-98.6136,17.9496],[-98.6339,17.9431],[-98.6445,17.9336],[-98.6386,17.8934],[-98.6208,17.8754],[-98.618,17.8877],[-98.5932,17.8963],[-98.5679,17.8948],[-98.5721,17.9096],[-98.552,17.9211],[-98.5522,17.934],[-98.519,17.9336],[-98.5194,17.9601],[-98.4782,17.9741],[-98.4724,17.9708],[-98.4848,17.9227],[-98.4972,17.9316],[-98.5043,17.8969],[-98.5401,17.8906],[-98.5421,17.87],[-98.5281,17.8536],[-98.5223,17.8146],[-98.4805,17.7986],[-98.471,17.7888],[-98.425,17.8396],[-98.4249,17.866],[-98.4236,17.8796],[-98.4392,17.919],[-98.4251,17.9357],[-98.423,17.9493],[-98.4317,17.9628],[-98.4342,17.9839],[-98.4481,17.9907],[-98.4868,17.9908]]]},"properties":{"CVE_ENT":"12","CVE_MUN":"070","CVEGEO":"12070","NOMGEO":"Xochihuehuetlán"}},
{"type":"Feature","geometry":{"type":"Polygon","coordinates":[[[-98.9506,17.0067],[-98.9916,17.0207],[-99.0095,16.9945],[-99.0212,16.9629],[-99.0342,16.9743],[-99.0449,16.9602],[-99.06,16.9693],[-99.0726,16.9652],[-99.0713,16.9505],[-99.0884,16.91],[-99.054,16.9289],[-99.0405,16.9165],[-99.0475,16.9052],[-99.0775,16.8997],[-99.0954,16.8856],[-99.0582,16.8721],[-99.0432,16.8589],[-99.0322,16.836],[-99.0077,16.8088],[-98.9998,16.7928],[-98.9819,16.801],[-98.9701,16.7771],[-98.9562,16.7963],[-98.8865,16.8852],[-98.8504,16.9204],[-98.8666,16.9401],[-98.8838,16.9482],[-98.8932,16.9625],[-98.9069,16.9661],[-98.9215,16.9996],[-98.9506,17.0067]]]},"properties":{"CVE_ENT":"12","CVE_MUN":"083","CVEGEO":"12083","NOMGEO":"Ñuu Savi"}},
{"type":"Feature","geometry":{"type":"Polygon","coordinates":[[[-98.9527,17.4034],[-98.9384,17.4292],[-98.9443,17.4622],[-98.9549,17.4669],[-98.9685,17.4866],[-98.9728,17.5051],[-98.9893,17.5108],[-99.0152,17.5123],[-99.0259,17.4944],[-99.0513,17.48],[-99.0524,17.4553],[-99.0439,17.4477],[-99.044,17.4252],[-99.0549,17.4133],[-99.0508,17.398],[-99.0245,17.4014],[-98.9953,17.3932],[-98.9872,17.3794],[-98.957,17.3687],[-98.9527,17.4034]]]},"properties":{"CVE_ENT":"12","CVE_MUN":"079","CVEGEO":"12079","NOMGEO":"José Joaquín de Herrera"}},
{"type":"Feature","geometry":{"type":"Polygon","coordinates":[[[-98.8581,17.1545],[-98.8849,17.171],[-98.9197,17.1682],[-98.9292,17.1777],[-98.9259,17.1913],[-98.9051,17.2044],[-98.9181,17.2155],[-98.9298,17.2131],[-98.9364,17.2363],[-98.9268,17.2513],[-98.903,17.2374],[-98.8895,17.235],[-98.8773,17.2623],[-98.8625,17.2826],[-98.8389,17.2878],[-98.8255,17.2996],[-98.839,17.3094],[-98.8422,17.3354],[-98.857,17.3543],[-98.8846,17.3553],[-98.914,17.3405],[-98.9241,17.3036],[-98.9373,17.2907],[-98.9776,17.2935],[-98.9984,17.3013],[-99.0091,17.2961],[-99.0168,17.2662],[-99.0273,17.2563],[-99.0273,17.2426],[-99.0544,17.217],[-99.0611,17.2163],[-99.0928,17.1932],[-99.1159,17.1986],[-99.1669,17.192],[-99.18,17.18],[-99.1841,17.1589],[-99.1852,17.1581],[-99.1839,17.1534],[-99.1837,17.1498],[-99.1666,17.1546],[-99.1667,17.1494],[-99.1583,17.1365],[-99.1475,17.1282],[-99.0895,17.1174],[-99.0746,17.104],[-99.0388,17.0981],[-99.01,17.0788],[-99.0005,17.061],[-98.9796,17.0693],[-98.9687,17.0592],[-98.9889,17.0459],[-98.9716,17.0303],[-98.9504,17.0253],[-98.9506,17.0067],[-98.9215,16.9996],[-98.9159,17.034],[-98.8966,17.0492],[-98.8963,17.0697],[-98.8814,17.075],[-98.85,17.0893],[-98.842,17.1086],[-98.845,17.1329],[-98.8581,17.1545]]]},"properties":{"CVE_ENT":"12","CVE_MUN":"076","CVEGEO":"12076","NOMGEO":"Acatepec"}},
{"type":"Feature","geometry":{"type":"Polygon","coordinates":[[[-98.377,17.6053],[-98.4124,17.601],[-98.4331,17.623],[-98.4505,17.6333],[-98.461,17.6304],[-98.481,17.628],[-98.4943,17.6159],[-98.4886,17.5961],[-98.4802,17.5891],[-98.4791,17.5717],[-98.4458,17.5681],[-98.4429,17.5542],[-98.4278,17.5532],[-98.4153,17.5364],[-98.4028,17.5299],[-98.3975,17.5158],[-98.3771,17.5243],[-98.3766,17.5112],[-98.3626,17.5031],[-98.3316,17.5195],[-98.3296,17.5333],[-98.3412,17.5419],[-98.3453,17.5626],[-98.355,17.5797],[-98.3647,17.5826],[-98.377,17.6053]]]},"properties":{"CVE_ENT":"12","CVE_MUN":"065","CVEGEO":"12065","NOMGEO":"Tlalixtaquilla de Maldonado"}},
{"type":"Feature","geometry":{"type":"Polygon","coordinates":[[[-100.9207,18.4457],[-100.9419,18.455],[-100.9514,18.4465],[-100.9668,18.4528],[-100.9608,18.465],[-100.9752,18.4834],[-101.006,18.4937],[-101.0094,18.5248],[-101.0333,18.5268],[-101.0769,18.5141],[-101.0887,18.5059],[-101.142,18.5106],[-101.1687,18.5211],[-101.187,18.5177],[-101.2128,18.5365],[-101.2392,18.5343],[-101.2821,18.5447],[-101.2961,18.5343],[-101.3352,18.5282],[-101.364,18.5186],[-101.3762,18.509],[-101.414,18.5005],[-101.4322,18.5017],[-101.4464,18.4893],[-101.4587,18.4971],[-101.47,18.487],[-101.4812,18.4905],[-101.5013,18.487],[-101.5183,18.4701],[-101.541,18.42],[-101.5144,18.3943],[-101.4998,18.3967],[-101.4945,18.3786],[-101.4661,18.3555],[-101.457,18.3271],[-101.457,18.3099],[-101.4656,18.2982],[-101.4504,18.2799],[-101.4736,18.2694],[-101.4914,18.2693],[-101.4962,18.2504],[-101.4702,18.2414],[-101.4551,18.2447],[-101.4435,18.2329],[-101.4472,18.2205],[-101.43,18.2094],[-101.3978,18.2089],[-101.372,18.178],[-101.3372,18.1589],[-101.3179,18.1485],[-101.2938,18.1489],[-101.2812,18.1566],[-101.269,18.1467],[-101.2586,18.1641],[-101.2252,18.1638],[-101.2151,18.1467],[-101.1944,18.1372],[-101.1816,18.1452],[-101.162,18.1351],[-101.1087,18.1237],[-101.0678,18.1122],[-101.0548,18.1314],[-101.0405,18.1647],[-101.0395,18.193],[-101.0279,18.1934],[-101.0019,18.2206],[-100.9855,18.2183],[-100.9711,18.244],[-100.9792,18.2468],[-100.9716,18.2804],[-100.9765,18.3114],[-100.9452,18.3319],[-100.9471,18.3609],[-100.9339,18.374],[-100.9422,18.39],[-100.9435,18.4182],[-100.9243,18.4213],[-100.9207,18.4457]]]},"properties":{"CVE_ENT":"12","CVE_MUN":"073","CVEGEO":"12073","NOMGEO":"Zirándaro"}},
{"type":"Feature","geometry":{"type":"Polygon","coordinates":[[[-100.4297,18.5993],[-100.4368,18.6137],[-100.4415,18.6185],[-100.442,18.619],[-100.443,18.62],[-100.4514,18.6239],[-100.4743,18.6192],[-100.4715,18.6077],[-100.4819,18.5761],[-100.4811,18.565],[-100.4921,18.5393],[-100.5176,18.5061],[-100.5038,18.4823],[-100.5049,18.4639],[-100.5248,18.4269],[-100.5311,18.4306],[-100.5574,18.3968],[-100.5442,18.3901],[-100.5555,18.3587],[-100.5359,18.3542],[-100.5242,18.3275],[-100.4999,18.3239],[-100.5063,18.3484],[-100.4828,18.3504],[-100.4727,18.3393],[-100.4573,18.3421],[-100.455,18.3142],[-100.4201,18.321],[-100.3806,18.3005],[-100.3457,18.3187],[-100.3237,18.3165],[-100.2871,18.3604],[-100.292,18.3816],[-100.3057,18.3681],[-100.3461,18.4003],[-100.3594,18.4235],[-100.3854,18.4265],[-100.3803,18.4557],[-100.3675,18.4754],[-100.362,18.4968],[-100.3824,18.5373],[-100.396,18.5405],[-100.4114,18.5207],[-100.4299,18.511],[-100.4349,18.5288],[-100.4466,18.5457],[-100.4479,18.5607],[-100.4297,18.5993]]]},"properties":{"CVE_ENT":"12","CVE_MUN":"064","CVEGEO":"12064","NOMGEO":"Tlalchapa"}},
{"type":"Feature","geometry":{"type":"Polygon","coordinates":[[[-98.8592,18.1288],[-98.8792,18.1297],[-98.8951,18.1196],[-98.9099,18.0704],[-98.9225,18.0748],[-98.9526,18.062],[-98.9649,18.0459],[-98.9892,18.0588],[-98.9863,18.0865],[-98.9661,18.0915],[-98.9546,18.1099],[-98.9859,18.122],[-99.007,18.1031],[-99.0375,18.0929],[-99.0245,18.1249],[-99.0452,18.1341],[-99.0658,18.1119],[-99.1088,18.0977],[-99.1192,18.0659],[-99.1069,18.0632],[-99.1111,18.0443],[-99.1101,18.0043],[-99.1199,17.999],[-99.1568,18.0322],[-99.1708,18.048],[-99.1858,18.0377],[-99.1852,18.0126],[-99.2128,18.0069],[-99.1902,17.9568],[-99.2305,17.9076],[-99.2214,17.8696],[-99.2221,17.8564],[-99.21,17.8488],[-99.1774,17.8455],[-99.1266,17.8296],[-99.0988,17.8493],[-99.0843,17.868],[-99.0784,17.8842],[-99.053,17.8857],[-99.0397,17.8811],[-99.0252,17.8947],[-99.0144,17.9165],[-98.9951,17.9333],[-98.9638,17.9237],[-98.9453,17.9287],[-98.9321,17.9207],[-98.8927,17.9188],[-98.8819,17.9327],[-98.8856,17.9446],[-98.9027,17.9629],[-98.8982,17.9794],[-98.8851,17.985],[-98.8985,18.0117],[-98.8894,18.028],[-98.8913,18.0472],[-98.8698,18.0572],[-98.8602,18.0923],[-98.8524,18.1176],[-98.8592,18.1288]]]},"properties":{"CVE_ENT":"12","CVE_MUN":"019","CVEGEO":"12019","NOMGEO":"Copalillo"}},
{"type":"Feature","geometry":{"type":"Polygon","coordinates":[[[-98.4707,17.6781],[-98.4862,17.681],[-98.4897,17.7034],[-98.5304,17.6867],[-98.5618,17.6856],[-98.5461,17.6486],[-98.5592,17.6303],[-98.5524,17.6186],[-98.5154,17.6016],[-98.5207,17.589],[-98.4941,17.5634],[-98.4791,17.5717],[-98.4802,17.5891],[-98.4886,17.5961],[-98.4943,17.6159],[-98.481,17.628],[-98.461,17.6304],[-98.4707,17.6781]]]},"properties":{"CVE_ENT":"12","CVE_MUN":"005","CVEGEO":"12005","NOMGEO":"Alpoyeca"}},
{"type":"Feature","geometry":{"type":"Polygon","coordinates":[[[-99.1696,16.7924],[-99.1946,16.7808],[-99.2032,16.7742],[-99.1968,16.745],[-99.2034,16.7368],[-99.1991,16.7179],[-99.2086,16.6975],[-99.2034,16.678],[-99.2127,16.6452],[-99.2319,16.6341],[-99.1535,16.6138],[-99.118,16.6021],[-99.0799,16.5936],[-99.0497,16.5969],[-99.0492,16.6142],[-99.0543,16.6296],[-99.0703,16.6383],[-99.0761,16.6601],[-99.088,16.6734],[-99.0822,16.6906],[-99.0428,16.7244],[-99.0729,16.7599],[-99.0735,16.7667],[-99.0845,16.7709],[-99.0867,16.7767],[-99.1009,16.7809],[-99.1324,16.7766],[-99.1309,16.7867],[-99.1662,16.7846],[-99.1696,16.7924]]]},"properties":{"CVE_ENT":"12","CVE_MUN":"030","CVEGEO":"12030","NOMGEO":"Florencio Villarreal"}},
{"type":"Feature","geometry":{"type":"Polygon","coordinates":[[[-98.4741,17.3666],[-98.4581,17.3763],[-98.472,17.3927],[-98.4664,17.4143],[-98.467,17.4384],[-98.4587,17.4553],[-98.4438,17.4572],[-98.4413,17.4739],[-98.4547,17.5304],[-98.4619,17.5086],[-98.4724,17.5055],[-98.4808,17.5236],[-98.5083,17.5094],[-98.5427,17.4867],[-98.5301,17.476],[-98.5405,17.46],[-98.5401,17.4435],[-98.5299,17.4407],[-98.5061,17.4543],[-98.5071,17.4339],[-98.4951,17.4159],[-98.5041,17.4012],[-98.4942,17.3916],[-98.4942,17.3773],[-98.5112,17.3588],[-98.512,17.3429],[-98.5303,17.3472],[-98.5303,17.3654],[-98.5388,17.3784],[-98.5117,17.4195],[-98.5548,17.4229],[-98.5771,17.4121],[-98.601,17.4221],[-98.5915,17.4511],[-98.557,17.4541],[-98.5804,17.4683],[-98.5692,17.4787],[-98.5701,17.5006],[-98.5995,17.4927],[-98.6159,17.479],[-98.6638,17.4802],[-98.6581,17.4515],[-98.6272,17.4416],[-98.6184,17.4268],[-98.6071,17.4239],[-98.5967,17.3827],[-98.5822,17.3655],[-98.6148,17.3516],[-98.6214,17.3421],[-98.6058,17.3269],[-98.5877,17.3351],[-98.565,17.3346],[-98.5533,17.3423],[-98.5409,17.328],[-98.5139,17.3332],[-98.5015,17.3348],[-98.5017,17.3576],[-98.4968,17.3601],[-98.4962,17.3645],[-98.4741,17.3666]]]},"properties":{"CVE_ENT":"12","CVE_MUN":"069","CVEGEO":"12069","NOMGEO":"Xalpatláhuac"}},
{"type":"Feature","geometry":{"type":"Polygon","coordinates":[[[-98.4173,16.7999],[-98.4705,16.8306],[-98.4909,16.8183],[-98.4943,16.8409],[-98.4851,16.8629],[-98.464,16.8698],[-98.4604,16.8747],[-98.462,16.8857],[-98.4604,16.8926],[-98.4658,16.9048],[-98.4807,16.8985],[-98.5281,16.9158],[-98.5521,16.8547],[-98.5735,16.8505],[-98.5752,16.8324],[-98.5629,16.8208],[-98.5438,16.8161],[-98.5363,16.8121],[-98.5456,16.8036],[-98.5486,16.7972],[-98.5485,16.7932],[-98.5442,16.7892],[-98.544,16.7887],[-98.5434,16.7844],[-98.5402,16.7846],[-98.5372,16.7905],[-98.5245,16.7846],[-98.5014,16.7894],[-98.4931,16.77],[-98.499,16.759],[-98.4822,16.7343],[-98.4952,16.7192],[-98.5027,16.6927],[-98.5182,16.6789],[-98.5152,16.6705],[-98.4947,16.6731],[-98.5041,16.6502],[-98.4987,16.6459],[-98.4784,16.6634],[-98.4859,16.683],[-98.4666,16.6815],[-98.4567,16.6954],[-98.4375,16.7537],[-98.4259,16.7617],[-98.4343,16.7817],[-98.4173,16.7999]]]},"properties":{"CVE_ENT":"12","CVE_MUN":"036","CVEGEO":"12036","NOMGEO":"Igualapa"}},
{"type":"Feature","geometry":{"type":"Polygon","coordinates":[[[-98.6693,16.6579],[-98.7055,16.6628],[-98.7323,16.6561],[-98.7661,16.6415],[-98.7727,16.6241],[-98.788,16.6171],[-98.7811,16.5769],[-98.761,16.5494],[-98.745,16.5538],[-98.7388,16.5648],[-98.7225,16.5584],[-98.7118,16.5461],[-98.6792,16.5311],[-98.6633,16.5089],[-98.6569,16.5242],[-98.6255,16.5307],[-98.607,16.5344],[-98.5764,16.5538],[-98.5589,16.5574],[-98.6126,16.6411],[-98.6323,16.653],[-98.6693,16.6579]]]},"properties":{"CVE_ENT":"12","CVE_MUN":"080","CVEGEO":"12080","NOMGEO":"Juchitán"}},
{"type":"Feature","geometry":{"type":"Polygon","coordinates":[[[-98.2671,17.0519],[-98.2444,17.05],[-98.2481,17.0633],[-98.2878,17.0825],[-98.2911,17.1011],[-98.3108,17.1217],[-98.3306,17.1358],[-98.3739,17.1456],[-98.3928,17.1586],[-98.4258,17.1922],[-98.4156,17.2114],[-98.3992,17.2292],[-98.4692,17.2783],[-98.4814,17.2953],[-98.5378,17.2308],[-98.5353,17.2042],[-98.5272,17.1786],[-98.5274,17.1578],[-98.5341,17.1306],[-98.5232,17.0832],[-98.5255,17.0482],[-98.4936,16.9917],[-98.4633,16.9917],[-98.4628,16.9669],[-98.4152,16.9646],[-98.3913,16.9493],[-98.3384,16.9662],[-98.2861,17.0134],[-98.2832,17.0336],[-98.2671,17.0519]]]},"properties":{"CVE_ENT":"12","CVE_MUN":"078","CVEGEO":"12078","NOMGEO":"Cochoapa el Grande"}},
{"type":"Feature","geometry":{"type":"Polygon","coordinates":[[[-98.6768,16.7494],[-98.6831,16.7539],[-98.77,16.72],[-98.7736,16.6969],[-98.7917,16.6736],[-98.8211,16.6564],[-98.8485,16.6579],[-98.8553,16.6515],[-98.8259,16.6221],[-98.818,16.5872],[-98.8248,16.5662],[-98.8134,16.5546],[-98.8057,16.5582],[-98.7719,16.5542],[-98.7233,16.4951],[-98.7136,16.5045],[-98.6727,16.5109],[-98.6633,16.5089],[-98.6792,16.5311],[-98.7118,16.5461],[-98.7225,16.5584],[-98.7388,16.5648],[-98.745,16.5538],[-98.761,16.5494],[-98.7811,16.5769],[-98.788,16.6171],[-98.7727,16.6241],[-98.7661,16.6415],[-98.7323,16.6561],[-98.7055,16.6628],[-98.6693,16.6579],[-98.6605,16.6859],[-98.6686,16.7089],[-98.6597,16.7231],[-98.6678,16.7434],[-98.6768,16.7494]]]},"properties":{"CVE_ENT":"12","CVE_MUN":"077","CVEGEO":"12077","NOMGEO":"Marquelia"}},
{"type":"Feature","geometry":{"type":"Polygon","coordinates":[[[-98.5091,16.3631],[-98.4542,16.3858],[-98.4191,16.3806],[-98.3995,16.3805],[-98.3992,16.3805],[-98.3778,16.4083],[-98.3659,16.4237],[-98.3658,16.4238],[-98.3501,16.4443],[-98.35,16.4492],[-98.3587,16.4662],[-98.3599,16.4717],[-98.3538,16.4913],[-98.3683,16.5009],[-98.3873,16.4978],[-98.3835,16.5131],[-98.3925,16.5274],[-98.3951,16.5468],[-98.4369,16.5648],[-98.4727,16.5845],[-98.4873,16.5887],[-98.488,16.5798],[-98.5118,16.5703],[-98.5398,16.5692],[-98.5389,16.5551],[-98.5604,16.5453],[-98.5577,16.5187],[-98.5873,16.5217],[-98.5883,16.51],[-98.6053,16.5111],[-98.6255,16.5307],[-98.6569,16.5242],[-98.6633,16.5089],[-98.6727,16.5109],[-98.7136,16.5045],[-98.7233,16.4951],[-98.7055,16.4698],[-98.6875,16.452],[-98.6549,16.4267],[-98.6125,16.3845],[-98.6228,16.4016],[-98.5552,16.4138],[-98.5573,16.4489],[-98.5833,16.4647],[-98.5815,16.4758],[-98.5555,16.4853],[-98.535,16.4976],[-98.5357,16.5354],[-98.5116,16.5346],[-98.5107,16.5248],[-98.4892,16.516],[-98.4897,16.4858],[-98.4777,16.4662],[-98.479,16.4263],[-98.5068,16.4235],[-98.5118,16.4048],[-98.5091,16.3631]]]},"properties":{"CVE_ENT":"12","CVE_MUN":"023","CVEGEO":"12023","NOMGEO":"Cuajinicuilapa"}},
{"type":"Feature","geometry":{"type":"Polygon","coordinates":[[[-101.2005,17.919],[-101.232,17.9321],[-101.2204,17.8778],[-101.2311,17.8664],[-101.2482,17.8629],[-101.2323,17.8455],[-101.2272,17.8217],[-101.2493,17.8281],[-101.2634,17.8162],[-101.2748,17.7925],[-101.2687,17.7753],[-101.2899,17.7749],[-101.3225,17.8126],[-101.3461,17.8074],[-101.3752,17.7746],[-101.3802,17.7529],[-101.3678,17.7475],[-101.3599,17.706],[-101.3804,17.7119],[-101.3886,17.6962],[-101.3712,17.6886],[-101.3745,17.658],[-101.3685,17.6354],[-101.3755,17.603],[-101.3943,17.5841],[-101.3921,17.5662],[-101.4124,17.5583],[-101.4407,17.5551],[-101.4417,17.5253],[-101.3579,17.492],[-101.2613,17.4552],[-101.2094,17.4304],[-101.1829,17.4122],[-101.1706,17.3893],[-101.1285,17.3655],[-101.0787,17.3274],[-101.0528,17.3638],[-101.0522,17.382],[-101.0279,17.3964],[-101.0338,17.407],[-101.0296,17.4246],[-101.0432,17.4377],[-101.0379,17.4521],[-101.0218,17.4685],[-100.9734,17.4905],[-100.9826,17.5011],[-100.9957,17.5355],[-100.9852,17.5524],[-100.9833,17.5725],[-100.9711,17.5893],[-100.9448,17.5709],[-100.9037,17.5671],[-100.8994,17.5987],[-100.887,17.5949],[-100.8808,17.6139],[-100.902,17.6178],[-100.8785,17.6894],[-100.8958,17.7023],[-100.9238,17.7311],[-100.9648,17.7473],[-100.9979,17.7991],[-101.0233,17.7872],[-101.0534,17.7814],[-101.0485,17.7441],[-101.0941,17.7313],[-101.1131,17.7165],[-101.1284,17.7575],[-101.1559,17.8561],[-101.1436,17.8809],[-101.175,17.9098],[-101.2005,17.919]]]},"properties":{"CVE_ENT":"12","CVE_MUN":"048","CVEGEO":"12048","NOMGEO":"Petatlán"}},
{"type":"Feature","geometry":{"type":"Polygon","coordinates":[[[-99.4553,17.0655],[-99.4709,17.0567],[-99.4984,17.0315],[-99.5427,17.0215],[-99.5583,17.0248],[-99.5592,17.0223],[-99.5683,17.0204],[-99.5809,17.0182],[-99.6081,17.0217],[-99.6125,17.0012],[-99.6041,16.9863],[-99.5827,16.9679],[-99.559,16.9685],[-99.5319,16.9757],[-99.5023,16.9955],[-99.4736,16.972],[-99.4929,16.9556],[-99.5026,16.9303],[-99.5233,16.9306],[-99.5327,16.9228],[-99.5195,16.894],[-99.5168,16.8693],[-99.5295,16.8358],[-99.5693,16.7984],[-99.595,16.7946],[-99.6066,16.764],[-99.623,16.7486],[-99.6214,16.7294],[-99.606,16.7204],[-99.6086,16.6832],[-99.5717,16.6883],[-99.5097,16.6865],[-99.439,16.6793],[-99.3911,16.6704],[-99.2862,16.648],[-99.2943,16.6788],[-99.3097,16.6919],[-99.2585,16.7081],[-99.2632,16.7215],[-99.2579,16.7494],[-99.2636,16.773],[-99.2915,16.7876],[-99.2945,16.8048],[-99.2699,16.7952],[-99.2377,16.8242],[-99.2536,16.8301],[-99.2647,16.8672],[-99.288,16.8834],[-99.3098,16.8654],[-99.3294,16.9009],[-99.3647,16.9112],[-99.3832,16.9205],[-99.3803,16.8946],[-99.4059,16.899],[-99.4233,16.9168],[-99.414,16.9441],[-99.3872,16.9396],[-99.3763,16.9616],[-99.4012,16.9687],[-99.4148,16.9848],[-99.4065,17.0056],[-99.4247,17.0034],[-99.4444,17.0172],[-99.431,17.0524],[-99.4552,17.0585],[-99.4553,17.0655]]]},"properties":{"CVE_ENT":"12","CVE_MUN":"053","CVEGEO":"12053","NOMGEO":"San Marcos"}},
{"type":"Feature","geometry":{"type":"Polygon","coordinates":[[[-100.3168,18.1967],[-100.3537,18.1629],[-100.3706,18.1748],[-100.3878,18.2032],[-100.4109,18.1969],[-100.4205,18.1741],[-100.4447,18.1664],[-100.4463,18.1502],[-100.4658,18.1559],[-100.4569,18.134],[-100.4256,18.0753],[-100.4191,18.0442],[-100.443,18.0043],[-100.4434,17.9847],[-100.4548,17.9828],[-100.4682,17.9586],[-100.501,17.9531],[-100.5048,17.9415],[-100.4977,17.9133],[-100.509,17.9033],[-100.5029,17.8767],[-100.5119,17.8445],[-100.5234,17.828],[-100.5318,17.7778],[-100.5243,17.7517],[-100.494,17.7155],[-100.4852,17.6768],[-100.4794,17.6759],[-100.4827,17.6342],[-100.4657,17.6105],[-100.4702,17.5644],[-100.3976,17.5495],[-100.2709,17.5075],[-100.2399,17.4911],[-100.2067,17.4983],[-100.1926,17.4968],[-100.214,17.5233],[-100.2063,17.5396],[-100.2126,17.5639],[-100.2077,17.5751],[-100.214,17.6029],[-100.1806,17.6101],[-100.166,17.6179],[-100.1418,17.5968],[-100.1368,17.6304],[-100.1539,17.6684],[-100.142,17.7424],[-100.1428,17.7802],[-100.1596,17.7982],[-100.1575,17.822],[-100.148,17.8397],[-100.1289,17.8465],[-100.1591,17.884],[-100.1652,17.9718],[-100.1828,18.0008],[-100.1029,18.0212],[-100.104,18.0485],[-100.0839,18.052],[-100.084,18.0779],[-100.1039,18.0688],[-100.112,18.0775],[-100.115,18.1103],[-100.1483,18.1332],[-100.1605,18.1109],[-100.1802,18.1042],[-100.211,18.0752],[-100.2229,18.0799],[-100.2523,18.1024],[-100.2719,18.1015],[-100.2835,18.1414],[-100.2991,18.148],[-100.2816,18.1789],[-100.3068,18.1835],[-100.3168,18.1967]]]},"properties":{"CVE_ENT":"12","CVE_MUN":"054","CVEGEO":"12054","NOMGEO":"San Miguel Totolapan"}},
{"type":"Feature","geometry":{"type":"Polygon","coordinates":[[[-99.7861,18.6396],[-99.7942,18.6299],[-99.8099,18.6381],[-99.8163,18.6252],[-99.8319,18.6269],[-99.8581,18.6123],[-99.8834,18.6191],[-99.9167,18.5979],[-99.9429,18.5899],[-99.9489,18.5788],[-99.9604,18.5666],[-99.9617,18.553],[-99.9503,18.5414],[-99.9623,18.5309],[-99.9737,18.505],[-99.9608,18.4959],[-99.9373,18.4361],[-99.9105,18.4554],[-99.915,18.477],[-99.9047,18.4875],[-99.8802,18.4704],[-99.8694,18.4704],[-99.8347,18.437],[-99.8405,18.456],[-99.8395,18.4792],[-99.8248,18.497],[-99.8188,18.5207],[-99.79,18.532],[-99.7874,18.5459],[-99.762,18.553],[-99.7539,18.5836],[-99.7724,18.5884],[-99.7679,18.6103],[-99.7708,18.6271],[-99.7861,18.6396]]]},"properties":{"CVE_ENT":"12","CVE_MUN":"047","CVEGEO":"12047","NOMGEO":"Pedro Ascencio Alquisiras"}},
{"type":"Feature","geometry":{"type":"Polygon","coordinates":[[[-99.5808,18.7303],[-99.5899,18.7393],[-99.6188,18.7413],[-99.6206,18.7273],[-99.6357,18.7243],[-99.6487,18.7432],[-99.6615,18.7713],[-99.697,18.7863],[-99.7092,18.7688],[-99.6881,18.7432],[-99.672,18.7135],[-99.6932,18.7212],[-99.7065,18.7355],[-99.7388,18.7373],[-99.717,18.7055],[-99.6804,18.7],[-99.6762,18.678],[-99.6571,18.6768],[-99.6404,18.6918],[-99.6224,18.6654],[-99.591,18.6543],[-99.5591,18.6765],[-99.5491,18.6715],[-99.537,18.6523],[-99.4918,18.6452],[-99.4894,18.6733],[-99.4807,18.6846],[-99.4944,18.7205],[-99.5223,18.7074],[-99.533,18.6945],[-99.5685,18.7047],[-99.5808,18.7303]]]},"properties":{"CVE_ENT":"12","CVE_MUN":"049","CVEGEO":"12049","NOMGEO":"Pilcaya"}},
{"type":"Feature","geometry":{"type":"Polygon","coordinates":[[[-100.5574,18.3968],[-100.5903,18.4147],[-100.5892,18.4083],[-100.6087,18.3792],[-100.6269,18.3757],[-100.6397,18.3639],[-100.643,18.3462],[-100.677,18.3732],[-100.6837,18.3869],[-100.7004,18.3675],[-100.7063,18.3525],[-100.6932,18.3237],[-100.6815,18.316],[-100.6658,18.3432],[-100.6506,18.3383],[-100.6507,18.3267],[-100.6348,18.3175],[-100.6168,18.2986],[-100.6191,18.2845],[-100.6027,18.2725],[-100.5848,18.2813],[-100.5634,18.3096],[-100.5739,18.3173],[-100.5668,18.3535],[-100.5532,18.3476],[-100.5359,18.3542],[-100.5555,18.3587],[-100.5442,18.3901],[-100.5574,18.3968]]]},"properties":{"CVE_ENT":"12","CVE_MUN":"050","CVEGEO":"12050","NOMGEO":"Pungarabato"}},
{"type":"Feature","geometry":{"type":"Polygon","coordinates":[[[-99.0091,17.2961],[-99.0472,17.3382],[-99.0642,17.3775],[-99.0588,17.3835],[-99.0738,17.4079],[-99.0798,17.4309],[-99.0947,17.4228],[-99.1208,17.424],[-99.1395,17.4539],[-99.176,17.4396],[-99.1795,17.4484],[-99.1991,17.4445],[-99.2248,17.4636],[-99.2309,17.4925],[-99.26,17.501],[-99.2626,17.4903],[-99.2845,17.4872],[-99.2962,17.4717],[-99.3096,17.4341],[-99.2954,17.4243],[-99.3129,17.4107],[-99.3201,17.3861],[-99.3075,17.3582],[-99.311,17.3415],[-99.3069,17.3105],[-99.2719,17.2909],[-99.2878,17.2749],[-99.2864,17.2441],[-99.3149,17.2156],[-99.3029,17.1906],[-99.3134,17.186],[-99.3213,17.1651],[-99.3146,17.1605],[-99.3046,17.1458],[-99.2616,17.1438],[-99.2401,17.148],[-99.2292,17.1625],[-99.2005,17.1709],[-99.1986,17.1619],[-99.1918,17.1533],[-99.1871,17.1526],[-99.1837,17.1498],[-99.1839,17.1534],[-99.1852,17.1581],[-99.1841,17.1589],[-99.18,17.18],[-99.1669,17.192],[-99.1159,17.1986],[-99.0928,17.1932],[-99.0611,17.2163],[-99.0544,17.217],[-99.0273,17.2426],[-99.0273,17.2563],[-99.0168,17.2662],[-99.0091,17.2961]]]},"properties":{"CVE_ENT":"12","CVE_MUN":"051","CVEGEO":"12051","NOMGEO":"Quechultenango"}},
{"type":"Feature","geometry":{"type":"Polygon","coordinates":[[[-98.6445,17.9336],[-98.6522,17.9341],[-98.6881,17.9619],[-98.7017,17.9541],[-98.7167,17.9733],[-98.7543,17.9898],[-98.7669,17.9893],[-98.8017,18.003],[-98.8132,18.0112],[-98.7941,18.024],[-98.7686,18.0195],[-98.7379,18.04],[-98.7586,18.0448],[-98.7774,18.056],[-98.8123,18.0636],[-98.8341,18.0635],[-98.8698,18.0572],[-98.8913,18.0472],[-98.8894,18.028],[-98.8985,18.0117],[-98.8851,17.985],[-98.8982,17.9794],[-98.9027,17.9629],[-98.8856,17.9446],[-98.8819,17.9327],[-98.8927,17.9188],[-98.9321,17.9207],[-98.9453,17.9287],[-98.9638,17.9237],[-98.9764,17.9239],[-98.9808,17.8967],[-98.9477,17.8965],[-98.9219,17.9025],[-98.9201,17.8851],[-98.9013,17.863],[-98.8817,17.8629],[-98.8678,17.85],[-98.8533,17.8475],[-98.8419,17.8296],[-98.8472,17.8221],[-98.8208,17.8028],[-98.837,17.7832],[-98.8336,17.7677],[-98.8197,17.7601],[-98.8188,17.7365],[-98.7972,17.748],[-98.7827,17.7447],[-98.7726,17.7261],[-98.7733,17.714],[-98.7559,17.7003],[-98.7467,17.719],[-98.7301,17.7207],[-98.7331,17.7395],[-98.7156,17.757],[-98.7043,17.7766],[-98.7187,17.7873],[-98.7024,17.8035],[-98.671,17.8276],[-98.6078,17.856],[-98.6208,17.8754],[-98.6386,17.8934],[-98.6445,17.9336]]]},"properties":{"CVE_ENT":"12","CVE_MUN":"045","CVEGEO":"12045","NOMGEO":"Olinalá"}},
{"type":"Feature","geometry":{"type":"Polygon","coordinates":[[[-98.2581,16.78],[-98.2759,16.7809],[-98.2833,16.7688],[-98.274,16.7555],[-98.2879,16.7471],[-98.3036,16.7525],[-98.3344,16.782],[-98.3478,16.7772],[-98.3734,16.7822],[-98.4173,16.7999],[-98.4343,16.7817],[-98.4259,16.7617],[-98.4375,16.7537],[-98.4567,16.6954],[-98.4666,16.6815],[-98.4859,16.683],[-98.4784,16.6634],[-98.4987,16.6459],[-98.4938,16.6277],[-98.4991,16.5942],[-98.4813,16.5939],[-98.4727,16.5845],[-98.4369,16.5648],[-98.3951,16.5468],[-98.3403,16.5582],[-98.33,16.5727],[-98.3166,16.5699],[-98.2917,16.5701],[-98.2928,16.5578],[-98.2499,16.5635],[-98.2293,16.5809],[-98.2055,16.5859],[-98.1938,16.6215],[-98.2142,16.6188],[-98.2285,16.6395],[-98.2331,16.6706],[-98.2459,16.6707],[-98.238,16.7074],[-98.2464,16.715],[-98.2311,16.7363],[-98.2535,16.7487],[-98.2475,16.7711],[-98.2581,16.78]]]},"properties":{"CVE_ENT":"12","CVE_MUN":"046","CVEGEO":"12046","NOMGEO":"Ometepec"}},
{"type":"Feature","geometry":{"type":"Polygon","coordinates":[[[-99.6331,17.5988],[-99.6162,17.6768],[-99.6234,17.6849],[-99.6549,17.6715],[-99.6508,17.7211],[-99.6575,17.7257],[-99.6973,17.7239],[-99.7446,17.7111],[-99.7824,17.714],[-99.7874,17.7292],[-99.779,17.7426],[-99.7973,17.749],[-99.7925,17.7692],[-99.8022,17.7924],[-99.8195,17.8011],[-99.8617,17.7679],[-99.8586,17.7574],[-99.8801,17.7544],[-99.8878,17.7272],[-99.9018,17.7215],[-99.8812,17.7054],[-99.9064,17.6931],[-99.9271,17.6896],[-99.9492,17.6611],[-99.9463,17.6531],[-99.9112,17.6524],[-99.9112,17.6467],[-99.9452,17.6249],[-99.9591,17.6202],[-99.952,17.5885],[-99.9549,17.5808],[-99.9434,17.5618],[-99.9196,17.5426],[-99.8986,17.5457],[-99.8613,17.5519],[-99.8568,17.5295],[-99.8642,17.5081],[-99.8472,17.4874],[-99.8275,17.4772],[-99.7634,17.4994],[-99.7613,17.5109],[-99.7407,17.5258],[-99.7422,17.5461],[-99.7355,17.5578],[-99.7176,17.565],[-99.6909,17.5623],[-99.6848,17.5898],[-99.6567,17.5864],[-99.6331,17.5988]]]},"properties":{"CVE_ENT":"12","CVE_MUN":"040","CVEGEO":"12040","NOMGEO":"Leonardo Bravo"}},
{"type":"Feature","geometry":{"type":"Polygon","coordinates":[[[-98.5491,16.7959],[-98.5736,16.7926],[-98.5959,16.8039],[-98.6343,16.7947],[-98.6294,16.7824],[-98.6334,16.763],[-98.6499,16.7666],[-98.6784,16.7609],[-98.6768,16.7494],[-98.6678,16.7434],[-98.6597,16.7231],[-98.6686,16.7089],[-98.6605,16.6859],[-98.6693,16.6579],[-98.6323,16.653],[-98.6126,16.6411],[-98.5589,16.5574],[-98.5764,16.5538],[-98.607,16.5344],[-98.6255,16.5307],[-98.6053,16.5111],[-98.5883,16.51],[-98.5873,16.5217],[-98.5577,16.5187],[-98.5604,16.5453],[-98.5389,16.5551],[-98.5398,16.5692],[-98.5118,16.5703],[-98.488,16.5798],[-98.4873,16.5887],[-98.4991,16.5942],[-98.4938,16.6277],[-98.5051,16.6524],[-98.4947,16.6731],[-98.5152,16.6705],[-98.5182,16.6789],[-98.5027,16.6927],[-98.4952,16.7192],[-98.4822,16.7343],[-98.499,16.759],[-98.4931,16.77],[-98.5014,16.7894],[-98.5245,16.7846],[-98.5372,16.7905],[-98.5387,16.7882],[-98.5402,16.7846],[-98.5434,16.7844],[-98.5442,16.7892],[-98.5485,16.7932],[-98.5492,16.7949],[-98.5491,16.7959]]]},"properties":{"CVE_ENT":"12","CVE_MUN":"013","CVEGEO":"12013","NOMGEO":"Azoyú"}},
{"type":"Feature","geometry":{"type":"Polygon","coordinates":[[[-98.4599,16.8809],[-98.4604,16.8747],[-98.464,16.8698],[-98.4851,16.8629],[-98.4943,16.8409],[-98.4909,16.8183],[-98.4705,16.8306],[-98.4173,16.7999],[-98.3734,16.7822],[-98.3478,16.7772],[-98.3344,16.782],[-98.3036,16.7525],[-98.2879,16.7471],[-98.274,16.7555],[-98.2833,16.7688],[-98.2759,16.7809],[-98.2581,16.78],[-98.2483,16.8057],[-98.2497,16.8327],[-98.2363,16.8519],[-98.2121,16.8486],[-98.1717,16.8532],[-98.1474,16.8483],[-98.1385,16.8706],[-98.1511,16.8782],[-98.1552,16.8912],[-98.1808,16.9107],[-98.1819,16.919],[-98.2307,16.9229],[-98.2488,16.9345],[-98.2423,16.9556],[-98.224,16.9617],[-98.2143,16.9764],[-98.2349,16.9959],[-98.2163,17.0056],[-98.1958,16.9947],[-98.1655,16.9946],[-98.1531,17.0053],[-98.152,17.0212],[-98.1366,17.023],[-98.0961,17.0025],[-98.0788,17.0099],[-98.0663,17.038],[-98.0771,17.0615],[-98.0988,17.0839],[-98.118,17.0955],[-98.15,17.1024],[-98.1534,17.1104],[-98.1971,17.1162],[-98.2204,17.1266],[-98.2235,17.1483],[-98.2167,17.1698],[-98.2147,17.1853],[-98.2172,17.186],[-98.2177,17.1869],[-98.2206,17.1874],[-98.2318,17.2025],[-98.2517,17.1934],[-98.2551,17.1815],[-98.2696,17.1698],[-98.2558,17.1529],[-98.2641,17.1296],[-98.2811,17.1222],[-98.2712,17.1011],[-98.2713,17.086],[-98.2203,17.0672],[-98.2192,17.0421],[-98.2422,17.0373],[-98.2671,17.0519],[-98.2832,17.0336],[-98.2861,17.0134],[-98.3384,16.9662],[-98.3913,16.9493],[-98.4152,16.9646],[-98.4074,16.9566],[-98.4147,16.9427],[-98.4031,16.93],[-98.41,16.9121],[-98.4081,16.8976],[-98.4317,16.9051],[-98.4327,16.9197],[-98.4469,16.9233],[-98.4455,16.8975],[-98.4599,16.8809]]]},"properties":{"CVE_ENT":"12","CVE_MUN":"062","CVEGEO":"12062","NOMGEO":"Tlacoachistlahuaca"}},
{"type":"Feature","geometry":{"type":"Polygon","coordinates":[[[-98.6185,17.1814],[-98.6268,17.1947],[-98.6332,17.2195],[-98.6243,17.2657],[-98.6317,17.2826],[-98.6239,17.2914],[-98.6109,17.2779],[-98.5986,17.2852],[-98.6145,17.3081],[-98.636,17.3103],[-98.6483,17.3169],[-98.6426,17.3276],[-98.6716,17.3439],[-98.6848,17.3417],[-98.6942,17.3369],[-98.7063,17.3406],[-98.7055,17.3335],[-98.6894,17.3008],[-98.7089,17.2821],[-98.7172,17.2398],[-98.731,17.2319],[-98.7337,17.2085],[-98.7574,17.1981],[-98.7578,17.1853],[-98.7744,17.1773],[-98.7814,17.1633],[-98.7967,17.1563],[-98.8083,17.1262],[-98.803,17.0913],[-98.7946,17.0817],[-98.791,17.0682],[-98.7795,17.0475],[-98.7564,17.047],[-98.7283,17.03],[-98.7039,17.0283],[-98.7144,17.0544],[-98.737,17.0823],[-98.7268,17.0968],[-98.7037,17.1069],[-98.698,17.1153],[-98.6401,17.1019],[-98.6342,17.1185],[-98.6191,17.1302],[-98.6055,17.1226],[-98.5884,17.0998],[-98.5751,17.0899],[-98.5874,17.1059],[-98.5856,17.1315],[-98.604,17.1602],[-98.6198,17.1724],[-98.6185,17.1814]]]},"properties":{"CVE_ENT":"12","CVE_MUN":"041","CVEGEO":"12041","NOMGEO":"Malinaltepec"}},
{"type":"Feature","geometry":{"type":"Polygon","coordinates":[[[-99.3603,17.929],[-99.3757,17.9404],[-99.3843,17.9352],[-99.4007,17.945],[-99.4093,17.9613],[-99.4355,17.9407],[-99.4428,17.956],[-99.46,17.9565],[-99.4665,17.9388],[-99.478,17.9375],[-99.5001,17.9553],[-99.5083,17.9236],[-99.525,17.9289],[-99.5375,17.9158],[-99.5584,17.9123],[-99.5618,17.8594],[-99.5415,17.8526],[-99.5148,17.858],[-99.5,17.8666],[-99.444,17.8531],[-99.4319,17.8557],[-99.402,17.8098],[-99.4024,17.783],[-99.3906,17.7432],[-99.4037,17.7392],[-99.3951,17.7151],[-99.3807,17.6899],[-99.3642,17.6852],[-99.3337,17.6872],[-99.3254,17.665],[-99.3026,17.6545],[-99.2812,17.6524],[-99.2789,17.6819],[-99.2844,17.7002],[-99.265,17.7041],[-99.2698,17.7292],[-99.2677,17.7506],[-99.237,17.7599],[-99.2353,17.7907],[-99.2221,17.8564],[-99.2214,17.8696],[-99.2305,17.9076],[-99.2557,17.9227],[-99.2944,17.9316],[-99.3313,17.9178],[-99.3603,17.929]]]},"properties":{"CVE_ENT":"12","CVE_MUN":"042","CVEGEO":"12042","NOMGEO":"Mártir de Cuilapan"}},
{"type":"Feature","geometry":{"type":"Polygon","coordinates":[[[-99.2809,17.524],[-99.2974,17.5078],[-99.333,17.4989],[-99.344,17.486],[-99.3856,17.4788],[-99.405,17.4908],[-99.4116,17.479],[-99.4325,17.4785],[-99.4292,17.436],[-99.4457,17.3965],[-99.4612,17.3678],[-99.4484,17.358],[-99.4571,17.3475],[-99.4731,17.3099],[-99.4617,17.2954],[-99.4673,17.2868],[-99.4561,17.2673],[-99.4615,17.2512],[-99.4468,17.2522],[-99.4373,17.2321],[-99.4205,17.2311],[-99.3881,17.1973],[-99.3712,17.1971],[-99.3657,17.1704],[-99.3422,17.1798],[-99.3434,17.165],[-99.3213,17.1651],[-99.3134,17.186],[-99.3029,17.1906],[-99.3149,17.2156],[-99.2864,17.2441],[-99.2878,17.2749],[-99.2719,17.2909],[-99.3069,17.3105],[-99.311,17.3415],[-99.3075,17.3582],[-99.3201,17.3861],[-99.3129,17.4107],[-99.2954,17.4243],[-99.3096,17.4341],[-99.2962,17.4717],[-99.2845,17.4872],[-99.2809,17.524]]]},"properties":{"CVE_ENT":"12","CVE_MUN":"044","CVEGEO":"12044","NOMGEO":"Mochitlán"}},
{"type":"Feature","geometry":{"type":"Polygon","coordinates":[[[-101.3634,18.0596],[-101.3687,18.0614],[-101.3759,18.0581],[-101.4026,18.0284],[-101.4339,18.0239],[-101.441,18.0179],[-101.4264,17.9932],[-101.475,17.9759],[-101.4907,17.981],[-101.4972,17.9506],[-101.5002,17.9179],[-101.5119,17.906],[-101.531,17.9075],[-101.5676,17.9251],[-101.5721,17.9066],[-101.556,17.9077],[-101.5596,17.8664],[-101.5161,17.8377],[-101.528,17.8198],[-101.5471,17.8283],[-101.5746,17.8231],[-101.5896,17.8271],[-101.6571,17.8277],[-101.6394,17.8155],[-101.6807,17.7807],[-101.6979,17.7933],[-101.7112,17.7699],[-101.6806,17.7482],[-101.6671,17.7338],[-101.6475,17.7012],[-101.6432,17.6693],[-101.6023,17.6575],[-101.5988,17.6381],[-101.5786,17.637],[-101.5449,17.6152],[-101.5221,17.6233],[-101.5018,17.6183],[-101.469,17.5931],[-101.4476,17.5706],[-101.4407,17.5551],[-101.4124,17.5583],[-101.3921,17.5662],[-101.3943,17.5841],[-101.3755,17.603],[-101.3685,17.6354],[-101.3745,17.658],[-101.3712,17.6886],[-101.3886,17.6962],[-101.3804,17.7119],[-101.3599,17.706],[-101.3678,17.7475],[-101.3802,17.7529],[-101.3752,17.7746],[-101.3461,17.8074],[-101.3225,17.8126],[-101.2899,17.7749],[-101.2687,17.7753],[-101.2748,17.7925],[-101.2634,17.8162],[-101.2493,17.8281],[-101.2272,17.8217],[-101.2323,17.8455],[-101.2482,17.8629],[-101.2311,17.8664],[-101.2204,17.8778],[-101.232,17.9321],[-101.2125,17.9246],[-101.2043,17.9318],[-101.2064,17.9384],[-101.2023,17.9449],[-101.2114,17.947],[-101.2215,17.9548],[-101.2131,17.9757],[-101.2163,18.0026],[-101.2389,18.0171],[-101.2412,18.039],[-101.2618,18.0388],[-101.2651,18.0284],[-101.2951,18.0348],[-101.305,18.0523],[-101.3634,18.0596]]]},"properties":{"CVE_ENT":"12","CVE_MUN":"038","CVEGEO":"12038","NOMGEO":"Zihuatanejo de Azueta"}},
{"type":"Feature","geometry":{"type":"Polygon","coordinates":[[[-99.3213,17.1651],[-99.3434,17.165],[-99.3422,17.1798],[-99.3657,17.1704],[-99.3712,17.1971],[-99.3881,17.1973],[-99.4205,17.2311],[-99.4373,17.2321],[-99.4468,17.2522],[-99.4615,17.2512],[-99.4702,17.2501],[-99.4647,17.2123],[-99.4716,17.2007],[-99.5014,17.1945],[-99.5126,17.2104],[-99.5235,17.2085],[-99.5395,17.189],[-99.5619,17.202],[-99.6036,17.2134],[-99.6115,17.223],[-99.6324,17.2093],[-99.6351,17.1972],[-99.6248,17.165],[-99.6082,17.1711],[-99.5898,17.1574],[-99.5872,17.1323],[-99.56,17.1297],[-99.5645,17.1168],[-99.5512,17.1063],[-99.5531,17.0922],[-99.5442,17.0681],[-99.5704,17.0462],[-99.5628,17.0372],[-99.5583,17.0248],[-99.5427,17.0215],[-99.4984,17.0315],[-99.4709,17.0567],[-99.4553,17.0655],[-99.4619,17.0967],[-99.4741,17.128],[-99.4149,17.1167],[-99.4086,17.1107],[-99.3671,17.1028],[-99.3347,17.0779],[-99.3321,17.0619],[-99.3077,17.0586],[-99.314,17.0841],[-99.3254,17.0967],[-99.3206,17.1226],[-99.3112,17.1362],[-99.3239,17.1547],[-99.3146,17.1605],[-99.3213,17.1651]]]},"properties":{"CVE_ENT":"12","CVE_MUN":"039","CVEGEO":"12039","NOMGEO":"Juan R. Escudero"}},
{"type":"Feature","geometry":{"type":"Polygon","coordinates":[[[-98.9638,17.9237],[-98.9951,17.9333],[-99.0144,17.9165],[-99.0252,17.8947],[-99.0397,17.8811],[-99.053,17.8857],[-99.0784,17.8842],[-99.0843,17.868],[-99.0988,17.8493],[-99.0954,17.8295],[-99.085,17.8177],[-99.0971,17.7942],[-99.0971,17.7703],[-99.1073,17.7421],[-99.1083,17.724],[-99.1187,17.7153],[-99.1329,17.6836],[-99.1026,17.6662],[-99.0798,17.6581],[-99.0853,17.6353],[-99.073,17.6286],[-99.052,17.6544],[-99.0364,17.66],[-98.9896,17.6553],[-98.9719,17.6409],[-98.9577,17.6417],[-98.9341,17.6338],[-98.9216,17.6227],[-98.9027,17.6231],[-98.8612,17.6067],[-98.8276,17.6174],[-98.7912,17.6609],[-98.7633,17.6548],[-98.7377,17.6742],[-98.7567,17.6851],[-98.7559,17.7003],[-98.7733,17.714],[-98.7726,17.7261],[-98.7827,17.7447],[-98.7972,17.748],[-98.8188,17.7365],[-98.8197,17.7601],[-98.8336,17.7677],[-98.837,17.7832],[-98.8208,17.8028],[-98.8472,17.8221],[-98.8419,17.8296],[-98.8533,17.8475],[-98.8678,17.85],[-98.8817,17.8629],[-98.9013,17.863],[-98.9201,17.8851],[-98.9219,17.9025],[-98.9477,17.8965],[-98.9808,17.8967],[-98.9764,17.9239],[-98.9638,17.9237]]]},"properties":{"CVE_ENT":"12","CVE_MUN":"002","CVEGEO":"12002","NOMGEO":"Ahuacuotzingo"}},
{"type":"Feature","geometry":{"type":"Polygon","coordinates":[[[-100.5848,18.2813],[-100.6027,18.2725],[-100.6191,18.2845],[-100.6246,18.2717],[-100.6259,18.2294],[-100.6297,18.2185],[-100.6198,18.1958],[-100.5991,18.1684],[-100.6405,18.1396],[-100.66,18.1345],[-100.6767,18.1046],[-100.7116,18.1105],[-100.717,17.9786],[-100.7256,17.9596],[-100.7309,17.9122],[-100.7724,17.8837],[-100.8084,17.8674],[-100.8058,17.8594],[-100.8227,17.8352],[-100.8445,17.8197],[-100.8444,17.8068],[-100.8584,17.7782],[-100.8671,17.7694],[-100.8576,17.7569],[-100.8626,17.7293],[-100.8292,17.7157],[-100.8202,17.6966],[-100.7513,17.6514],[-100.7098,17.6688],[-100.6365,17.6467],[-100.5962,17.6208],[-100.5953,17.5976],[-100.5662,17.5964],[-100.5615,17.5824],[-100.5335,17.5867],[-100.5116,17.5976],[-100.5093,17.61],[-100.4827,17.6342],[-100.4794,17.6759],[-100.4852,17.6768],[-100.494,17.7155],[-100.5243,17.7517],[-100.5318,17.7778],[-100.5234,17.828],[-100.5119,17.8445],[-100.5029,17.8767],[-100.509,17.9033],[-100.4977,17.9133],[-100.5048,17.9415],[-100.501,17.9531],[-100.4682,17.9586],[-100.4548,17.9828],[-100.4434,17.9847],[-100.443,18.0043],[-100.4191,18.0442],[-100.4256,18.0753],[-100.4569,18.134],[-100.4658,18.1559],[-100.4463,18.1502],[-100.4447,18.1664],[-100.4205,18.1741],[-100.4109,18.1969],[-100.3878,18.2032],[-100.3706,18.1748],[-100.3537,18.1629],[-100.3168,18.1967],[-100.3311,18.2105],[-100.3331,18.2224],[-100.3224,18.2398],[-100.3738,18.2378],[-100.3885,18.23],[-100.4332,18.2391],[-100.4487,18.216],[-100.4676,18.228],[-100.4948,18.2302],[-100.5018,18.2148],[-100.5261,18.2081],[-100.5323,18.2239],[-100.5539,18.2472],[-100.5516,18.2563],[-100.5783,18.2705],[-100.5848,18.2813]]]},"properties":{"CVE_ENT":"12","CVE_MUN":"003","CVEGEO":"12003","NOMGEO":"Ajuchitlán del Progreso"}},
{"type":"Feature","geometry":{"type":"Polygon","coordinates":[[[-99.066,18.3326],[-99.0756,18.3446],[-99.0661,18.3671],[-99.0895,18.4],[-99.1005,18.4012],[-99.1085,18.4163],[-99.1279,18.4267],[-99.125,18.4363],[-99.1364,18.4501],[-99.1355,18.4608],[-99.1603,18.4643],[-99.1813,18.4484],[-99.1888,18.4352],[-99.2067,18.4474],[-99.2044,18.4553],[-99.246,18.4564],[-99.2687,18.4533],[-99.2724,18.445],[-99.3053,18.4398],[-99.3136,18.4284],[-99.3012,18.4125],[-99.3187,18.4066],[-99.3365,18.4109],[-99.3609,18.424],[-99.371,18.4032],[-99.3901,18.4044],[-99.4044,18.3941],[-99.4071,18.3732],[-99.4307,18.3643],[-99.4394,18.3508],[-99.4302,18.33],[-99.4232,18.3352],[-99.3681,18.3224],[-99.3888,18.3064],[-99.4021,18.3198],[-99.4135,18.2959],[-99.4063,18.2719],[-99.384,18.2649],[-99.3734,18.2485],[-99.385,18.205],[-99.3688,18.1844],[-99.4017,18.1708],[-99.3959,18.156],[-99.3411,18.1491],[-99.3476,18.1382],[-99.3201,18.1348],[-99.3359,18.0889],[-99.3342,18.0462],[-99.3598,17.9993],[-99.3603,17.929],[-99.3313,17.9178],[-99.2944,17.9316],[-99.2557,17.9227],[-99.2305,17.9076],[-99.1902,17.9568],[-99.2128,18.0069],[-99.1852,18.0126],[-99.1858,18.0377],[-99.2045,18.0416],[-99.2201,18.0728],[-99.238,18.082],[-99.2318,18.1117],[-99.2157,18.1156],[-99.1978,18.1107],[-99.1932,18.1296],[-99.2042,18.1343],[-99.2127,18.1507],[-99.2095,18.1703],[-99.1889,18.1856],[-99.1865,18.1993],[-99.1968,18.209],[-99.1707,18.2355],[-99.1502,18.2377],[-99.1171,18.2345],[-99.0834,18.2409],[-99.064,18.2363],[-99.054,18.2523],[-99.0548,18.2714],[-99.0658,18.2804],[-99.0601,18.2967],[-99.066,18.3326]]]},"properties":{"CVE_ENT":"12","CVE_MUN":"034","CVEGEO":"12034","NOMGEO":"Huitzuco de los Figueroa"}},
{"type":"Feature","geometry":{"type":"Polygon","coordinates":[[[-99.5249,18.4105],[-99.557,18.4083],[-99.5646,18.3837],[-99.5878,18.3881],[-99.6125,18.3586],[-99.63,18.3684],[-99.644,18.3668],[-99.6512,18.3375],[-99.6251,18.3301],[-99.6141,18.3092],[-99.6318,18.2966],[-99.6239,18.2706],[-99.6596,18.2584],[-99.6552,18.238],[-99.6379,18.2325],[-99.6278,18.2458],[-99.6124,18.244],[-99.6043,18.2557],[-99.5823,18.2562],[-99.5797,18.2273],[-99.6006,18.2222],[-99.6216,18.1957],[-99.6485,18.2017],[-99.6611,18.1831],[-99.6612,18.1719],[-99.6806,18.1673],[-99.6633,18.143],[-99.6855,18.1188],[-99.7068,18.1337],[-99.7159,18.107],[-99.6975,18.0726],[-99.7022,18.0523],[-99.6879,18.0181],[-99.6744,18.0127],[-99.6513,18.0125],[-99.6387,17.9727],[-99.627,17.9537],[-99.6096,17.958],[-99.6005,17.9676],[-99.6291,17.9879],[-99.6346,18.0036],[-99.6286,18.0252],[-99.6066,18.0526],[-99.6049,18.0779],[-99.5824,18.0932],[-99.591,18.1009],[-99.5704,18.1163],[-99.5894,18.1214],[-99.585,18.1383],[-99.5926,18.157],[-99.5867,18.173],[-99.5632,18.1751],[-99.5513,18.1818],[-99.5369,18.2013],[-99.5158,18.1977],[-99.4845,18.2162],[-99.4862,18.2352],[-99.5022,18.2484],[-99.4954,18.2732],[-99.5088,18.2981],[-99.4938,18.3023],[-99.4702,18.2954],[-99.4484,18.3082],[-99.4563,18.3217],[-99.4302,18.33],[-99.4394,18.3508],[-99.4307,18.3643],[-99.45,18.3842],[-99.4709,18.3909],[-99.5092,18.3923],[-99.5249,18.4105]]]},"properties":{"CVE_ENT":"12","CVE_MUN":"035","CVEGEO":"12035","NOMGEO":"Iguala de la Independencia"}},
{"type":"Feature","geometry":{"type":"Polygon","coordinates":[[[-100.0617,18.3679],[-100.0673,18.3823],[-100.0394,18.384],[-100.0394,18.4042],[-100.0181,18.4255],[-100.0326,18.4566],[-100.0041,18.4562],[-100.0006,18.4748],[-100.0071,18.4838],[-100.0353,18.4801],[-100.0352,18.4937],[-100.0681,18.5205],[-100.0768,18.5488],[-100.09,18.5222],[-100.1045,18.524],[-100.12,18.5162],[-100.1273,18.5023],[-100.1422,18.5025],[-100.1581,18.492],[-100.1857,18.4551],[-100.2171,18.4459],[-100.227,18.4309],[-100.2105,18.4062],[-100.2024,18.4086],[-100.189,18.432],[-100.175,18.4158],[-100.1683,18.3773],[-100.156,18.3716],[-100.1401,18.3776],[-100.1122,18.3627],[-100.1046,18.343],[-100.0885,18.3507],[-100.0828,18.3666],[-100.0617,18.3679]]]},"properties":{"CVE_ENT":"12","CVE_MUN":"031","CVEGEO":"12031","NOMGEO":"General Canuto A. Neri"}},
{"type":"Feature","geometry":{"type":"Polygon","coordinates":[[[-99.8837,17.9731],[-99.9089,17.9383],[-99.9308,17.9413],[-99.9312,17.9511],[-99.9611,17.9566],[-99.9719,17.9637],[-99.991,17.9615],[-100.0197,17.9503],[-100.0332,17.9565],[-100.0406,17.9875],[-100.0222,17.9929],[-100.0284,18.0193],[-100.0219,18.0318],[-100.0334,18.0411],[-100.0502,18.0369],[-100.0591,18.0188],[-100.0464,18.0006],[-100.0655,17.9862],[-100.0896,17.9908],[-100.087,18.0005],[-100.1029,18.0212],[-100.1828,18.0008],[-100.1652,17.9718],[-100.1591,17.884],[-100.1289,17.8465],[-100.148,17.8397],[-100.1575,17.822],[-100.1596,17.7982],[-100.1428,17.7802],[-100.142,17.7424],[-100.1539,17.6684],[-100.1368,17.6304],[-100.1418,17.5968],[-100.166,17.6179],[-100.1806,17.6101],[-100.214,17.6029],[-100.2077,17.5751],[-100.2126,17.5639],[-100.2063,17.5396],[-100.214,17.5233],[-100.1926,17.4968],[-100.1768,17.4827],[-100.1795,17.4741],[-100.1348,17.4581],[-100.1154,17.4544],[-100.0854,17.4244],[-100.0721,17.3996],[-100.048,17.4031],[-100.061,17.4127],[-100.049,17.4262],[-100.0505,17.445],[-100.0341,17.4451],[-100.0236,17.4542],[-100.0194,17.474],[-99.9946,17.4811],[-99.9652,17.4785],[-99.9531,17.5],[-99.8918,17.5053],[-99.8874,17.5202],[-99.8986,17.5457],[-99.9196,17.5426],[-99.9434,17.5618],[-99.9549,17.5808],[-99.952,17.5885],[-99.9591,17.6202],[-99.9452,17.6249],[-99.9112,17.6467],[-99.9112,17.6524],[-99.9463,17.6531],[-99.9492,17.6611],[-99.9271,17.6896],[-99.9064,17.6931],[-99.8812,17.7054],[-99.9018,17.7215],[-99.8878,17.7272],[-99.8801,17.7544],[-99.8586,17.7574],[-99.8617,17.7679],[-99.8195,17.8011],[-99.8052,17.8229],[-99.816,17.8412],[-99.8093,17.8682],[-99.8088,17.891],[-99.8221,17.898],[-99.8285,17.9194],[-99.8435,17.9139],[-99.8563,17.9187],[-99.8614,17.9362],[-99.8579,17.9644],[-99.8837,17.9731]]]},"properties":{"CVE_ENT":"12","CVE_MUN":"032","CVEGEO":"12032","NOMGEO":"General Heliodoro Castillo"}},
{"type":"Feature","geometry":{"type":"Polygon","coordinates":[[[-98.471,17.7888],[-98.4805,17.7986],[-98.5223,17.8146],[-98.5281,17.8536],[-98.5421,17.87],[-98.5401,17.8906],[-98.5043,17.8969],[-98.4972,17.9316],[-98.4848,17.9227],[-98.4724,17.9708],[-98.4782,17.9741],[-98.5194,17.9601],[-98.519,17.9336],[-98.5522,17.934],[-98.552,17.9211],[-98.5721,17.9096],[-98.5679,17.8948],[-98.5932,17.8963],[-98.618,17.8877],[-98.6208,17.8754],[-98.6078,17.856],[-98.6111,17.8023],[-98.6019,17.7795],[-98.6003,17.7412],[-98.5824,17.7125],[-98.5618,17.6856],[-98.5304,17.6867],[-98.4897,17.7034],[-98.4867,17.7337],[-98.4966,17.7616],[-98.4939,17.773],[-98.471,17.7888]]]},"properties":{"CVE_ENT":"12","CVE_MUN":"033","CVEGEO":"12033","NOMGEO":"Huamuxtitlán"}},
{"type":"Feature","geometry":{"type":"Polygon","coordinates":[[[-99.073,17.6286],[-99.0853,17.6353],[-99.0798,17.6581],[-99.1026,17.6662],[-99.1329,17.6836],[-99.1964,17.6661],[-99.2289,17.6402],[-99.2378,17.6524],[-99.2597,17.6552],[-99.2812,17.6524],[-99.2703,17.6246],[-99.2753,17.5932],[-99.2679,17.5743],[-99.2727,17.5515],[-99.2659,17.5428],[-99.2809,17.524],[-99.2845,17.4872],[-99.2626,17.4903],[-99.26,17.501],[-99.2309,17.4925],[-99.2248,17.4636],[-99.1991,17.4445],[-99.1795,17.4484],[-99.176,17.4396],[-99.1395,17.4539],[-99.1208,17.424],[-99.0947,17.4228],[-99.0798,17.4309],[-99.0738,17.4079],[-99.0588,17.3835],[-99.0642,17.3775],[-99.0472,17.3382],[-99.0091,17.2961],[-98.9984,17.3013],[-98.9962,17.3176],[-98.9838,17.3362],[-98.9652,17.3493],[-98.957,17.3687],[-98.9872,17.3794],[-98.9953,17.3932],[-99.0245,17.4014],[-99.0508,17.398],[-99.0549,17.4133],[-99.044,17.4252],[-99.0439,17.4477],[-99.0524,17.4553],[-99.0513,17.48],[-99.0259,17.4944],[-99.0152,17.5123],[-98.9893,17.5108],[-98.9728,17.5051],[-98.9685,17.4866],[-98.9549,17.4669],[-98.9443,17.4622],[-98.9384,17.4292],[-98.9527,17.4034],[-98.9174,17.4217],[-98.9102,17.435],[-98.8896,17.4462],[-98.8951,17.468],[-98.8885,17.4759],[-98.9111,17.4995],[-98.9637,17.5331],[-98.9989,17.5494],[-99.0267,17.5945],[-99.042,17.6008],[-99.0616,17.5902],[-99.0776,17.595],[-99.073,17.6286]]]},"properties":{"CVE_ENT":"12","CVE_MUN":"028","CVEGEO":"12028","NOMGEO":"Chilapa de Álvarez"}},
{"type":"Feature","geometry":{"type":"Polygon","coordinates":[[[-99.4668,17.592],[-99.4975,17.6006],[-99.5103,17.6101],[-99.5521,17.6017],[-99.5763,17.6044],[-99.6042,17.5986],[-99.6331,17.5988],[-99.6567,17.5864],[-99.6848,17.5898],[-99.6909,17.5623],[-99.7176,17.565],[-99.7355,17.5578],[-99.7422,17.5461],[-99.7407,17.5258],[-99.7613,17.5109],[-99.7634,17.4994],[-99.8275,17.4772],[-99.8472,17.4874],[-99.8642,17.5081],[-99.8568,17.5295],[-99.8613,17.5519],[-99.8986,17.5457],[-99.8874,17.5202],[-99.8918,17.5053],[-99.9531,17.5],[-99.9652,17.4785],[-99.9946,17.4811],[-100.0194,17.474],[-100.0236,17.4542],[-100.0341,17.4451],[-100.0505,17.445],[-100.049,17.4262],[-100.061,17.4127],[-100.048,17.4031],[-100.0376,17.3764],[-99.9792,17.3065],[-99.9619,17.2967],[-99.9551,17.2664],[-99.9216,17.2512],[-99.9069,17.2751],[-99.8939,17.2681],[-99.8676,17.267],[-99.8562,17.2799],[-99.8342,17.2772],[-99.8503,17.2457],[-99.8456,17.2287],[-99.8058,17.1736],[-99.7269,17.1765],[-99.7181,17.227],[-99.6697,17.2297],[-99.6625,17.2213],[-99.6691,17.2061],[-99.6537,17.1898],[-99.6351,17.1972],[-99.6324,17.2093],[-99.6115,17.223],[-99.6036,17.2134],[-99.5619,17.202],[-99.5395,17.189],[-99.5235,17.2085],[-99.5126,17.2104],[-99.5014,17.1945],[-99.4716,17.2007],[-99.4647,17.2123],[-99.4702,17.2501],[-99.4615,17.2512],[-99.4561,17.2673],[-99.4673,17.2868],[-99.4617,17.2954],[-99.4731,17.3099],[-99.4571,17.3475],[-99.4484,17.358],[-99.4612,17.3678],[-99.4457,17.3965],[-99.4292,17.436],[-99.4325,17.4785],[-99.4116,17.479],[-99.405,17.4908],[-99.387,17.5091],[-99.4091,17.5146],[-99.4194,17.5405],[-99.4385,17.5426],[-99.4356,17.5613],[-99.4488,17.5806],[-99.465,17.5794],[-99.4668,17.592]]]},"properties":{"CVE_ENT":"12","CVE_MUN":"029","CVEGEO":"12029","NOMGEO":"Chilpancingo de los Bravo"}},
{"type":"Feature","geometry":{"type":"Polygon","coordinates":[[[-98.8848,18.167],[-98.9572,18.1887],[-99.0001,18.1902],[-98.9941,18.2129],[-98.995,18.2374],[-99.0218,18.2499],[-99.0147,18.2633],[-99.0317,18.2723],[-99.054,18.2523],[-99.064,18.2363],[-99.0834,18.2409],[-99.1171,18.2345],[-99.1502,18.2377],[-99.1707,18.2355],[-99.1968,18.209],[-99.1865,18.1993],[-99.1889,18.1856],[-99.2095,18.1703],[-99.2127,18.1507],[-99.2042,18.1343],[-99.1932,18.1296],[-99.1978,18.1107],[-99.2157,18.1156],[-99.2318,18.1117],[-99.238,18.082],[-99.2201,18.0728],[-99.2045,18.0416],[-99.1858,18.0377],[-99.1708,18.048],[-99.1568,18.0322],[-99.1199,17.999],[-99.1101,18.0043],[-99.1111,18.0443],[-99.1069,18.0632],[-99.1192,18.0659],[-99.1088,18.0977],[-99.0658,18.1119],[-99.0452,18.1341],[-99.0245,18.1249],[-99.0375,18.0929],[-99.007,18.1031],[-98.9859,18.122],[-98.9546,18.1099],[-98.9661,18.0915],[-98.9863,18.0865],[-98.9892,18.0588],[-98.9649,18.0459],[-98.9526,18.062],[-98.9225,18.0748],[-98.9099,18.0704],[-98.8951,18.1196],[-98.8792,18.1297],[-98.8592,18.1288],[-98.8848,18.167]]]},"properties":{"CVE_ENT":"12","CVE_MUN":"008","CVEGEO":"12008","NOMGEO":"Atenango del Río"}},
{"type":"Feature","geometry":{"type":"Polygon","coordinates":[[[-99.0703,16.6383],[-99.0585,16.6611],[-99.0543,16.6671],[-99.0497,16.6664],[-99.0422,16.6523],[-99.0131,16.6522],[-98.976,16.6479],[-98.9272,16.6614],[-98.9043,16.6808],[-98.9021,16.6893],[-98.9263,16.7103],[-98.8965,16.7207],[-98.8886,16.7177],[-98.884,16.6923],[-98.8996,16.6596],[-98.8724,16.6559],[-98.8549,16.6747],[-98.8374,16.6823],[-98.839,16.6965],[-98.8257,16.7335],[-98.8619,16.7453],[-98.8659,16.7687],[-98.9195,16.7718],[-98.9342,16.791],[-98.9348,16.8036],[-98.9562,16.7963],[-98.9701,16.7771],[-98.9819,16.801],[-99.0147,16.7807],[-99.0682,16.7707],[-99.0867,16.7767],[-99.0845,16.7709],[-99.0735,16.7667],[-99.0729,16.7599],[-99.0428,16.7244],[-99.0822,16.6906],[-99.088,16.6734],[-99.0761,16.6601],[-99.0703,16.6383]]]},"properties":{"CVE_ENT":"12","CVE_MUN":"025","CVEGEO":"12025","NOMGEO":"Cuautepec"}},
{"type":"Feature","geometry":{"type":"Polygon","coordinates":[[[-99.7417,18.3086],[-99.75,18.3188],[-99.7811,18.3065],[-99.8046,18.2929],[-99.8137,18.2684],[-99.7994,18.2634],[-99.798,18.2418],[-99.8131,18.2212],[-99.8262,18.2182],[-99.8328,18.2017],[-99.8537,18.2391],[-99.8719,18.2468],[-99.8809,18.2229],[-99.8979,18.2294],[-99.9049,18.2112],[-99.8953,18.2062],[-99.8783,18.2173],[-99.8588,18.2053],[-99.8664,18.1514],[-99.861,18.1505],[-99.8681,18.0986],[-99.8799,18.0901],[-99.8839,18.0741],[-99.8708,18.0564],[-99.8771,18.0298],[-99.8867,18.0171],[-99.8791,18.0042],[-99.8858,17.9944],[-99.8837,17.9731],[-99.8579,17.9644],[-99.8614,17.9362],[-99.8563,17.9187],[-99.8435,17.9139],[-99.8285,17.9194],[-99.8221,17.898],[-99.7968,17.9017],[-99.7928,17.925],[-99.793,17.9574],[-99.7985,17.9785],[-99.8127,17.9748],[-99.8144,17.9913],[-99.832,17.9893],[-99.8398,18.006],[-99.8121,18.0171],[-99.8034,18.0579],[-99.7968,18.071],[-99.8004,18.0919],[-99.796,18.1108],[-99.7866,18.1237],[-99.7732,18.1547],[-99.753,18.1715],[-99.7487,18.2048],[-99.7177,18.233],[-99.7182,18.2528],[-99.7283,18.264],[-99.7294,18.2935],[-99.7417,18.3086]]]},"properties":{"CVE_ENT":"12","CVE_MUN":"026","CVEGEO":"12026","NOMGEO":"Cuetzala del Progreso"}},
{"type":"Feature","geometry":{"type":"Polygon","coordinates":[[[-99.3603,17.929],[-99.3598,17.9993],[-99.3342,18.0462],[-99.3359,18.0889],[-99.3201,18.1348],[-99.3476,18.1382],[-99.3411,18.1491],[-99.3959,18.156],[-99.4017,18.1708],[-99.3688,18.1844],[-99.385,18.205],[-99.3734,18.2485],[-99.384,18.2649],[-99.4063,18.2719],[-99.4135,18.2959],[-99.4021,18.3198],[-99.3888,18.3064],[-99.3681,18.3224],[-99.4232,18.3352],[-99.4302,18.33],[-99.4563,18.3217],[-99.4484,18.3082],[-99.4702,18.2954],[-99.4938,18.3023],[-99.5088,18.2981],[-99.4954,18.2732],[-99.5022,18.2484],[-99.4862,18.2352],[-99.4845,18.2162],[-99.5158,18.1977],[-99.5369,18.2013],[-99.5513,18.1818],[-99.5632,18.1751],[-99.5867,18.173],[-99.5926,18.157],[-99.585,18.1383],[-99.5894,18.1214],[-99.5704,18.1163],[-99.591,18.1009],[-99.5824,18.0932],[-99.6049,18.0779],[-99.6066,18.0526],[-99.6286,18.0252],[-99.6346,18.0036],[-99.6291,17.9879],[-99.6005,17.9676],[-99.6096,17.958],[-99.627,17.9537],[-99.63,17.9505],[-99.6232,17.9337],[-99.5956,17.9398],[-99.5762,17.9315],[-99.5738,17.9563],[-99.5438,17.9683],[-99.5274,17.9616],[-99.5222,17.973],[-99.4953,17.9862],[-99.4905,18.0094],[-99.4757,18.0354],[-99.4529,18.0252],[-99.4499,17.9895],[-99.4816,17.9787],[-99.4941,17.9597],[-99.5125,17.9569],[-99.525,17.9289],[-99.5083,17.9236],[-99.5001,17.9553],[-99.478,17.9375],[-99.4665,17.9388],[-99.46,17.9565],[-99.4428,17.956],[-99.4355,17.9407],[-99.4093,17.9613],[-99.4007,17.945],[-99.3843,17.9352],[-99.3757,17.9404],[-99.3603,17.929]]]},"properties":{"CVE_ENT":"12","CVE_MUN":"059","CVEGEO":"12059","NOMGEO":"Tepecoacuilco de Trujano"}},
{"type":"Feature","geometry":{"type":"Polygon","coordinates":[[[-99.2812,17.6524],[-99.3026,17.6545],[-99.3254,17.665],[-99.3337,17.6872],[-99.3642,17.6852],[-99.3807,17.6899],[-99.3951,17.7151],[-99.4037,17.7392],[-99.4291,17.7335],[-99.4435,17.7058],[-99.4481,17.6551],[-99.4589,17.6315],[-99.4668,17.592],[-99.465,17.5794],[-99.4488,17.5806],[-99.4356,17.5613],[-99.4385,17.5426],[-99.4194,17.5405],[-99.4091,17.5146],[-99.387,17.5091],[-99.405,17.4908],[-99.3856,17.4788],[-99.344,17.486],[-99.333,17.4989],[-99.2974,17.5078],[-99.2809,17.524],[-99.2659,17.5428],[-99.2727,17.5515],[-99.2679,17.5743],[-99.2753,17.5932],[-99.2703,17.6246],[-99.2812,17.6524]]]},"properties":{"CVE_ENT":"12","CVE_MUN":"061","CVEGEO":"12061","NOMGEO":"Tixtla de Guerrero"}},
{"type":"Feature","geometry":{"type":"Polygon","coordinates":[[[-98.7795,17.0475],[-98.791,17.0682],[-98.7946,17.0817],[-98.803,17.0913],[-98.8058,17.0863],[-98.8778,17.0696],[-98.8963,17.0697],[-98.8966,17.0492],[-98.9159,17.034],[-98.9215,16.9996],[-98.9069,16.9661],[-98.8932,16.9625],[-98.8838,16.9482],[-98.8666,16.9401],[-98.8504,16.9204],[-98.8865,16.8852],[-98.9562,16.7963],[-98.9348,16.8036],[-98.9342,16.791],[-98.9195,16.7718],[-98.8659,16.7687],[-98.8619,16.7453],[-98.8257,16.7335],[-98.839,16.6965],[-98.8374,16.6823],[-98.8553,16.6742],[-98.8485,16.6579],[-98.8211,16.6564],[-98.7917,16.6736],[-98.7736,16.6969],[-98.77,16.72],[-98.6831,16.7539],[-98.6768,16.7494],[-98.6784,16.7609],[-98.6499,16.7666],[-98.6334,16.763],[-98.6294,16.7824],[-98.6343,16.7947],[-98.5959,16.8039],[-98.5736,16.7926],[-98.5491,16.7959],[-98.5438,16.8161],[-98.5629,16.8208],[-98.5752,16.8324],[-98.5735,16.8505],[-98.5521,16.8547],[-98.5281,16.9158],[-98.5658,16.9172],[-98.5546,16.9302],[-98.5548,16.9627],[-98.5366,16.9797],[-98.5477,17],[-98.5617,17.0075],[-98.6442,16.97],[-98.66,16.9928],[-98.6783,16.9928],[-98.6805,16.9802],[-98.6969,16.9861],[-98.7038,16.9857],[-98.7125,16.9707],[-98.7045,16.9172],[-98.754,16.9431],[-98.7777,17.006],[-98.8058,17.0275],[-98.8099,17.0364],[-98.8065,17.0413],[-98.7999,17.0444],[-98.7987,17.0481],[-98.7949,17.0491],[-98.7932,17.0487],[-98.7904,17.0485],[-98.7883,17.048],[-98.7849,17.0476],[-98.7795,17.0475]]]},"properties":{"CVE_ENT":"12","CVE_MUN":"052","CVEGEO":"12052","NOMGEO":"San Luis Acatlán"}},
{"type":"Feature","geometry":{"type":"Polygon","coordinates":[[[-100.3237,18.3165],[-100.3457,18.3187],[-100.3806,18.3005],[-100.4201,18.321],[-100.455,18.3142],[-100.4573,18.3421],[-100.4727,18.3393],[-100.4828,18.3504],[-100.5063,18.3484],[-100.4999,18.3239],[-100.5242,18.3275],[-100.5359,18.3542],[-100.5532,18.3476],[-100.5668,18.3535],[-100.5739,18.3173],[-100.5634,18.3096],[-100.5848,18.2813],[-100.5783,18.2705],[-100.5516,18.2563],[-100.5539,18.2472],[-100.5323,18.2239],[-100.5261,18.2081],[-100.5018,18.2148],[-100.4948,18.2302],[-100.4676,18.228],[-100.4487,18.216],[-100.4332,18.2391],[-100.3885,18.23],[-100.3738,18.2378],[-100.3224,18.2398],[-100.3175,18.2816],[-100.3077,18.313],[-100.3237,18.3165]]]},"properties":{"CVE_ENT":"12","CVE_MUN":"067","CVEGEO":"12067","NOMGEO":"Tlapehuala"}},
{"type":"Feature","geometry":{"type":"Polygon","coordinates":[[[-101.5013,18.487],[-101.5181,18.496],[-101.5353,18.497],[-101.547,18.5074],[-101.5642,18.5099],[-101.5836,18.521],[-101.5962,18.5461],[-101.6075,18.5779],[-101.6245,18.5992],[-101.639,18.6025],[-101.6711,18.597],[-101.6901,18.5894],[-101.7057,18.5908],[-101.7135,18.6102],[-101.7248,18.6125],[-101.7718,18.6037],[-101.8438,18.5744],[-101.8559,18.5595],[-101.8795,18.5393],[-101.889,18.499],[-101.8865,18.4772],[-101.8617,18.4449],[-101.8738,18.4375],[-101.887,18.4121],[-101.8889,18.3991],[-101.8739,18.3854],[-101.8747,18.3701],[-101.8619,18.3572],[-101.8706,18.3328],[-101.8565,18.3162],[-101.8702,18.3083],[-101.8648,18.2857],[-101.8968,18.2771],[-101.9072,18.2607],[-101.9046,18.2479],[-101.8856,18.2483],[-101.8191,18.2267],[-101.8184,18.2119],[-101.8615,18.1875],[-101.8739,18.188],[-101.8817,18.171],[-101.9015,18.1567],[-101.884,18.1315],[-101.8554,18.122],[-101.8112,18.0881],[-101.7814,18.0798],[-101.7626,18.0836],[-101.7376,18.0762],[-101.7315,18.0639],[-101.7047,18.0616],[-101.6881,18.0666],[-101.6814,18.0466],[-101.6599,18.0241],[-101.6275,18.0088],[-101.6033,18.0097],[-101.5873,18.0031],[-101.5536,18.0111],[-101.5197,17.9891],[-101.494,17.9815],[-101.4847,17.9902],[-101.475,17.9759],[-101.4264,17.9932],[-101.441,18.0179],[-101.4339,18.0239],[-101.4026,18.0284],[-101.3813,18.0448],[-101.3759,18.0581],[-101.3687,18.0614],[-101.352,18.0787],[-101.3659,18.116],[-101.3552,18.1287],[-101.3346,18.1388],[-101.3372,18.1589],[-101.372,18.178],[-101.3978,18.2089],[-101.43,18.2094],[-101.4472,18.2205],[-101.4435,18.2329],[-101.4551,18.2447],[-101.4702,18.2414],[-101.4962,18.2504],[-101.4914,18.2693],[-101.4736,18.2694],[-101.4504,18.2799],[-101.4656,18.2982],[-101.457,18.3099],[-101.457,18.3271],[-101.4661,18.3555],[-101.4945,18.3786],[-101.4998,18.3967],[-101.5144,18.3943],[-101.541,18.42],[-101.5183,18.4701],[-101.5013,18.487]]]},"properties":{"CVE_ENT":"12","CVE_MUN":"016","CVEGEO":"12016","NOMGEO":"Coahuayutla de José María Izazaga"}},
{"type":"Feature","geometry":{"type":"Polygon","coordinates":[[[-99.6318,18.2966],[-99.658,18.3051],[-99.6809,18.3262],[-99.7121,18.3214],[-99.7236,18.3082],[-99.7417,18.3086],[-99.7294,18.2935],[-99.7283,18.264],[-99.7182,18.2528],[-99.7177,18.233],[-99.7487,18.2048],[-99.753,18.1715],[-99.7732,18.1547],[-99.7866,18.1237],[-99.796,18.1108],[-99.8004,18.0919],[-99.7968,18.071],[-99.8034,18.0579],[-99.8121,18.0171],[-99.8398,18.006],[-99.832,17.9893],[-99.8144,17.9913],[-99.8127,17.9748],[-99.7985,17.9785],[-99.8001,17.9984],[-99.7826,17.9961],[-99.7654,18.0041],[-99.7426,17.9763],[-99.7317,17.9813],[-99.7019,17.9715],[-99.6771,17.9576],[-99.6673,17.9608],[-99.63,17.9505],[-99.627,17.9537],[-99.6387,17.9727],[-99.6513,18.0125],[-99.6744,18.0127],[-99.6879,18.0181],[-99.7022,18.0523],[-99.6975,18.0726],[-99.7159,18.107],[-99.7068,18.1337],[-99.6855,18.1188],[-99.6633,18.143],[-99.6806,18.1673],[-99.6612,18.1719],[-99.6611,18.1831],[-99.6485,18.2017],[-99.6216,18.1957],[-99.6006,18.2222],[-99.5797,18.2273],[-99.5823,18.2562],[-99.6043,18.2557],[-99.6124,18.244],[-99.6278,18.2458],[-99.6379,18.2325],[-99.6552,18.238],[-99.6596,18.2584],[-99.6239,18.2706],[-99.6318,18.2966]]]},"properties":{"CVE_ENT":"12","CVE_MUN":"017","CVEGEO":"12017","NOMGEO":"Cocula"}},
{"type":"Feature","geometry":{"type":"Polygon","coordinates":[[[-98.6638,17.4802],[-98.6539,17.4977],[-98.6653,17.5107],[-98.6823,17.5193],[-98.697,17.5177],[-98.7174,17.5313],[-98.7323,17.5252],[-98.7562,17.5303],[-98.7759,17.542],[-98.7986,17.5323],[-98.8389,17.4949],[-98.793,17.4808],[-98.7623,17.4889],[-98.7516,17.4502],[-98.7417,17.4306],[-98.7594,17.3897],[-98.7587,17.3658],[-98.765,17.3436],[-98.748,17.3416],[-98.7358,17.3492],[-98.7063,17.3406],[-98.6942,17.3369],[-98.6716,17.3439],[-98.6288,17.3341],[-98.6214,17.3421],[-98.6148,17.3516],[-98.5822,17.3655],[-98.5967,17.3827],[-98.6071,17.4239],[-98.6184,17.4268],[-98.6272,17.4416],[-98.6581,17.4515],[-98.6638,17.4802]]]},"properties":{"CVE_ENT":"12","CVE_MUN":"020","CVEGEO":"12020","NOMGEO":"Copanatoyac"}},
{"type":"Feature","geometry":{"type":"Polygon","coordinates":[[[-100.8245,18.4742],[-100.8366,18.4729],[-100.8798,18.4884],[-100.8953,18.4628],[-100.9106,18.4723],[-100.9207,18.4457],[-100.9243,18.4213],[-100.9435,18.4182],[-100.9422,18.39],[-100.9339,18.374],[-100.9471,18.3609],[-100.9452,18.3319],[-100.9765,18.3114],[-100.9716,18.2804],[-100.9792,18.2468],[-100.9711,18.244],[-100.9855,18.2183],[-101.0019,18.2206],[-101.0279,18.1934],[-101.0395,18.193],[-101.0405,18.1647],[-101.0548,18.1314],[-101.0678,18.1122],[-101.1087,18.1237],[-101.162,18.1351],[-101.1816,18.1452],[-101.1944,18.1372],[-101.2151,18.1467],[-101.2252,18.1638],[-101.2586,18.1641],[-101.269,18.1467],[-101.2812,18.1566],[-101.2938,18.1489],[-101.3179,18.1485],[-101.3372,18.1589],[-101.3346,18.1388],[-101.3552,18.1287],[-101.3659,18.116],[-101.352,18.0787],[-101.3687,18.0614],[-101.3623,18.0579],[-101.305,18.0523],[-101.2951,18.0348],[-101.2651,18.0284],[-101.2618,18.0388],[-101.2412,18.039],[-101.2389,18.0171],[-101.2163,18.0026],[-101.2131,17.9757],[-101.2215,17.9548],[-101.2064,17.9384],[-101.2055,17.9332],[-101.2043,17.9318],[-101.2064,17.9255],[-101.2005,17.919],[-101.175,17.9098],[-101.1436,17.8809],[-101.1559,17.8561],[-101.1284,17.7575],[-101.1131,17.7165],[-101.0941,17.7313],[-101.0485,17.7441],[-101.0534,17.7814],[-101.0233,17.7872],[-100.9979,17.7991],[-100.9648,17.7473],[-100.9238,17.7311],[-100.8958,17.7023],[-100.8785,17.6894],[-100.8202,17.6966],[-100.8292,17.7157],[-100.8626,17.7293],[-100.8576,17.7569],[-100.8671,17.7694],[-100.8584,17.7782],[-100.8444,17.8068],[-100.8445,17.8197],[-100.8227,17.8352],[-100.8058,17.8594],[-100.8084,17.8674],[-100.7724,17.8837],[-100.7309,17.9122],[-100.7256,17.9596],[-100.717,17.9786],[-100.7116,18.1105],[-100.6767,18.1046],[-100.66,18.1345],[-100.6405,18.1396],[-100.5991,18.1684],[-100.6198,18.1958],[-100.6297,18.2185],[-100.6259,18.2294],[-100.6246,18.2717],[-100.6191,18.2845],[-100.6168,18.2986],[-100.6348,18.3175],[-100.6507,18.3267],[-100.6506,18.3383],[-100.6658,18.3432],[-100.6815,18.316],[-100.6932,18.3237],[-100.7063,18.3525],[-100.7004,18.3675],[-100.6837,18.3869],[-100.6881,18.4098],[-100.6983,18.4189],[-100.7277,18.4062],[-100.7374,18.4273],[-100.7498,18.4256],[-100.7759,18.4382],[-100.7903,18.4726],[-100.799,18.4806],[-100.8245,18.4742]]]},"properties":{"CVE_ENT":"12","CVE_MUN":"022","CVEGEO":"12022","NOMGEO":"Coyuca de Catalán"}}
]}