{"type":"FeatureCollection", "features": [
{"type":"Feature","geometry":{"type":"Polygon","coordinates":[[[-93.2173,18.1684],[-93.2373,18.1528],[-93.2539,18.1693],[-93.2658,18.1589],[-93.2859,18.1857],[-93.3157,18.1706],[-93.3232,18.2158],[-93.3338,18.2258],[-93.3507,18.2036],[-93.372,18.194],[-93.3799,18.1747],[-93.397,18.152],[-93.4084,18.1548],[-93.4023,18.1502],[-93.4027,18.1264],[-93.3739,18.1173],[-93.3505,18.0904],[-93.3351,18.0975],[-93.3203,18.0704],[-93.3371,18.0623],[-93.3118,18.0385],[-93.3291,18.0238],[-93.3123,18.0175],[-93.3038,17.9991],[-93.2869,17.9991],[-93.2813,17.9815],[-93.2727,17.9813],[-93.2413,17.9505],[-93.2185,17.956],[-93.2409,17.9569],[-93.2509,17.9677],[-93.2239,17.9726],[-93.2181,17.9637],[-93.1917,17.963],[-93.1902,17.9754],[-93.1661,17.987],[-93.1673,18.0034],[-93.1559,18.0106],[-93.1379,17.9903],[-93.1357,17.9786],[-93.1038,17.9689],[-93.0841,17.9852],[-93.055,17.9906],[-93.0529,18.0181],[-93.0334,18.0241],[-93.0231,18.0338],[-93.0278,18.0429],[-93.0264,18.0678],[-93.0454,18.0691],[-93.0938,18.0882],[-93.1161,18.0886],[-93.1357,18.0831],[-93.1481,18.092],[-93.125,18.1177],[-93.1204,18.1287],[-93.1382,18.1486],[-93.1537,18.1521],[-93.1987,18.1521],[-93.2173,18.1684]]]},"properties":{"CVE_ENT":"27","CVE_MUN":"006","CVEGEO":"27006","NOMGEO":"Cunduacán"}},
{"type":"Feature","geometry":{"type":"Polygon","coordinates":[[[-93.1103,18.2746],[-93.1306,18.2716],[-93.154,18.2847],[-93.1615,18.309],[-93.174,18.3202],[-93.2006,18.3251],[-93.2115,18.3204],[-93.272,18.3192],[-93.2668,18.3069],[-93.2925,18.3048],[-93.2794,18.3211],[-93.2793,18.3571],[-93.322,18.4124],[-93.3335,18.4119],[-93.3521,18.4227],[-93.4002,18.4234],[-93.4137,18.4168],[-93.4313,18.4216],[-93.4361,18.3958],[-93.46,18.3825],[-93.4765,18.4015],[-93.4898,18.4093],[-93.512,18.3849],[-93.5185,18.3804],[-93.5281,18.3434],[-93.5107,18.3365],[-93.4979,18.3117],[-93.4857,18.3071],[-93.4852,18.2875],[-93.4721,18.2779],[-93.4853,18.2614],[-93.4821,18.243],[-93.4693,18.2332],[-93.4788,18.211],[-93.4335,18.1854],[-93.421,18.1908],[-93.4206,18.1676],[-93.4084,18.1548],[-93.397,18.152],[-93.3799,18.1747],[-93.372,18.194],[-93.3507,18.2036],[-93.3338,18.2258],[-93.3232,18.2158],[-93.3157,18.1706],[-93.2859,18.1857],[-93.2658,18.1589],[-93.2539,18.1693],[-93.2373,18.1528],[-93.2173,18.1684],[-93.1936,18.1974],[-93.1903,18.2078],[-93.1714,18.2257],[-93.1571,18.2203],[-93.1054,18.2349],[-93.0957,18.2615],[-93.1103,18.2746]]]},"properties":{"CVE_ENT":"27","CVE_MUN":"005","CVEGEO":"27005","NOMGEO":"Comalcalco"}},
{"type":"Feature","geometry":{"type":"Polygon","coordinates":[[[-93.2982,17.9474],[-93.3335,17.9537],[-93.3511,17.9387],[-93.3683,17.9499],[-93.3867,17.9812],[-93.4217,17.9723],[-93.4538,17.9747],[-93.5272,17.9758],[-93.5418,17.9672],[-93.5414,17.9529],[-93.5887,17.9545],[-93.589,17.9826],[-93.6195,17.9875],[-93.6078,17.9974],[-93.608,18.0444],[-93.6834,18.0443],[-93.6864,18.0896],[-93.7308,18.0894],[-93.7307,18.057],[-93.7485,18.0603],[-93.7431,18.0777],[-93.7591,18.0866],[-93.8019,18.0923],[-93.8187,18.1051],[-93.8271,18.0986],[-93.8452,18.1064],[-93.8584,18.0921],[-93.8729,18.0996],[-93.8881,18.0951],[-93.9023,18.1187],[-93.9105,18.1551],[-93.956,18.1405],[-93.9566,18.1513],[-93.9924,18.138],[-94.0034,18.1247],[-94.0189,18.1204],[-94.023,18.1421],[-93.9904,18.1605],[-93.9961,18.193],[-94.0106,18.19],[-94.0255,18.1994],[-94.0485,18.1878],[-94.087,18.2113],[-94.0945,18.1947],[-94.123,18.1926],[-94.1298,18.1987],[-94.1292,18.1751],[-94.1173,18.1661],[-94.1029,18.1734],[-94.094,18.1585],[-94.1011,18.1306],[-94.0961,18.1119],[-94.0834,18.1024],[-94.0831,18.0908],[-94.0972,18.0786],[-94.0744,18.0589],[-94.0836,18.0339],[-94.0642,18.0023],[-94.0711,17.9859],[-94.0902,17.9683],[-94.0913,17.9366],[-94.0798,17.8921],[-94.0834,17.8699],[-94.0649,17.8646],[-94.0388,17.8723],[-94.0298,17.8466],[-94.0078,17.8403],[-93.9785,17.8517],[-93.9639,17.8306],[-93.9531,17.7921],[-93.9561,17.7817],[-93.9411,17.7655],[-93.9384,17.7525],[-93.9101,17.7547],[-93.8715,17.753],[-93.8735,17.7349],[-93.8651,17.7211],[-93.8342,17.7166],[-93.768,17.6873],[-93.7471,17.6684],[-93.7379,17.6319],[-93.7007,17.6106],[-93.6997,17.5964],[-93.6872,17.5937],[-93.6485,17.5553],[-93.6311,17.5567],[-93.6215,17.5447],[-93.6309,17.5104],[-93.6244,17.4932],[-93.6312,17.4869],[-93.6404,17.4588],[-93.6351,17.4512],[-93.654,17.4196],[-93.669,17.4202],[-93.6918,17.3905],[-93.6857,17.3724],[-93.6357,17.3384],[-93.6413,17.3179],[-93.6244,17.3225],[-93.6079,17.3149],[-93.5541,17.3882],[-93.5154,17.4403],[-93.5072,17.4664],[-93.514,17.4863],[-93.5025,17.5004],[-93.4997,17.5193],[-93.4816,17.552],[-93.4512,17.5476],[-93.444,17.5871],[-93.4222,17.589],[-93.4163,17.598],[-93.4096,17.6193],[-93.385,17.6342],[-93.3848,17.6444],[-93.3563,17.648],[-93.3605,17.6651],[-93.3543,17.7127],[-93.3823,17.7499],[-93.3754,17.7668],[-93.3528,17.7637],[-93.3431,17.7875],[-93.3776,17.7932],[-93.3493,17.8149],[-93.3362,17.8452],[-93.3366,17.8564],[-93.3497,17.868],[-93.35,17.8826],[-93.336,17.905],[-93.3408,17.9236],[-93.3017,17.9363],[-93.2982,17.9474]]]},"properties":{"CVE_ENT":"27","CVE_MUN":"008","CVEGEO":"27008","NOMGEO":"Huimanguillo"}},
{"type":"Feature","geometry":{"type":"Polygon","coordinates":[[[-92.6103,18.0688],[-92.6241,18.0814],[-92.6225,18.1236],[-92.6187,18.1307],[-92.651,18.159],[-92.6588,18.1438],[-92.6783,18.1665],[-92.7313,18.1956],[-92.6951,18.2295],[-92.6978,18.255],[-92.6772,18.2849],[-92.6751,18.2952],[-92.7176,18.302],[-92.7918,18.2549],[-92.8157,18.3059],[-92.8384,18.3264],[-92.8612,18.327],[-92.8775,18.3379],[-92.8865,18.3195],[-92.8811,18.307],[-92.8549,18.2925],[-92.8461,18.273],[-92.8455,18.2512],[-92.8332,18.2386],[-92.8507,18.2176],[-92.8506,18.1977],[-92.8766,18.1733],[-92.8645,18.1579],[-92.8817,18.1483],[-92.8859,18.1133],[-92.8948,18.0947],[-92.8944,18.076],[-92.9127,18.0778],[-92.9146,18.0582],[-92.899,18.0545],[-92.9124,18.0387],[-92.943,18.0367],[-92.9436,18.019],[-92.9774,18.0077],[-92.9894,18.0199],[-92.9899,18.0435],[-93.0198,18.0483],[-93.0231,18.0338],[-93.0334,18.0241],[-93.0529,18.0181],[-93.055,17.9906],[-93.0841,17.9852],[-93.1038,17.9689],[-93.1357,17.9786],[-93.1379,17.9903],[-93.1559,18.0106],[-93.1673,18.0034],[-93.1661,17.987],[-93.1902,17.9754],[-93.1917,17.963],[-93.2181,17.9637],[-93.2239,17.9726],[-93.2509,17.9677],[-93.2409,17.9569],[-93.2185,17.956],[-93.2074,17.9606],[-93.1885,17.9536],[-93.1831,17.9403],[-93.1489,17.9345],[-93.146,17.9199],[-93.1224,17.9068],[-93.105,17.9074],[-93.0914,17.8976],[-93.0914,17.8871],[-93.1236,17.8745],[-93.1318,17.8523],[-93.1156,17.8222],[-93.1016,17.8458],[-93.0941,17.8412],[-93.0431,17.8426],[-93.0254,17.8254],[-93.0129,17.7989],[-93.02,17.7807],[-93.0335,17.7702],[-93.019,17.7548],[-92.9989,17.7484],[-93.0131,17.7309],[-92.9862,17.7125],[-92.9798,17.7137],[-92.9794,17.7415],[-92.9488,17.7524],[-92.9244,17.7395],[-92.9267,17.7562],[-92.9358,17.7832],[-92.9187,17.802],[-92.9013,17.7847],[-92.8799,17.7941],[-92.8825,17.8135],[-92.8746,17.8304],[-92.8587,17.8354],[-92.8489,17.8476],[-92.8518,17.86],[-92.8198,17.8922],[-92.7998,17.8945],[-92.772,17.8835],[-92.7568,17.8839],[-92.7384,17.9112],[-92.718,17.9149],[-92.7041,17.9297],[-92.6777,17.9274],[-92.6699,17.944],[-92.652,17.9558],[-92.6444,17.9681],[-92.5926,17.981],[-92.5832,18.0076],[-92.5953,18.022],[-92.6464,18.0307],[-92.6701,18.0475],[-92.6407,18.0757],[-92.6217,18.0562],[-92.6103,18.0688]]]},"properties":{"CVE_ENT":"27","CVE_MUN":"004","CVEGEO":"27004","NOMGEO":"Centro"}},
{"type":"Feature","geometry":{"type":"Polygon","coordinates":[[[-92.9989,18.4027],[-93.0312,18.3936],[-93.0598,18.3802],[-93.0686,18.3841],[-93.0929,18.3616],[-93.085,18.3412],[-93.0945,18.2976],[-93.1103,18.2746],[-93.0957,18.2615],[-93.1054,18.2349],[-93.1571,18.2203],[-93.1714,18.2257],[-93.1903,18.2078],[-93.1936,18.1974],[-93.2173,18.1684],[-93.1987,18.1521],[-93.1537,18.1521],[-93.1382,18.1486],[-93.1204,18.1287],[-93.125,18.1177],[-93.1481,18.092],[-93.1357,18.0831],[-93.1161,18.0886],[-93.0938,18.0882],[-93.0454,18.0691],[-93.0264,18.0678],[-93.0063,18.1077],[-93.0218,18.1203],[-93.0121,18.1364],[-93.0345,18.1566],[-93.0249,18.1761],[-93.0327,18.2018],[-93.0452,18.1992],[-93.0576,18.227],[-93.0526,18.2383],[-93.0303,18.247],[-93.0394,18.2592],[-93.0372,18.2774],[-93.0288,18.2869],[-93.0319,18.3155],[-93.0173,18.3196],[-92.9989,18.4027]]]},"properties":{"CVE_ENT":"27","CVE_MUN":"010","CVEGEO":"27010","NOMGEO":"Jalpa de Méndez"}},
{"type":"Feature","geometry":{"type":"Polygon","coordinates":[[[-92.3316,18.4603],[-92.3487,18.4431],[-92.361,18.4478],[-92.3655,18.4646],[-92.3882,18.4793],[-92.4141,18.4873],[-92.426,18.513],[-92.4239,18.5493],[-92.4284,18.5621],[-92.4522,18.6001],[-92.4657,18.6166],[-92.4688,18.651],[-92.5311,18.6334],[-92.5696,18.6248],[-92.6396,18.6133],[-92.6722,18.6114],[-92.6859,18.619],[-92.7017,18.6037],[-92.7016,18.5932],[-92.7277,18.5524],[-92.7638,18.514],[-92.8108,18.4783],[-92.8594,18.4553],[-92.8943,18.4442],[-92.9268,18.4376],[-92.9901,18.4323],[-93.0359,18.4319],[-93.071,18.436],[-93.0969,18.4429],[-93.0636,18.4233],[-93.0386,18.4205],[-93.0197,18.4231],[-92.9984,18.4106],[-92.9989,18.4027],[-93.0173,18.3196],[-93.0196,18.3084],[-92.949,18.3028],[-92.9407,18.3494],[-92.9235,18.3469],[-92.9119,18.3339],[-92.8865,18.3195],[-92.8775,18.3379],[-92.8612,18.327],[-92.8384,18.3264],[-92.8157,18.3059],[-92.7918,18.2549],[-92.7176,18.302],[-92.6751,18.2952],[-92.6772,18.2849],[-92.6978,18.255],[-92.6951,18.2295],[-92.7313,18.1956],[-92.6783,18.1665],[-92.6588,18.1438],[-92.651,18.159],[-92.6187,18.1307],[-92.6225,18.1236],[-92.6241,18.0814],[-92.6103,18.0688],[-92.5955,18.0571],[-92.5659,18.0642],[-92.5561,18.0622],[-92.5536,18.0964],[-92.526,18.1413],[-92.5365,18.16],[-92.5177,18.1709],[-92.5023,18.1677],[-92.4973,18.1461],[-92.4616,18.1134],[-92.4633,18.1017],[-92.441,18.0968],[-92.3908,18.1253],[-92.399,18.1458],[-92.3857,18.1603],[-92.3703,18.1435],[-92.3715,18.133],[-92.35,18.1244],[-92.3199,18.1403],[-92.2914,18.13],[-92.2849,18.1385],[-92.3,18.1523],[-92.318,18.1562],[-92.3248,18.1723],[-92.313,18.2092],[-92.3315,18.2178],[-92.3123,18.2358],[-92.316,18.2575],[-92.2954,18.2553],[-92.2811,18.2748],[-92.2649,18.2667],[-92.2355,18.2624],[-92.2161,18.2662],[-92.2228,18.2908],[-92.2963,18.3072],[-92.2723,18.3277],[-92.2954,18.3478],[-92.3138,18.3742],[-92.3528,18.3946],[-92.3252,18.4209],[-92.3229,18.4371],[-92.3316,18.4603]]]},"properties":{"CVE_ENT":"27","CVE_MUN":"003","CVEGEO":"27003","NOMGEO":"Centla"}},
{"type":"Feature","geometry":{"type":"Polygon","coordinates":[[[-92.6858,17.6495],[-92.7184,17.6532],[-92.7189,17.6419],[-92.747,17.6402],[-92.7614,17.626],[-92.7925,17.648],[-92.8392,17.6347],[-92.8713,17.6385],[-92.8742,17.6731],[-92.8987,17.6892],[-92.9102,17.6688],[-92.9126,17.6532],[-92.9057,17.6235],[-92.8889,17.6072],[-92.876,17.6067],[-92.8616,17.5927],[-92.8651,17.5617],[-92.8545,17.5336],[-92.835,17.5196],[-92.826,17.4911],[-92.8335,17.482],[-92.8196,17.4327],[-92.8258,17.4238],[-92.8562,17.4189],[-92.8543,17.4112],[-92.8294,17.4086],[-92.7911,17.415],[-92.7908,17.405],[-92.7673,17.3834],[-92.7707,17.3604],[-92.7587,17.3582],[-92.7536,17.3434],[-92.7356,17.3471],[-92.6777,17.38],[-92.6762,17.4116],[-92.6593,17.4446],[-92.6422,17.4633],[-92.6243,17.4659],[-92.6058,17.4774],[-92.5942,17.4924],[-92.597,17.5204],[-92.5714,17.5496],[-92.5631,17.5457],[-92.5473,17.5696],[-92.5749,17.5727],[-92.5743,17.5926],[-92.5925,17.6056],[-92.6257,17.6128],[-92.6386,17.6069],[-92.6351,17.635],[-92.638,17.6492],[-92.6858,17.6495]]]},"properties":{"CVE_ENT":"27","CVE_MUN":"015","CVEGEO":"27015","NOMGEO":"Tacotalpa"}},
{"type":"Feature","geometry":{"type":"Polygon","coordinates":[[[-93.0969,18.4429],[-93.3158,18.4382],[-93.4011,18.433],[-93.472,18.4208],[-93.5266,18.4082],[-93.512,18.3994],[-93.512,18.3849],[-93.4898,18.4093],[-93.4765,18.4015],[-93.46,18.3825],[-93.4361,18.3958],[-93.4313,18.4216],[-93.4137,18.4168],[-93.4002,18.4234],[-93.3521,18.4227],[-93.3335,18.4119],[-93.322,18.4124],[-93.2793,18.3571],[-93.2794,18.3211],[-93.2925,18.3048],[-93.2668,18.3069],[-93.272,18.3192],[-93.2115,18.3204],[-93.2006,18.3251],[-93.174,18.3202],[-93.1615,18.309],[-93.154,18.2847],[-93.1306,18.2716],[-93.1103,18.2746],[-93.0945,18.2976],[-93.085,18.3412],[-93.0929,18.3616],[-93.0686,18.3841],[-93.0598,18.3802],[-93.0312,18.3936],[-92.9989,18.4027],[-92.9984,18.4106],[-93.0197,18.4231],[-93.0386,18.4205],[-93.0636,18.4233],[-93.0969,18.4429]]]},"properties":{"CVE_ENT":"27","CVE_MUN":"014","CVEGEO":"27014","NOMGEO":"Paraíso"}},
{"type":"Feature","geometry":{"type":"Polygon","coordinates":[[[-91.7387,17.9362],[-91.7605,17.9576],[-91.7712,17.9444],[-91.7855,17.9234],[-91.8145,17.9005],[-91.798,17.8621],[-91.7819,17.8543],[-91.7924,17.8245],[-91.7882,17.8074],[-91.783,17.7776],[-91.7919,17.7508],[-91.8103,17.7513],[-91.8212,17.7318],[-91.784,17.7167],[-91.7679,17.7031],[-91.7539,17.7053],[-91.6905,17.6833],[-91.673,17.6835],[-91.6585,17.6748],[-91.6619,17.6577],[-91.6528,17.6386],[-91.6622,17.6086],[-91.6443,17.5934],[-91.6386,17.58],[-91.6405,17.5565],[-91.6347,17.5332],[-91.6485,17.5181],[-91.6521,17.4938],[-91.6821,17.4695],[-91.6646,17.4612],[-91.672,17.4441],[-91.6373,17.43],[-91.6202,17.4317],[-91.6025,17.4331],[-91.5885,17.4759],[-91.5682,17.4999],[-91.5789,17.5531],[-91.5847,17.5683],[-91.5743,17.5948],[-91.5627,17.5957],[-91.5541,17.6186],[-91.5661,17.6299],[-91.5711,17.646],[-91.574,17.702],[-91.5638,17.7267],[-91.5701,17.7331],[-91.5706,17.7618],[-91.5984,17.7616],[-91.6174,17.7659],[-91.6255,17.7439],[-91.6164,17.7335],[-91.6234,17.7233],[-91.6619,17.7384],[-91.6809,17.7093],[-91.709,17.7143],[-91.7105,17.7432],[-91.6986,17.747],[-91.7128,17.7651],[-91.7102,17.786],[-91.6788,17.8438],[-91.6855,17.8623],[-91.6719,17.8947],[-91.7387,17.9362]]]},"properties":{"CVE_ENT":"27","CVE_MUN":"007","CVEGEO":"27007","NOMGEO":"Emiliano Zapata"}},
{"type":"Feature","geometry":{"type":"Polygon","coordinates":[[[-92.1761,18.4582],[-92.3082,18.4572],[-92.3216,18.4675],[-92.3316,18.4603],[-92.3229,18.4371],[-92.3252,18.4209],[-92.3528,18.3946],[-92.3138,18.3742],[-92.2954,18.3478],[-92.2723,18.3277],[-92.2963,18.3072],[-92.2228,18.2908],[-92.2161,18.2662],[-92.2355,18.2624],[-92.2649,18.2667],[-92.2811,18.2748],[-92.2954,18.2553],[-92.316,18.2575],[-92.3123,18.2358],[-92.3315,18.2178],[-92.313,18.2092],[-92.3248,18.1723],[-92.318,18.1562],[-92.3,18.1523],[-92.2849,18.1385],[-92.2914,18.13],[-92.2916,18.1149],[-92.3058,18.0972],[-92.3413,18.0669],[-92.3228,18.061],[-92.3223,18.0486],[-92.3074,18.0459],[-92.3167,18.0288],[-92.3102,18.0036],[-92.3187,17.982],[-92.3064,17.9639],[-92.315,17.9593],[-92.3139,17.9272],[-92.2958,17.9143],[-92.2191,17.8828],[-92.2106,17.8993],[-92.1933,17.9069],[-92.1704,17.9025],[-92.1783,17.8664],[-92.1499,17.8458],[-92.1399,17.8098],[-92.1205,17.796],[-92.1055,17.8129],[-92.1065,17.8381],[-92.0905,17.8566],[-92.0581,17.8467],[-92.0484,17.858],[-92.0591,17.8713],[-92.0155,17.8975],[-92.0034,17.8905],[-91.9913,17.9196],[-91.9699,17.9104],[-91.945,17.9103],[-91.9394,17.9011],[-91.9568,17.8799],[-91.9526,17.8654],[-91.9281,17.8708],[-91.9255,17.8919],[-91.9125,17.8998],[-91.8912,17.887],[-91.8707,17.8908],[-91.8497,17.8829],[-91.8145,17.9005],[-91.7855,17.9234],[-91.7712,17.9444],[-91.8046,17.9726],[-91.8672,17.9833],[-91.8881,18.0063],[-91.9097,18.0138],[-91.9354,18.0102],[-91.9667,18.016],[-91.9788,18.0428],[-91.9908,18.0387],[-92.0144,18.0526],[-92.0417,18.0981],[-92.0622,18.0982],[-92.0922,18.092],[-92.1083,18.0938],[-92.1274,18.1087],[-92.1283,18.1201],[-92.149,18.1367],[-92.1488,18.1493],[-92.1609,18.1554],[-92.1606,18.1887],[-92.1644,18.1979],[-92.1489,18.2104],[-92.1793,18.2687],[-92.1804,18.2898],[-92.1714,18.339],[-92.1774,18.3759],[-92.1761,18.4582]]]},"properties":{"CVE_ENT":"27","CVE_MUN":"011","CVEGEO":"27011","NOMGEO":"Jonuta"}},
{"type":"Feature","geometry":{"type":"Polygon","coordinates":[[[-92.8865,18.3195],[-92.9119,18.3339],[-92.9235,18.3469],[-92.9407,18.3494],[-92.949,18.3028],[-93.0196,18.3084],[-93.0173,18.3196],[-93.0319,18.3155],[-93.0288,18.2869],[-93.0372,18.2774],[-93.0394,18.2592],[-93.0303,18.247],[-93.0526,18.2383],[-93.0576,18.227],[-93.0452,18.1992],[-93.0327,18.2018],[-93.0249,18.1761],[-93.0345,18.1566],[-93.0121,18.1364],[-93.0218,18.1203],[-93.0063,18.1077],[-93.0264,18.0678],[-93.0278,18.0429],[-93.0231,18.0338],[-93.0198,18.0483],[-92.9899,18.0435],[-92.9894,18.0199],[-92.9774,18.0077],[-92.9436,18.019],[-92.943,18.0367],[-92.9124,18.0387],[-92.899,18.0545],[-92.9146,18.0582],[-92.9127,18.0778],[-92.8944,18.076],[-92.8948,18.0947],[-92.8859,18.1133],[-92.8817,18.1483],[-92.8645,18.1579],[-92.8766,18.1733],[-92.8506,18.1977],[-92.8507,18.2176],[-92.8332,18.2386],[-92.8455,18.2512],[-92.8461,18.273],[-92.8549,18.2925],[-92.8811,18.307],[-92.8865,18.3195]]]},"properties":{"CVE_ENT":"27","CVE_MUN":"013","CVEGEO":"27013","NOMGEO":"Nacajuca"}},
{"type":"Feature","geometry":{"type":"Polygon","coordinates":[[[-90.9878,17.4231],[-91.0322,17.4223],[-91.0317,17.4673],[-91.0576,17.4701],[-91.0579,17.483],[-91.0817,17.4851],[-91.0978,17.4788],[-91.1387,17.4778],[-91.1401,17.5009],[-91.1766,17.5198],[-91.1718,17.5394],[-91.1732,17.5612],[-91.2096,17.5663],[-91.2394,17.5547],[-91.253,17.5388],[-91.2606,17.5825],[-91.3034,17.5822],[-91.3338,17.5563],[-91.3521,17.5596],[-91.3588,17.5712],[-91.3544,17.6007],[-91.3668,17.6131],[-91.3925,17.6251],[-91.4107,17.626],[-91.4224,17.6164],[-91.4416,17.6197],[-91.478,17.6425],[-91.4674,17.6651],[-91.5138,17.657],[-91.5295,17.6416],[-91.5418,17.6164],[-91.5541,17.6186],[-91.5627,17.5957],[-91.5743,17.5948],[-91.5847,17.5683],[-91.5789,17.5531],[-91.5682,17.4999],[-91.5885,17.4759],[-91.6025,17.4331],[-91.6202,17.4317],[-91.6069,17.4169],[-91.5588,17.4005],[-91.5579,17.4222],[-91.5372,17.4197],[-91.5368,17.4074],[-91.5172,17.3982],[-91.505,17.3995],[-91.4565,17.3757],[-91.4393,17.3843],[-91.4198,17.3741],[-91.4175,17.3472],[-91.397,17.3379],[-91.385,17.3203],[-91.3925,17.2995],[-91.4136,17.3075],[-91.4252,17.3023],[-91.4272,17.2792],[-91.4397,17.251],[-91.2785,17.2517],[-91.2087,17.2512],[-90.9875,17.251],[-90.9878,17.4231]]]},"properties":{"CVE_ENT":"27","CVE_MUN":"017","CVEGEO":"27017","NOMGEO":"Tenosique"}},
{"type":"Feature","geometry":{"type":"Polygon","coordinates":[[[-93.512,18.3849],[-93.512,18.3994],[-93.5266,18.4082],[-93.6242,18.3797],[-93.8197,18.3124],[-93.8502,18.3006],[-93.9386,18.274],[-94.0111,18.2501],[-94.13,18.2129],[-94.1298,18.1987],[-94.123,18.1926],[-94.0945,18.1947],[-94.087,18.2113],[-94.0485,18.1878],[-94.0255,18.1994],[-94.0106,18.19],[-93.9961,18.193],[-93.9904,18.1605],[-94.023,18.1421],[-94.0189,18.1204],[-94.0034,18.1247],[-93.9924,18.138],[-93.9566,18.1513],[-93.956,18.1405],[-93.9105,18.1551],[-93.9023,18.1187],[-93.8881,18.0951],[-93.8729,18.0996],[-93.8584,18.0921],[-93.8452,18.1064],[-93.8271,18.0986],[-93.8187,18.1051],[-93.8019,18.0923],[-93.7591,18.0866],[-93.7431,18.0777],[-93.7485,18.0603],[-93.7307,18.057],[-93.7308,18.0894],[-93.6864,18.0896],[-93.6834,18.0443],[-93.608,18.0444],[-93.6078,17.9974],[-93.6195,17.9875],[-93.589,17.9826],[-93.5887,17.9545],[-93.5414,17.9529],[-93.5418,17.9672],[-93.5272,17.9758],[-93.4538,17.9747],[-93.4217,17.9723],[-93.3867,17.9812],[-93.3683,17.9499],[-93.3511,17.9387],[-93.3335,17.9537],[-93.2982,17.9474],[-93.283,17.9675],[-93.2813,17.9815],[-93.2869,17.9991],[-93.3038,17.9991],[-93.3123,18.0175],[-93.3291,18.0238],[-93.3118,18.0385],[-93.3371,18.0623],[-93.3203,18.0704],[-93.3351,18.0975],[-93.3505,18.0904],[-93.3739,18.1173],[-93.4027,18.1264],[-93.4023,18.1502],[-93.4084,18.1548],[-93.4206,18.1676],[-93.421,18.1908],[-93.4335,18.1854],[-93.4788,18.211],[-93.4693,18.2332],[-93.4821,18.243],[-93.4853,18.2614],[-93.4721,18.2779],[-93.4852,18.2875],[-93.4857,18.3071],[-93.4979,18.3117],[-93.5107,18.3365],[-93.5281,18.3434],[-93.5185,18.3804],[-93.512,18.3849]]]},"properties":{"CVE_ENT":"27","CVE_MUN":"002","CVEGEO":"27002","NOMGEO":"Cárdenas"}},
{"type":"Feature","geometry":{"type":"Polygon","coordinates":[[[-91.3283,18.0628],[-91.3594,18.0704],[-91.3831,18.0639],[-91.3966,18.0788],[-91.4383,18.0845],[-91.4453,18.0958],[-91.4865,18.1165],[-91.5039,18.1173],[-91.5165,18.1305],[-91.5159,18.1697],[-91.5345,18.1462],[-91.5528,18.1582],[-91.5801,18.1581],[-91.5722,18.142],[-91.5951,18.1226],[-91.611,18.095],[-91.609,18.0705],[-91.6193,18.0608],[-91.6125,18.0481],[-91.6196,18.0099],[-91.6158,17.9891],[-91.622,17.9426],[-91.6196,17.9192],[-91.6331,17.905],[-91.6291,17.8971],[-91.6388,17.874],[-91.6719,17.8947],[-91.6855,17.8623],[-91.6788,17.8438],[-91.7102,17.786],[-91.7128,17.7651],[-91.6986,17.747],[-91.7105,17.7432],[-91.709,17.7143],[-91.6809,17.7093],[-91.6619,17.7384],[-91.6234,17.7233],[-91.6164,17.7335],[-91.6255,17.7439],[-91.6174,17.7659],[-91.5984,17.7616],[-91.5706,17.7618],[-91.5701,17.7331],[-91.5638,17.7267],[-91.574,17.702],[-91.5711,17.646],[-91.5661,17.6299],[-91.5541,17.6186],[-91.5418,17.6164],[-91.5295,17.6416],[-91.5138,17.657],[-91.4674,17.6651],[-91.478,17.6425],[-91.4416,17.6197],[-91.4224,17.6164],[-91.4107,17.626],[-91.3925,17.6251],[-91.3668,17.6131],[-91.3544,17.6007],[-91.3588,17.5712],[-91.3521,17.5596],[-91.3338,17.5563],[-91.3034,17.5822],[-91.2606,17.5825],[-91.253,17.5388],[-91.2394,17.5547],[-91.2096,17.5663],[-91.1732,17.5612],[-91.1718,17.5394],[-91.1766,17.5198],[-91.1401,17.5009],[-91.1387,17.4778],[-91.0978,17.4788],[-91.0817,17.4851],[-91.0579,17.483],[-91.0576,17.4701],[-91.0317,17.4673],[-91.0322,17.4223],[-90.9878,17.4231],[-90.9884,17.5008],[-90.9876,17.8155],[-90.988,17.9625],[-91.1202,17.9634],[-91.1136,17.9759],[-91.1307,17.9823],[-91.1332,17.958],[-91.1511,17.9627],[-91.1447,17.9752],[-91.1927,17.9782],[-91.2177,17.9751],[-91.2434,17.9902],[-91.2484,18.0047],[-91.2814,18.024],[-91.2967,18.0419],[-91.3229,18.0529],[-91.3283,18.0628]]]},"properties":{"CVE_ENT":"27","CVE_MUN":"001","CVEGEO":"27001","NOMGEO":"Balancán"}},
{"type":"Feature","geometry":{"type":"Polygon","coordinates":[[[-92.718,17.9149],[-92.7384,17.9112],[-92.7568,17.8839],[-92.772,17.8835],[-92.7998,17.8945],[-92.8198,17.8922],[-92.8518,17.86],[-92.8489,17.8476],[-92.8587,17.8354],[-92.8746,17.8304],[-92.8825,17.8135],[-92.8799,17.7941],[-92.9013,17.7847],[-92.9187,17.802],[-92.9358,17.7832],[-92.9267,17.7562],[-92.909,17.7627],[-92.8893,17.7612],[-92.8962,17.7437],[-92.9143,17.7421],[-92.8987,17.6892],[-92.8742,17.6731],[-92.8713,17.6385],[-92.8392,17.6347],[-92.7925,17.648],[-92.7614,17.626],[-92.747,17.6402],[-92.7189,17.6419],[-92.7184,17.6532],[-92.6858,17.6495],[-92.6865,17.6685],[-92.7029,17.6865],[-92.6936,17.7153],[-92.6817,17.7381],[-92.6886,17.7614],[-92.6684,17.7915],[-92.6845,17.8014],[-92.6791,17.8194],[-92.6887,17.8427],[-92.6814,17.8692],[-92.6928,17.8769],[-92.718,17.9149]]]},"properties":{"CVE_ENT":"27","CVE_MUN":"009","CVEGEO":"27009","NOMGEO":"Jalapa"}},
{"type":"Feature","geometry":{"type":"Polygon","coordinates":[[[-92.8987,17.6892],[-92.9143,17.7421],[-92.8962,17.7437],[-92.8893,17.7612],[-92.909,17.7627],[-92.9267,17.7562],[-92.9244,17.7395],[-92.9488,17.7524],[-92.9794,17.7415],[-92.9798,17.7137],[-92.9862,17.7125],[-93.0131,17.7309],[-92.9989,17.7484],[-93.019,17.7548],[-93.0335,17.7702],[-93.0426,17.7684],[-93.0572,17.7237],[-93.0444,17.7134],[-93.0379,17.6986],[-93.0418,17.6873],[-93.0452,17.6416],[-93.0405,17.6098],[-93.015,17.5915],[-93.0043,17.5761],[-93.0043,17.5552],[-92.9888,17.5503],[-92.9788,17.5125],[-92.9661,17.5113],[-92.9557,17.4887],[-92.9379,17.5026],[-92.9206,17.5027],[-92.8968,17.5034],[-92.8874,17.5105],[-92.8598,17.5003],[-92.8508,17.4696],[-92.8335,17.482],[-92.826,17.4911],[-92.835,17.5196],[-92.8545,17.5336],[-92.8651,17.5617],[-92.8616,17.5927],[-92.876,17.6067],[-92.8889,17.6072],[-92.9057,17.6235],[-92.9126,17.6532],[-92.9102,17.6688],[-92.8987,17.6892]]]},"properties":{"CVE_ENT":"27","CVE_MUN":"016","CVEGEO":"27016","NOMGEO":"Teapa"}},
{"type":"Feature","geometry":{"type":"Polygon","coordinates":[[[-92.2914,18.13],[-92.3199,18.1403],[-92.35,18.1244],[-92.3715,18.133],[-92.3703,18.1435],[-92.3857,18.1603],[-92.399,18.1458],[-92.3908,18.1253],[-92.441,18.0968],[-92.4633,18.1017],[-92.4616,18.1134],[-92.4973,18.1461],[-92.5023,18.1677],[-92.5177,18.1709],[-92.5365,18.16],[-92.526,18.1413],[-92.5536,18.0964],[-92.5561,18.0622],[-92.5659,18.0642],[-92.5955,18.0571],[-92.6103,18.0688],[-92.6217,18.0562],[-92.6407,18.0757],[-92.6701,18.0475],[-92.6464,18.0307],[-92.5953,18.022],[-92.5832,18.0076],[-92.5926,17.981],[-92.6444,17.9681],[-92.652,17.9558],[-92.6699,17.944],[-92.6777,17.9274],[-92.7041,17.9297],[-92.718,17.9149],[-92.6928,17.8769],[-92.6814,17.8692],[-92.6887,17.8427],[-92.6791,17.8194],[-92.6845,17.8014],[-92.6684,17.7915],[-92.6886,17.7614],[-92.6817,17.7381],[-92.6936,17.7153],[-92.7029,17.6865],[-92.6865,17.6685],[-92.6858,17.6495],[-92.638,17.6492],[-92.6351,17.635],[-92.6386,17.6069],[-92.6257,17.6128],[-92.5925,17.6056],[-92.5743,17.5926],[-92.5749,17.5727],[-92.5473,17.5696],[-92.5631,17.5457],[-92.5539,17.5427],[-92.5301,17.55],[-92.5201,17.5719],[-92.4795,17.5749],[-92.4684,17.577],[-92.4358,17.5702],[-92.4082,17.5806],[-92.3507,17.6179],[-92.3581,17.642],[-92.3492,17.6564],[-92.3499,17.7028],[-92.3373,17.7121],[-92.2887,17.7027],[-92.2746,17.6923],[-92.2307,17.7441],[-92.1945,17.7766],[-92.1885,17.7681],[-92.172,17.7866],[-92.1525,17.7791],[-92.1517,17.7646],[-92.1308,17.7661],[-92.1271,17.7859],[-92.1399,17.8098],[-92.1499,17.8458],[-92.1783,17.8664],[-92.1704,17.9025],[-92.1933,17.9069],[-92.2106,17.8993],[-92.2191,17.8828],[-92.2958,17.9143],[-92.3139,17.9272],[-92.315,17.9593],[-92.3064,17.9639],[-92.3187,17.982],[-92.3102,18.0036],[-92.3167,18.0288],[-92.3074,18.0459],[-92.3223,18.0486],[-92.3228,18.061],[-92.3413,18.0669],[-92.3058,18.0972],[-92.2916,18.1149],[-92.2914,18.13]]]},"properties":{"CVE_ENT":"27","CVE_MUN":"012","CVEGEO":"27012","NOMGEO":"Macuspana"}}
]}