{"type":"FeatureCollection", "features": [
{"type":"Feature","geometry":{"type":"Polygon","coordinates":[[[-98.0317,19.2309],[-98.0014,19.2037],[-97.9986,19.1983],[-97.979,19.1926],[-97.9792,19.1939],[-97.9793,19.195],[-97.9794,19.1953],[-97.9798,19.2052],[-97.9797,19.2155],[-97.9848,19.2208],[-97.9857,19.2278],[-97.9973,19.235],[-97.9873,19.244],[-97.9695,19.2472],[-97.9173,19.2834],[-97.8965,19.2917],[-97.8703,19.2706],[-97.8597,19.2872],[-97.8416,19.2878],[-97.8387,19.3016],[-97.821,19.3048],[-97.8015,19.3442],[-97.8226,19.355],[-97.8202,19.3626],[-97.8556,19.3662],[-97.856,19.3742],[-97.8632,19.3759],[-97.8649,19.3768],[-97.8665,19.3761],[-97.8665,19.3779],[-97.8669,19.3785],[-97.8687,19.3796],[-97.8689,19.3807],[-97.8728,19.3843],[-97.8756,19.3885],[-97.8736,19.3944],[-97.8754,19.4216],[-97.8776,19.4352],[-97.8797,19.4412],[-97.8792,19.4449],[-97.8787,19.4457],[-97.8781,19.4461],[-97.8778,19.4466],[-97.8773,19.4471],[-97.877,19.4473],[-97.8768,19.4483],[-97.878,19.4482],[-97.8781,19.4482],[-97.8844,19.4446],[-97.8888,19.4492],[-97.8995,19.4531],[-97.9022,19.4492],[-97.9065,19.4418],[-97.933,19.4272],[-97.9488,19.4248],[-97.9585,19.4183],[-97.9667,19.4188],[-97.9712,19.4142],[-97.9873,19.4145],[-97.9927,19.4041],[-97.9942,19.3985],[-97.9948,19.3916],[-97.9952,19.3908],[-97.9952,19.3907],[-97.9951,19.3901],[-97.9951,19.3891],[-97.995,19.3886],[-97.995,19.3881],[-97.995,19.3875],[-97.9951,19.3868],[-97.9951,19.3863],[-97.9953,19.3854],[-98.007,19.3805],[-98.0071,19.3804],[-98.0083,19.3786],[-98.0113,19.3731],[-98.0135,19.368],[-98.0157,19.3651],[-98.0282,19.3717],[-98.0337,19.3555],[-98.0342,19.331],[-98.0151,19.328],[-98.0078,19.3187],[-98.0147,19.2923],[-98.0395,19.286],[-98.0325,19.2622],[-98.0338,19.2317],[-98.0317,19.2309]]]},"properties":{"CVE_ENT":"29","CVE_MUN":"013","CVEGEO":"29013","NOMGEO":"Huamantla"}},
{"type":"Feature","geometry":{"type":"Polygon","coordinates":[[[-98.2574,19.2637],[-98.2725,19.2586],[-98.2789,19.2424],[-98.2698,19.2269],[-98.2565,19.2423],[-98.2501,19.2439],[-98.2483,19.2467],[-98.2483,19.2526],[-98.2524,19.256],[-98.2528,19.2566],[-98.2535,19.2574],[-98.2574,19.2637]]]},"properties":{"CVE_ENT":"29","CVE_MUN":"051","CVEGEO":"29051","NOMGEO":"San Jerónimo Zacualpan"}},
{"type":"Feature","geometry":{"type":"Polygon","coordinates":[[[-98.1756,19.2035],[-98.1723,19.2138],[-98.1892,19.21],[-98.1983,19.2158],[-98.2036,19.2167],[-98.2076,19.2164],[-98.208,19.216],[-98.211,19.2161],[-98.2149,19.2167],[-98.2182,19.2182],[-98.2224,19.2187],[-98.2317,19.2212],[-98.2306,19.2074],[-98.2084,19.2119],[-98.1954,19.2044],[-98.1756,19.2035]]]},"properties":{"CVE_ENT":"29","CVE_MUN":"059","CVEGEO":"29059","NOMGEO":"Santa Cruz Quilehtla"}},
{"type":"Feature","geometry":{"type":"Polygon","coordinates":[[[-98.1814,19.4894],[-98.1815,19.4896],[-98.1816,19.49],[-98.1818,19.4913],[-98.1819,19.4927],[-98.1832,19.4996],[-98.208,19.5025],[-98.2417,19.5384],[-98.2456,19.5302],[-98.2987,19.5378],[-98.2987,19.5376],[-98.299,19.537],[-98.2993,19.5353],[-98.3006,19.5347],[-98.3008,19.5262],[-98.3053,19.5116],[-98.2992,19.5078],[-98.2947,19.5103],[-98.2903,19.5105],[-98.2895,19.5109],[-98.2876,19.5118],[-98.2865,19.5124],[-98.2864,19.5124],[-98.2474,19.5142],[-98.2181,19.4835],[-98.2124,19.4783],[-98.2101,19.4638],[-98.2012,19.473],[-98.1888,19.468],[-98.1831,19.4657],[-98.1817,19.4651],[-98.1784,19.4638],[-98.1782,19.4671],[-98.1774,19.4687],[-98.1779,19.4695],[-98.1785,19.4724],[-98.179,19.4741],[-98.1792,19.4743],[-98.1798,19.4764],[-98.1805,19.4847],[-98.1814,19.4894]]]},"properties":{"CVE_ENT":"29","CVE_MUN":"011","CVEGEO":"29011","NOMGEO":"Muñoz de Domingo Arenas"}},
{"type":"Feature","geometry":{"type":"Polygon","coordinates":[[[-98.2153,19.2784],[-98.2222,19.2773],[-98.2191,19.2612],[-98.2068,19.2491],[-98.1889,19.2581],[-98.2153,19.2784]]]},"properties":{"CVE_ENT":"29","CVE_MUN":"060","CVEGEO":"29060","NOMGEO":"Santa Isabel Xiloxoxtla"}},
{"type":"Feature","geometry":{"type":"Polygon","coordinates":[[[-98.0616,19.3594],[-98.0698,19.3676],[-98.0837,19.3571],[-98.1067,19.3668],[-98.1225,19.3631],[-98.1207,19.3615],[-98.1228,19.3585],[-98.1162,19.3567],[-98.1224,19.351],[-98.1137,19.3462],[-98.1059,19.3383],[-98.1052,19.3347],[-98.1002,19.3318],[-98.0875,19.3197],[-98.0855,19.3189],[-98.0804,19.3193],[-98.0796,19.3214],[-98.0899,19.3256],[-98.0916,19.3328],[-98.0608,19.3409],[-98.0616,19.3594]]]},"properties":{"CVE_ENT":"29","CVE_MUN":"009","CVEGEO":"29009","NOMGEO":"Cuaxomulco"}},
{"type":"Feature","geometry":{"type":"Polygon","coordinates":[[[-97.9485,19.5423],[-97.9727,19.5415],[-97.9882,19.5018],[-98.0181,19.5058],[-98.0223,19.5145],[-98.0347,19.499],[-98.0016,19.4898],[-97.9826,19.4804],[-97.9881,19.4583],[-98.0072,19.438],[-97.9951,19.4399],[-97.9708,19.415],[-97.9667,19.4188],[-97.9585,19.4183],[-97.9488,19.4248],[-97.933,19.4272],[-97.9065,19.4418],[-97.9022,19.4492],[-97.8995,19.4531],[-97.899,19.4528],[-97.8985,19.4525],[-97.8982,19.4522],[-97.8955,19.448],[-97.8888,19.4492],[-97.8623,19.4562],[-97.8474,19.474],[-97.8582,19.4931],[-97.8897,19.5046],[-97.8875,19.5176],[-97.8717,19.5322],[-97.8695,19.5423],[-97.9172,19.5411],[-97.9247,19.5266],[-97.9485,19.5423]]]},"properties":{"CVE_ENT":"29","CVE_MUN":"030","CVEGEO":"29030","NOMGEO":"Terrenate"}},
{"type":"Feature","geometry":{"type":"Polygon","coordinates":[[[-98.4481,19.5392],[-98.4627,19.5436],[-98.4715,19.5335],[-98.4928,19.5369],[-98.51,19.558],[-98.5395,19.5343],[-98.5473,19.5401],[-98.5751,19.5178],[-98.6033,19.5015],[-98.6248,19.5043],[-98.6377,19.4862],[-98.6341,19.4678],[-98.6294,19.457],[-98.5913,19.4492],[-98.5703,19.4668],[-98.5415,19.4608],[-98.543,19.4649],[-98.5305,19.468],[-98.5268,19.4772],[-98.52,19.4757],[-98.5179,19.488],[-98.5129,19.4922],[-98.5086,19.4928],[-98.5062,19.4945],[-98.5055,19.4945],[-98.5053,19.4945],[-98.5049,19.4943],[-98.5029,19.4998],[-98.4968,19.5034],[-98.4944,19.5075],[-98.492,19.5086],[-98.4724,19.5153],[-98.464,19.531],[-98.4481,19.5392]]]},"properties":{"CVE_ENT":"29","CVE_MUN":"021","CVEGEO":"29021","NOMGEO":"Nanacamilpa de Mariano Arista"}},
{"type":"Feature","geometry":{"type":"Polygon","coordinates":[[[-98.1954,19.2044],[-98.2084,19.2119],[-98.2306,19.2074],[-98.2306,19.1866],[-98.2261,19.1746],[-98.2152,19.1744],[-98.1954,19.2044]]]},"properties":{"CVE_ENT":"29","CVE_MUN":"058","CVEGEO":"29058","NOMGEO":"Santa Catarina Ayometla"}},
{"type":"Feature","geometry":{"type":"Polygon","coordinates":[[[-97.8695,19.5423],[-97.8682,19.5533],[-97.8815,19.5717],[-97.9079,19.5794],[-97.9142,19.5921],[-97.9467,19.5856],[-97.9556,19.6031],[-97.9655,19.5851],[-97.9833,19.572],[-97.968,19.559],[-97.9553,19.5555],[-97.9485,19.5423],[-97.9247,19.5266],[-97.9172,19.5411],[-97.8695,19.5423]]]},"properties":{"CVE_ENT":"29","CVE_MUN":"046","CVEGEO":"29046","NOMGEO":"Emiliano Zapata"}},
{"type":"Feature","geometry":{"type":"Polygon","coordinates":[[[-97.9942,19.3985],[-98.0162,19.4087],[-98.0329,19.3974],[-98.0355,19.377],[-98.0157,19.3651],[-98.0135,19.368],[-98.0113,19.3731],[-98.0083,19.3786],[-98.0071,19.3804],[-98.007,19.3805],[-98.0068,19.3806],[-98.0065,19.3806],[-98.006,19.3807],[-98.0041,19.3807],[-97.9973,19.3806],[-97.9931,19.3802],[-97.9953,19.3854],[-97.9951,19.3863],[-97.995,19.3881],[-97.995,19.3886],[-97.9951,19.3891],[-97.9952,19.3908],[-97.9952,19.391],[-97.995,19.3911],[-97.9948,19.3916],[-97.9942,19.3985]]]},"properties":{"CVE_ENT":"29","CVE_MUN":"035","CVEGEO":"29035","NOMGEO":"Tocatlán"}},
{"type":"Feature","geometry":{"type":"Polygon","coordinates":[[[-98.1003,19.1634],[-98.1009,19.1649],[-98.1006,19.1673],[-98.1001,19.169],[-98.1002,19.17],[-98.1018,19.1779],[-98.1007,19.1834],[-98.1032,19.1921],[-98.1106,19.2158],[-98.1288,19.2116],[-98.1432,19.1876],[-98.1549,19.1681],[-98.1669,19.1501],[-98.1882,19.1355],[-98.1971,19.1275],[-98.1662,19.1051],[-98.1474,19.1144],[-98.1194,19.1353],[-98.1032,19.1526],[-98.1003,19.1634]]]},"properties":{"CVE_ENT":"29","CVE_MUN":"025","CVEGEO":"29025","NOMGEO":"San Pablo del Monte"}},
{"type":"Feature","geometry":{"type":"Polygon","coordinates":[[[-98.0337,19.3555],[-98.0616,19.3594],[-98.0608,19.3409],[-98.0916,19.3328],[-98.0899,19.3256],[-98.0796,19.3214],[-98.0804,19.3193],[-98.0855,19.3189],[-98.0825,19.3172],[-98.0795,19.3126],[-98.0739,19.3182],[-98.0671,19.3112],[-98.0594,19.3173],[-98.0559,19.315],[-98.0521,19.3115],[-98.0395,19.286],[-98.0147,19.2923],[-98.0078,19.3187],[-98.0151,19.328],[-98.0342,19.331],[-98.0337,19.3555]]]},"properties":{"CVE_ENT":"29","CVE_MUN":"052","CVEGEO":"29052","NOMGEO":"San José Teacalco"}},
{"type":"Feature","geometry":{"type":"Polygon","coordinates":[[[-98.0054,19.54],[-98.0118,19.5415],[-98.025,19.5486],[-98.0295,19.5559],[-98.0359,19.5515],[-98.0469,19.5707],[-98.0482,19.5714],[-98.049,19.5716],[-98.0497,19.5717],[-98.0503,19.5718],[-98.0574,19.5652],[-98.0623,19.5395],[-98.0702,19.5254],[-98.0833,19.5244],[-98.1131,19.5168],[-98.1198,19.5019],[-98.1368,19.5064],[-98.1408,19.5119],[-98.1571,19.5107],[-98.1539,19.5057],[-98.1624,19.4939],[-98.1708,19.4969],[-98.1751,19.4939],[-98.1788,19.4912],[-98.1814,19.4894],[-98.1805,19.4847],[-98.1798,19.4764],[-98.1792,19.4743],[-98.179,19.4742],[-98.1772,19.4738],[-98.1723,19.471],[-98.1567,19.4784],[-98.1474,19.4574],[-98.1448,19.4278],[-98.1326,19.4241],[-98.117,19.4379],[-98.1079,19.4185],[-98.0909,19.4252],[-98.0771,19.4411],[-98.059,19.4387],[-98.0449,19.4354],[-98.0243,19.4407],[-98.0072,19.438],[-97.9881,19.4583],[-97.9826,19.4804],[-98.0016,19.4898],[-98.0347,19.499],[-98.0223,19.5145],[-98.0227,19.5221],[-98.0054,19.54]]]},"properties":{"CVE_ENT":"29","CVE_MUN":"031","CVEGEO":"29031","NOMGEO":"Tetla de la Solidaridad"}},
{"type":"Feature","geometry":{"type":"Polygon","coordinates":[[[-98.2574,19.2637],[-98.2741,19.2789],[-98.2877,19.2622],[-98.3022,19.2631],[-98.3056,19.2534],[-98.2988,19.2206],[-98.3021,19.1977],[-98.3122,19.1904],[-98.3063,19.1888],[-98.2956,19.1893],[-98.2847,19.2135],[-98.2736,19.2116],[-98.2711,19.2241],[-98.2698,19.2269],[-98.2789,19.2424],[-98.2725,19.2586],[-98.2574,19.2637]]]},"properties":{"CVE_ENT":"29","CVE_MUN":"032","CVEGEO":"29032","NOMGEO":"Tetlatlahuca"}},
{"type":"Feature","geometry":{"type":"Polygon","coordinates":[[[-98.2527,19.3566],[-98.2554,19.359],[-98.2557,19.3673],[-98.2501,19.3853],[-98.2823,19.4144],[-98.2955,19.4034],[-98.3095,19.3876],[-98.306,19.3793],[-98.3091,19.3499],[-98.3002,19.3449],[-98.3206,19.3169],[-98.3206,19.3005],[-98.3077,19.3143],[-98.2945,19.2896],[-98.2577,19.3166],[-98.2616,19.3305],[-98.2527,19.3566]]]},"properties":{"CVE_ENT":"29","CVE_MUN":"024","CVEGEO":"29024","NOMGEO":"Panotla"}},
{"type":"Feature","geometry":{"type":"Polygon","coordinates":[[[-98.2306,19.1866],[-98.2397,19.1859],[-98.2622,19.1608],[-98.2367,19.1573],[-98.2261,19.1746],[-98.2306,19.1866]]]},"properties":{"CVE_ENT":"29","CVE_MUN":"042","CVEGEO":"29042","NOMGEO":"Xicohtzinco"}},
{"type":"Feature","geometry":{"type":"Polygon","coordinates":[[[-98.2479,19.2533],[-98.2483,19.2528],[-98.2478,19.2495],[-98.2483,19.2467],[-98.2501,19.2439],[-98.2565,19.2423],[-98.2711,19.2241],[-98.2413,19.2326],[-98.2419,19.2334],[-98.2421,19.2344],[-98.2425,19.2346],[-98.2431,19.2347],[-98.2429,19.2364],[-98.2429,19.2394],[-98.2452,19.2413],[-98.2405,19.2483],[-98.2479,19.2533]]]},"properties":{"CVE_ENT":"29","CVE_MUN":"053","CVEGEO":"29053","NOMGEO":"San Juan Huactzinco"}},
{"type":"Feature","geometry":{"type":"Polygon","coordinates":[[[-98.1013,19.52],[-98.0833,19.5244],[-98.0716,19.5109],[-98.0702,19.5254],[-98.0623,19.5395],[-98.0592,19.5499],[-98.0574,19.5652],[-98.0569,19.5656],[-98.0503,19.5718],[-98.049,19.5716],[-98.0482,19.5714],[-98.0469,19.5707],[-98.0359,19.5515],[-98.0295,19.5559],[-98.025,19.5486],[-98.0118,19.5415],[-98.0077,19.5407],[-98.0055,19.5402],[-98.005,19.5401],[-98.0046,19.5403],[-98.0039,19.5407],[-98.003,19.5413],[-98.0017,19.542],[-98.0011,19.5422],[-98.0007,19.5424],[-98.0001,19.543],[-98,19.543],[-97.9999,19.5432],[-97.9998,19.5435],[-97.9988,19.5462],[-97.995,19.551],[-97.994,19.5541],[-97.994,19.5554],[-97.9941,19.5557],[-97.9942,19.5559],[-97.9942,19.556],[-97.9942,19.5561],[-97.9941,19.5563],[-97.994,19.5564],[-97.9938,19.5566],[-97.9933,19.5569],[-97.9928,19.5574],[-97.9921,19.5587],[-97.9892,19.5608],[-97.985,19.5657],[-97.987,19.5692],[-97.9833,19.572],[-97.9763,19.5777],[-97.9712,19.5827],[-97.9655,19.5851],[-97.9579,19.603],[-97.963,19.6129],[-97.9799,19.6282],[-98.0422,19.6402],[-98.036,19.6651],[-98.0374,19.6882],[-98.0398,19.6895],[-98.0397,19.6951],[-98.0401,19.6974],[-98.0401,19.6978],[-98.0401,19.6996],[-98.056,19.7259],[-98.066,19.7281],[-98.0688,19.7034],[-98.0828,19.7008],[-98.0832,19.6985],[-98.0824,19.6982],[-98.0843,19.6934],[-98.0904,19.6895],[-98.0925,19.6838],[-98.0927,19.6834],[-98.0927,19.6833],[-98.0927,19.6832],[-98.0927,19.6829],[-98.0918,19.681],[-98.0905,19.6786],[-98.0929,19.6745],[-98.0942,19.6732],[-98.0988,19.6697],[-98.1104,19.6858],[-98.1437,19.6836],[-98.1597,19.6694],[-98.1905,19.6763],[-98.2408,19.6759],[-98.2524,19.6931],[-98.255,19.7082],[-98.2553,19.7184],[-98.2725,19.7247],[-98.3016,19.7231],[-98.3073,19.727],[-98.3111,19.7277],[-98.3111,19.7271],[-98.3112,19.7271],[-98.3132,19.7272],[-98.3155,19.7256],[-98.3226,19.7233],[-98.3317,19.7223],[-98.3333,19.7088],[-98.323,19.6995],[-98.3218,19.6933],[-98.3238,19.6853],[-98.3456,19.6555],[-98.3817,19.6094],[-98.3683,19.5735],[-98.3223,19.5667],[-98.3226,19.543],[-98.313,19.5409],[-98.3047,19.5392],[-98.2987,19.5378],[-98.2456,19.5302],[-98.2417,19.5384],[-98.2391,19.5619],[-98.2479,19.5813],[-98.2328,19.5908],[-98.2142,19.5893],[-98.1778,19.601],[-98.1576,19.5872],[-98.165,19.5699],[-98.1476,19.5575],[-98.1333,19.5652],[-98.1229,19.5402],[-98.1013,19.52]]]},"properties":{"CVE_ENT":"29","CVE_MUN":"034","CVEGEO":"29034","NOMGEO":"Tlaxco"}},
{"type":"Feature","geometry":{"type":"Polygon","coordinates":[[[-98.5356,19.6344],[-98.5469,19.6215],[-98.5664,19.6403],[-98.5795,19.6377],[-98.5903,19.6194],[-98.609,19.6024],[-98.638,19.5988],[-98.6473,19.6078],[-98.6577,19.6056],[-98.6656,19.6062],[-98.6698,19.5987],[-98.6814,19.5983],[-98.6815,19.5879],[-98.706,19.5593],[-98.7,19.5313],[-98.6819,19.518],[-98.6757,19.4995],[-98.6604,19.4855],[-98.6532,19.466],[-98.6341,19.4678],[-98.6377,19.4862],[-98.6248,19.5043],[-98.6033,19.5015],[-98.5751,19.5178],[-98.5473,19.5401],[-98.5395,19.5343],[-98.51,19.558],[-98.4928,19.5369],[-98.4715,19.5335],[-98.4627,19.5436],[-98.4481,19.5392],[-98.4392,19.5378],[-98.4359,19.5673],[-98.4731,19.5752],[-98.4782,19.5874],[-98.4834,19.5929],[-98.4871,19.5987],[-98.4898,19.6055],[-98.4916,19.6074],[-98.5198,19.6031],[-98.5356,19.6344]]]},"properties":{"CVE_ENT":"29","CVE_MUN":"006","CVEGEO":"29006","NOMGEO":"Calpulalpan"}},
{"type":"Feature","geometry":{"type":"Polygon","coordinates":[[[-98.2317,19.2212],[-98.2424,19.2312],[-98.2692,19.1992],[-98.2736,19.2116],[-98.2847,19.2135],[-98.2956,19.1893],[-98.3063,19.1888],[-98.2879,19.1741],[-98.2622,19.1608],[-98.2397,19.1859],[-98.2306,19.1866],[-98.2306,19.2074],[-98.2317,19.2212]]]},"properties":{"CVE_ENT":"29","CVE_MUN":"044","CVEGEO":"29044","NOMGEO":"Zacatelco"}},
{"type":"Feature","geometry":{"type":"Polygon","coordinates":[[[-98.2945,19.2896],[-98.3077,19.3143],[-98.3206,19.3005],[-98.3208,19.2924],[-98.2978,19.2783],[-98.3022,19.2631],[-98.2877,19.2622],[-98.2741,19.2789],[-98.2945,19.2896]]]},"properties":{"CVE_ENT":"29","CVE_MUN":"049","CVEGEO":"29049","NOMGEO":"San Damián Texóloc"}},
{"type":"Feature","geometry":{"type":"Polygon","coordinates":[[[-98.1784,19.4638],[-98.1817,19.4651],[-98.1831,19.4657],[-98.1888,19.468],[-98.2012,19.473],[-98.2101,19.4638],[-98.2124,19.4783],[-98.2181,19.4835],[-98.232,19.4643],[-98.248,19.4527],[-98.2606,19.4786],[-98.2871,19.4832],[-98.2832,19.4712],[-98.2917,19.4585],[-98.2998,19.419],[-98.2823,19.4144],[-98.2501,19.3853],[-98.2557,19.3673],[-98.2554,19.359],[-98.2541,19.3587],[-98.2528,19.3577],[-98.2524,19.357],[-98.2516,19.357],[-98.2474,19.3589],[-98.2447,19.3571],[-98.2403,19.3564],[-98.2376,19.3576],[-98.2369,19.3569],[-98.2302,19.3709],[-98.2281,19.386],[-98.2022,19.3765],[-98.2064,19.3985],[-98.1782,19.4356],[-98.1798,19.438],[-98.1784,19.4451],[-98.1784,19.4511],[-98.1788,19.4567],[-98.1789,19.4569],[-98.1786,19.4615],[-98.1784,19.4638]]]},"properties":{"CVE_ENT":"29","CVE_MUN":"040","CVEGEO":"29040","NOMGEO":"Xaltocan"}},
{"type":"Feature","geometry":{"type":"Polygon","coordinates":[[[-98.0925,19.3237],[-98.1002,19.3318],[-98.1052,19.3347],[-98.1059,19.3364],[-98.1059,19.3383],[-98.1137,19.3462],[-98.1162,19.3567],[-98.1228,19.3585],[-98.1224,19.36],[-98.1207,19.3615],[-98.1219,19.3621],[-98.1259,19.3657],[-98.1274,19.366],[-98.1287,19.3656],[-98.1288,19.3665],[-98.128,19.3679],[-98.1278,19.3696],[-98.1298,19.3721],[-98.1275,19.3743],[-98.1286,19.3778],[-98.1266,19.3795],[-98.1261,19.3866],[-98.1216,19.3962],[-98.1215,19.3976],[-98.1216,19.3983],[-98.1222,19.4006],[-98.1228,19.402],[-98.1237,19.403],[-98.124,19.4033],[-98.1243,19.4036],[-98.1246,19.404],[-98.1248,19.4044],[-98.1391,19.393],[-98.1343,19.3799],[-98.1495,19.3726],[-98.1539,19.3672],[-98.1582,19.3637],[-98.1534,19.3384],[-98.1151,19.318],[-98.0925,19.3237]]]},"properties":{"CVE_ENT":"29","CVE_MUN":"026","CVEGEO":"29026","NOMGEO":"Santa Cruz Tlaxcala"}},
{"type":"Feature","geometry":{"type":"Polygon","coordinates":[[[-98.2181,19.4835],[-98.2474,19.5142],[-98.2864,19.5124],[-98.2761,19.5081],[-98.279,19.5053],[-98.2793,19.5047],[-98.2813,19.5032],[-98.2809,19.5025],[-98.2808,19.5023],[-98.286,19.4951],[-98.2871,19.4832],[-98.2606,19.4786],[-98.248,19.4527],[-98.232,19.4643],[-98.2181,19.4835]]]},"properties":{"CVE_ENT":"29","CVE_MUN":"055","CVEGEO":"29055","NOMGEO":"San Lucas Tecopilco"}},
{"type":"Feature","geometry":{"type":"Polygon","coordinates":[[[-98.1752,19.231],[-98.1755,19.231],[-98.1767,19.2307],[-98.1773,19.231],[-98.1777,19.2306],[-98.1795,19.2299],[-98.1825,19.2297],[-98.1895,19.2312],[-98.2114,19.2257],[-98.2132,19.2165],[-98.208,19.216],[-98.2036,19.2167],[-98.1983,19.2158],[-98.1946,19.2104],[-98.1892,19.21],[-98.1723,19.2138],[-98.1736,19.2048],[-98.1642,19.202],[-98.1288,19.2116],[-98.1399,19.2191],[-98.1599,19.2205],[-98.1747,19.2248],[-98.1744,19.2264],[-98.1749,19.2299],[-98.1752,19.231]]]},"properties":{"CVE_ENT":"29","CVE_MUN":"022","CVEGEO":"29022","NOMGEO":"Acuamanala de Miguel Hidalgo"}},
{"type":"Feature","geometry":{"type":"Polygon","coordinates":[[[-98.15,19.3719],[-98.1495,19.3726],[-98.1511,19.374],[-98.1531,19.372],[-98.1548,19.3732],[-98.1677,19.3716],[-98.1849,19.3582],[-98.1759,19.3551],[-98.1772,19.3458],[-98.1773,19.3447],[-98.1783,19.3432],[-98.1736,19.3438],[-98.1692,19.3404],[-98.1534,19.3384],[-98.1582,19.3637],[-98.1539,19.3672],[-98.15,19.3719]]]},"properties":{"CVE_ENT":"29","CVE_MUN":"001","CVEGEO":"29001","NOMGEO":"Amaxac de Guerrero"}},
{"type":"Feature","geometry":{"type":"Polygon","coordinates":[[[-97.9151,19.1733],[-97.8898,19.187],[-97.8906,19.202],[-97.8621,19.2138],[-97.851,19.2229],[-97.8651,19.2539],[-97.8779,19.2415],[-97.8979,19.2381],[-97.9132,19.2279],[-97.9264,19.2407],[-97.9744,19.2386],[-97.9848,19.243],[-97.9857,19.2278],[-97.9797,19.2155],[-97.9798,19.2052],[-97.9794,19.1953],[-97.9793,19.195],[-97.9792,19.1939],[-97.979,19.1926],[-97.9282,19.1642],[-97.9151,19.1733]]]},"properties":{"CVE_ENT":"29","CVE_MUN":"037","CVEGEO":"29037","NOMGEO":"Ziltlaltépec de Trinidad Sánchez Santos"}},
{"type":"Feature","geometry":{"type":"Polygon","coordinates":[[[-98.2736,19.2116],[-98.2692,19.1992],[-98.2424,19.2312],[-98.2711,19.2241],[-98.2736,19.2116]]]},"properties":{"CVE_ENT":"29","CVE_MUN":"054","CVEGEO":"29054","NOMGEO":"San Lorenzo Axocomanitla"}},
{"type":"Feature","geometry":{"type":"Polygon","coordinates":[[[-98.2577,19.3166],[-98.2511,19.3235],[-98.2386,19.3225],[-98.23,19.3273],[-98.227,19.3298],[-98.2241,19.3303],[-98.2237,19.3309],[-98.2235,19.3314],[-98.2233,19.3316],[-98.2232,19.3317],[-98.2234,19.3354],[-98.2313,19.3493],[-98.2356,19.3533],[-98.2376,19.3576],[-98.2474,19.3589],[-98.2494,19.358],[-98.2516,19.357],[-98.2527,19.3566],[-98.2616,19.3305],[-98.2577,19.3166]]]},"properties":{"CVE_ENT":"29","CVE_MUN":"036","CVEGEO":"29036","NOMGEO":"Totolac"}},
{"type":"Feature","geometry":{"type":"Polygon","coordinates":[[[-98.0445,19.2904],[-98.0473,19.3017],[-98.0521,19.3115],[-98.0671,19.3112],[-98.0739,19.3182],[-98.0795,19.3126],[-98.0728,19.3036],[-98.0732,19.3002],[-98.0765,19.2959],[-98.0917,19.3002],[-98.092,19.3002],[-98.0922,19.3003],[-98.0928,19.3006],[-98.0939,19.3012],[-98.0967,19.3036],[-98.1082,19.3073],[-98.1171,19.299],[-98.1398,19.3141],[-98.1447,19.3091],[-98.1841,19.3257],[-98.1862,19.3291],[-98.1871,19.3263],[-98.189,19.3271],[-98.1904,19.3238],[-98.194,19.3256],[-98.2082,19.3238],[-98.2158,19.2955],[-98.2099,19.2893],[-98.1952,19.3024],[-98.1865,19.2867],[-98.1613,19.2735],[-98.1621,19.2688],[-98.0975,19.2521],[-98.0856,19.2563],[-98.0753,19.2769],[-98.0445,19.2904]]]},"properties":{"CVE_ENT":"29","CVE_MUN":"010","CVEGEO":"29010","NOMGEO":"Chiautempan"}},
{"type":"Feature","geometry":{"type":"Polygon","coordinates":[[[-98.2186,19.3706],[-98.2302,19.3709],[-98.2369,19.3569],[-98.2313,19.3493],[-98.2234,19.3354],[-98.2239,19.3341],[-98.2235,19.333],[-98.2238,19.3323],[-98.2232,19.3317],[-98.2233,19.3316],[-98.2235,19.3314],[-98.2237,19.3309],[-98.2241,19.3303],[-98.227,19.3298],[-98.23,19.3273],[-98.2386,19.3225],[-98.2511,19.3235],[-98.2652,19.3082],[-98.2945,19.2896],[-98.2329,19.2618],[-98.2237,19.2807],[-98.2099,19.2893],[-98.2158,19.2955],[-98.2082,19.3238],[-98.194,19.3256],[-98.2091,19.3645],[-98.2186,19.3706]]]},"properties":{"CVE_ENT":"29","CVE_MUN":"033","CVEGEO":"29033","NOMGEO":"Tlaxcala"}},
{"type":"Feature","geometry":{"type":"Polygon","coordinates":[[[-98.3022,19.2631],[-98.2978,19.2783],[-98.3208,19.2924],[-98.3245,19.2808],[-98.349,19.2708],[-98.3497,19.2702],[-98.3587,19.2499],[-98.378,19.2546],[-98.3689,19.2261],[-98.3519,19.219],[-98.3442,19.2053],[-98.3307,19.2002],[-98.3398,19.1861],[-98.3238,19.1688],[-98.3122,19.1904],[-98.3021,19.1977],[-98.2988,19.2206],[-98.3154,19.2382],[-98.3328,19.2447],[-98.3208,19.2614],[-98.3022,19.2631]]]},"properties":{"CVE_ENT":"29","CVE_MUN":"023","CVEGEO":"29023","NOMGEO":"Natívitas"}},
{"type":"Feature","geometry":{"type":"Polygon","coordinates":[[[-98.1613,19.2735],[-98.182,19.27],[-98.1839,19.2577],[-98.1347,19.2485],[-98.1065,19.2467],[-98.0643,19.2336],[-98.0338,19.2317],[-98.0325,19.2622],[-98.0445,19.2904],[-98.0753,19.2769],[-98.0856,19.2563],[-98.0975,19.2521],[-98.1621,19.2688],[-98.1613,19.2735]]]},"properties":{"CVE_ENT":"29","CVE_MUN":"050","CVEGEO":"29050","NOMGEO":"San Francisco Tetlanohcan"}},
{"type":"Feature","geometry":{"type":"Polygon","coordinates":[[[-98.1954,19.2044],[-98.2152,19.1744],[-98.2261,19.1746],[-98.2367,19.1573],[-98.2246,19.1381],[-98.2026,19.1527],[-98.201,19.1647],[-98.1862,19.1682],[-98.1725,19.1615],[-98.1549,19.1681],[-98.1432,19.1876],[-98.1868,19.1738],[-98.1909,19.1941],[-98.176,19.2017],[-98.1756,19.2035],[-98.1954,19.2044]]]},"properties":{"CVE_ENT":"29","CVE_MUN":"041","CVEGEO":"29041","NOMGEO":"Papalotla de Xicohténcatl"}},
{"type":"Feature","geometry":{"type":"Polygon","coordinates":[[[-98.3022,19.2631],[-98.3208,19.2614],[-98.3328,19.2447],[-98.3154,19.2382],[-98.2988,19.2206],[-98.3056,19.2534],[-98.3022,19.2631]]]},"properties":{"CVE_ENT":"29","CVE_MUN":"057","CVEGEO":"29057","NOMGEO":"Santa Apolonia Teacalco"}},
{"type":"Feature","geometry":{"type":"Polygon","coordinates":[[[-98.1839,19.2577],[-98.182,19.27],[-98.1952,19.3024],[-98.2153,19.2784],[-98.1889,19.2581],[-98.1839,19.2577]]]},"properties":{"CVE_ENT":"29","CVE_MUN":"048","CVEGEO":"29048","NOMGEO":"La Magdalena Tlaltelulco"}},
{"type":"Feature","geometry":{"type":"MultiPolygon","coordinates":[[[[-98.5053,19.4945],[-98.5179,19.488],[-98.52,19.4757],[-98.5268,19.4772],[-98.5305,19.468],[-98.5352,19.4623],[-98.5232,19.4609],[-98.5163,19.4392],[-98.5103,19.428],[-98.496,19.4311],[-98.4951,19.4556],[-98.5058,19.4687],[-98.4947,19.4815],[-98.4959,19.4865],[-98.5029,19.4894],[-98.5036,19.4911],[-98.5043,19.4922],[-98.5049,19.4934],[-98.5049,19.4943],[-98.5052,19.4944],[-98.5053,19.4945]]],[[[-98.49,19.6198],[-98.4902,19.62],[-98.4902,19.6198],[-98.4901,19.6181],[-98.4902,19.6175],[-98.4907,19.6163],[-98.4927,19.6138],[-98.4871,19.5987],[-98.4731,19.5752],[-98.4359,19.5673],[-98.4392,19.5378],[-98.464,19.531],[-98.4724,19.5153],[-98.4827,19.5096],[-98.492,19.5086],[-98.4944,19.5075],[-98.4968,19.5034],[-98.5005,19.5011],[-98.4982,19.4997],[-98.4852,19.4979],[-98.4832,19.4935],[-98.4655,19.4847],[-98.4474,19.4838],[-98.426,19.4994],[-98.4149,19.4917],[-98.3975,19.4891],[-98.3935,19.5033],[-98.4086,19.5113],[-98.4198,19.5295],[-98.3934,19.5423],[-98.3975,19.5569],[-98.3851,19.576],[-98.4249,19.5801],[-98.4588,19.5968],[-98.447,19.611],[-98.4118,19.6048],[-98.4096,19.6167],[-98.4665,19.6137],[-98.4771,19.6175],[-98.4838,19.6188],[-98.4874,19.6175],[-98.49,19.6198]]]]},"properties":{"CVE_ENT":"29","CVE_MUN":"020","CVEGEO":"29020","NOMGEO":"Sanctórum de Lázaro Cárdenas"}},
{"type":"Feature","geometry":{"type":"Polygon","coordinates":[[[-98.1288,19.2116],[-98.1521,19.2043],[-98.1642,19.202],[-98.176,19.2017],[-98.1909,19.1941],[-98.1868,19.1738],[-98.1432,19.1876],[-98.1288,19.2116]]]},"properties":{"CVE_ENT":"29","CVE_MUN":"017","CVEGEO":"29017","NOMGEO":"Mazatecochco de José María Morelos"}},
{"type":"Feature","geometry":{"type":"Polygon","coordinates":[[[-98.3206,19.3005],[-98.3206,19.3169],[-98.3444,19.3116],[-98.3355,19.2842],[-98.349,19.2708],[-98.3245,19.2808],[-98.3208,19.2924],[-98.3206,19.3005]]]},"properties":{"CVE_ENT":"29","CVE_MUN":"056","CVEGEO":"29056","NOMGEO":"Santa Ana Nopalucan"}},
{"type":"Feature","geometry":{"type":"Polygon","coordinates":[[[-98.1839,19.3647],[-98.2022,19.3765],[-98.2186,19.3706],[-98.2091,19.3645],[-98.194,19.3256],[-98.1904,19.3238],[-98.189,19.3271],[-98.1871,19.3263],[-98.1862,19.3291],[-98.1918,19.3351],[-98.1841,19.3403],[-98.1803,19.3415],[-98.1773,19.3447],[-98.1772,19.3458],[-98.1787,19.3492],[-98.1759,19.3551],[-98.1849,19.3582],[-98.1839,19.3647]]]},"properties":{"CVE_ENT":"29","CVE_MUN":"002","CVEGEO":"29002","NOMGEO":"Apetatitlán de Antonio Carvajal"}},
{"type":"Feature","geometry":{"type":"Polygon","coordinates":[[[-97.6642,19.3651],[-97.6739,19.3675],[-97.6791,19.3848],[-97.704,19.393],[-97.7099,19.3683],[-97.6901,19.3712],[-97.7073,19.3287],[-97.6961,19.3181],[-97.7196,19.3048],[-97.6909,19.2859],[-97.6665,19.2947],[-97.658,19.3107],[-97.6461,19.3064],[-97.6257,19.3314],[-97.6387,19.3383],[-97.6314,19.3554],[-97.6642,19.3651]]]},"properties":{"CVE_ENT":"29","CVE_MUN":"007","CVEGEO":"29007","NOMGEO":"El Carmen Tequexquitla"}},
{"type":"Feature","geometry":{"type":"Polygon","coordinates":[[[-97.704,19.393],[-97.7211,19.4186],[-97.7245,19.4316],[-97.7473,19.4363],[-97.7548,19.4575],[-97.7736,19.4588],[-97.774,19.4692],[-97.7969,19.4724],[-97.7945,19.4984],[-97.8147,19.4825],[-97.8459,19.4689],[-97.8623,19.4562],[-97.8888,19.4492],[-97.8844,19.4446],[-97.8781,19.4482],[-97.878,19.4482],[-97.8768,19.4483],[-97.877,19.4473],[-97.8773,19.4471],[-97.8778,19.4466],[-97.8781,19.4461],[-97.8787,19.4457],[-97.8792,19.4449],[-97.8799,19.4424],[-97.8797,19.4412],[-97.8754,19.4216],[-97.8736,19.3944],[-97.8756,19.3885],[-97.8728,19.3843],[-97.8689,19.3807],[-97.8687,19.3796],[-97.8669,19.3785],[-97.8665,19.3779],[-97.8661,19.3794],[-97.8642,19.3816],[-97.8553,19.3935],[-97.8296,19.3677],[-97.8112,19.3694],[-97.8021,19.3554],[-97.7892,19.3527],[-97.752,19.3559],[-97.7564,19.3346],[-97.7366,19.3308],[-97.7212,19.3429],[-97.7368,19.352],[-97.7099,19.3683],[-97.704,19.393]]]},"properties":{"CVE_ENT":"29","CVE_MUN":"004","CVEGEO":"29004","NOMGEO":"Atltzayanca"}},
{"type":"Feature","geometry":{"type":"Polygon","coordinates":[[[-98.3958,19.4897],[-98.3975,19.4891],[-98.4019,19.4908],[-98.4149,19.4917],[-98.426,19.4994],[-98.4474,19.4838],[-98.4655,19.4847],[-98.4852,19.4979],[-98.5029,19.4998],[-98.5049,19.4943],[-98.4959,19.4865],[-98.4947,19.4815],[-98.5058,19.4687],[-98.4951,19.4556],[-98.496,19.4311],[-98.5083,19.4269],[-98.4872,19.3922],[-98.4658,19.3823],[-98.4408,19.3956],[-98.4207,19.3955],[-98.4146,19.4176],[-98.376,19.4138],[-98.3654,19.4234],[-98.3497,19.4316],[-98.349,19.4475],[-98.3627,19.4608],[-98.3768,19.4647],[-98.3816,19.4792],[-98.3958,19.4897]]]},"properties":{"CVE_ENT":"29","CVE_MUN":"012","CVEGEO":"29012","NOMGEO":"Españita"}},
{"type":"Feature","geometry":{"type":"Polygon","coordinates":[[[-98.2068,19.2491],[-98.2191,19.2612],[-98.2222,19.2773],[-98.2329,19.2618],[-98.2494,19.2662],[-98.2535,19.2613],[-98.2532,19.2607],[-98.2536,19.2597],[-98.2537,19.2589],[-98.2535,19.2574],[-98.2528,19.2566],[-98.2524,19.256],[-98.25,19.2542],[-98.2483,19.2528],[-98.2477,19.253],[-98.2468,19.2517],[-98.245,19.2494],[-98.2452,19.2413],[-98.2429,19.2394],[-98.244,19.2371],[-98.2429,19.2364],[-98.2431,19.2347],[-98.2425,19.2346],[-98.2421,19.2344],[-98.2419,19.2334],[-98.2409,19.2337],[-98.2408,19.2327],[-98.2363,19.2297],[-98.2306,19.2271],[-98.2317,19.2212],[-98.2114,19.2257],[-98.2068,19.2491]]]},"properties":{"CVE_ENT":"29","CVE_MUN":"029","CVEGEO":"29029","NOMGEO":"Tepeyanco"}},
{"type":"Feature","geometry":{"type":"Polygon","coordinates":[[[-98.0338,19.2317],[-98.0643,19.2336],[-98.1065,19.2467],[-98.1347,19.2485],[-98.1839,19.2577],[-98.1889,19.2581],[-98.2068,19.2491],[-98.2114,19.2257],[-98.1895,19.2312],[-98.1755,19.231],[-98.1752,19.2307],[-98.1749,19.2299],[-98.1744,19.2264],[-98.1747,19.2248],[-98.1599,19.2205],[-98.1399,19.2191],[-98.1227,19.222],[-98.1106,19.2158],[-98.1032,19.1921],[-98.1007,19.1834],[-98.1018,19.1779],[-98.1002,19.17],[-98.1001,19.169],[-98.1006,19.1673],[-98.1009,19.1649],[-98.1003,19.1634],[-98.1002,19.1633],[-98.1,19.1633],[-98.0998,19.1632],[-98.0996,19.1632],[-98.0987,19.1637],[-98.0976,19.1646],[-98.0973,19.1647],[-98.097,19.165],[-98.0936,19.1662],[-98.0798,19.176],[-98.0696,19.1852],[-98.0593,19.2012],[-98.0415,19.2102],[-98.0317,19.2309],[-98.0338,19.2317]]]},"properties":{"CVE_ENT":"29","CVE_MUN":"028","CVEGEO":"29028","NOMGEO":"Teolocholco"}},
{"type":"Feature","geometry":{"type":"Polygon","coordinates":[[[-97.7099,19.3683],[-97.7368,19.352],[-97.7212,19.3429],[-97.7366,19.3308],[-97.7564,19.3346],[-97.752,19.3559],[-97.7892,19.3527],[-97.8021,19.3554],[-97.8112,19.3694],[-97.8296,19.3677],[-97.8553,19.3935],[-97.8642,19.3816],[-97.8661,19.3794],[-97.8665,19.3779],[-97.8632,19.3759],[-97.856,19.3742],[-97.8556,19.3662],[-97.8202,19.3626],[-97.8226,19.355],[-97.8015,19.3442],[-97.8209,19.3047],[-97.8005,19.3016],[-97.7714,19.2838],[-97.7451,19.3053],[-97.7293,19.2931],[-97.7196,19.3048],[-97.6961,19.3181],[-97.7073,19.3287],[-97.6901,19.3712],[-97.7099,19.3683]]]},"properties":{"CVE_ENT":"29","CVE_MUN":"008","CVEGEO":"29008","NOMGEO":"Cuapiaxtla"}},
{"type":"Feature","geometry":{"type":"Polygon","coordinates":[[[-97.9485,19.5423],[-97.9553,19.5555],[-97.968,19.559],[-97.9833,19.572],[-97.987,19.5692],[-97.985,19.5657],[-97.9892,19.5608],[-97.9921,19.5587],[-97.9928,19.5574],[-97.993,19.5571],[-97.9933,19.5569],[-97.9938,19.5566],[-97.994,19.5564],[-97.9941,19.5563],[-97.9942,19.5561],[-97.9942,19.556],[-97.9942,19.5559],[-97.9941,19.5557],[-97.994,19.5554],[-97.994,19.5541],[-97.995,19.551],[-97.9988,19.5462],[-97.9998,19.5435],[-97.9999,19.5432],[-98,19.543],[-98.0001,19.543],[-98.0007,19.5424],[-98.0011,19.5422],[-98.0017,19.542],[-98.003,19.5413],[-98.0039,19.5407],[-98.0046,19.5403],[-98.005,19.5401],[-98.0054,19.54],[-98.0227,19.5221],[-98.0223,19.5145],[-98.0181,19.5058],[-97.9882,19.5018],[-97.9727,19.5415],[-97.9485,19.5423]]]},"properties":{"CVE_ENT":"29","CVE_MUN":"047","CVEGEO":"29047","NOMGEO":"Lázaro Cárdenas"}},
{"type":"Feature","geometry":{"type":"Polygon","coordinates":[[[-98.0072,19.438],[-98.0243,19.4407],[-98.0449,19.4354],[-98.059,19.4387],[-98.0726,19.4014],[-98.0836,19.404],[-98.0355,19.377],[-98.0329,19.3974],[-98.0162,19.4087],[-97.9942,19.3985],[-97.9873,19.4145],[-97.9708,19.415],[-97.9951,19.4399],[-98.0072,19.438]]]},"properties":{"CVE_ENT":"29","CVE_MUN":"039","CVEGEO":"29039","NOMGEO":"Xaloztoc"}},
{"type":"Feature","geometry":{"type":"Polygon","coordinates":[[[-98.059,19.4387],[-98.0771,19.4411],[-98.0909,19.4252],[-98.1079,19.4185],[-98.117,19.4379],[-98.1326,19.4241],[-98.1448,19.4278],[-98.1474,19.4574],[-98.1567,19.4784],[-98.1723,19.471],[-98.1772,19.4738],[-98.179,19.4742],[-98.1792,19.4743],[-98.1779,19.4695],[-98.1782,19.4671],[-98.1784,19.4638],[-98.1786,19.4615],[-98.1789,19.4569],[-98.1784,19.4451],[-98.1796,19.4396],[-98.1798,19.438],[-98.1777,19.437],[-98.1735,19.4423],[-98.1666,19.4382],[-98.1571,19.4436],[-98.1471,19.4343],[-98.1606,19.3947],[-98.151,19.3793],[-98.1495,19.3726],[-98.1343,19.3799],[-98.1391,19.393],[-98.1248,19.4044],[-98.1249,19.4049],[-98.1249,19.4057],[-98.1252,19.407],[-98.1237,19.4101],[-98.117,19.4123],[-98.0836,19.404],[-98.0726,19.4014],[-98.059,19.4387]]]},"properties":{"CVE_ENT":"29","CVE_MUN":"005","CVEGEO":"29005","NOMGEO":"Apizaco"}},
{"type":"Feature","geometry":{"type":"Polygon","coordinates":[[[-98.3817,19.6094],[-98.4096,19.6167],[-98.4118,19.6048],[-98.447,19.611],[-98.4588,19.5968],[-98.4249,19.5801],[-98.3851,19.576],[-98.372,19.58],[-98.3817,19.6094]]]},"properties":{"CVE_ENT":"29","CVE_MUN":"045","CVEGEO":"29045","NOMGEO":"Benito Juárez"}},
{"type":"Feature","geometry":{"type":"Polygon","coordinates":[[[-97.8703,19.2706],[-97.8965,19.2917],[-97.9173,19.2834],[-97.9695,19.2472],[-97.9848,19.243],[-97.9744,19.2386],[-97.9264,19.2407],[-97.9132,19.2279],[-97.8979,19.2381],[-97.8779,19.2415],[-97.8651,19.2539],[-97.8703,19.2706]]]},"properties":{"CVE_ENT":"29","CVE_MUN":"016","CVEGEO":"29016","NOMGEO":"Ixtenco"}},
{"type":"Feature","geometry":{"type":"Polygon","coordinates":[[[-98.3497,19.2702],[-98.3514,19.2847],[-98.3705,19.2918],[-98.3786,19.3034],[-98.4077,19.3159],[-98.4103,19.2917],[-98.3804,19.2617],[-98.378,19.2546],[-98.3587,19.2499],[-98.3497,19.2702]]]},"properties":{"CVE_ENT":"29","CVE_MUN":"019","CVEGEO":"29019","NOMGEO":"Tepetitla de Lardizábal"}},
{"type":"Feature","geometry":{"type":"Polygon","coordinates":[[[-98.372,19.58],[-98.3851,19.576],[-98.3975,19.5569],[-98.3934,19.5423],[-98.4198,19.5295],[-98.4086,19.5113],[-98.3935,19.5033],[-98.3958,19.4897],[-98.3816,19.4792],[-98.3768,19.4647],[-98.3627,19.4608],[-98.349,19.4475],[-98.3497,19.4316],[-98.3654,19.4234],[-98.3453,19.3799],[-98.3297,19.3952],[-98.3095,19.3876],[-98.2955,19.4034],[-98.2998,19.419],[-98.2917,19.4585],[-98.2832,19.4712],[-98.2891,19.4851],[-98.286,19.4951],[-98.2808,19.5023],[-98.2813,19.5032],[-98.2793,19.5047],[-98.279,19.5053],[-98.2761,19.5081],[-98.2762,19.5081],[-98.2786,19.5091],[-98.2857,19.5121],[-98.2857,19.5122],[-98.2863,19.5124],[-98.2864,19.5124],[-98.2947,19.5103],[-98.2992,19.5078],[-98.3053,19.5116],[-98.3008,19.5262],[-98.3006,19.5347],[-98.2987,19.5378],[-98.3013,19.5384],[-98.3047,19.5392],[-98.313,19.5409],[-98.3226,19.543],[-98.3223,19.5667],[-98.3683,19.5735],[-98.372,19.58]]]},"properties":{"CVE_ENT":"29","CVE_MUN":"014","CVEGEO":"29014","NOMGEO":"Hueyotlipan"}},
{"type":"Feature","geometry":{"type":"Polygon","coordinates":[[[-98.3095,19.3876],[-98.3297,19.3952],[-98.3453,19.3799],[-98.3654,19.4234],[-98.376,19.4138],[-98.4146,19.4176],[-98.4207,19.3955],[-98.4408,19.3956],[-98.4658,19.3823],[-98.4872,19.3922],[-98.487,19.3896],[-98.4703,19.3608],[-98.4549,19.3455],[-98.4421,19.3276],[-98.4269,19.327],[-98.4077,19.3159],[-98.3786,19.3034],[-98.3705,19.2918],[-98.3514,19.2847],[-98.3497,19.2702],[-98.349,19.2708],[-98.3355,19.2842],[-98.3444,19.3116],[-98.3206,19.3169],[-98.3002,19.3449],[-98.3091,19.3499],[-98.306,19.3793],[-98.3095,19.3876]]]},"properties":{"CVE_ENT":"29","CVE_MUN":"015","CVEGEO":"29015","NOMGEO":"Ixtacuixtla de Mariano Matamoros"}},
{"type":"Feature","geometry":{"type":"Polygon","coordinates":[[[-98.1534,19.3384],[-98.1692,19.3404],[-98.1781,19.3432],[-98.1803,19.3415],[-98.1841,19.3403],[-98.1918,19.3351],[-98.1874,19.3308],[-98.1859,19.3289],[-98.1841,19.3257],[-98.1447,19.3091],[-98.1398,19.3141],[-98.1171,19.299],[-98.1082,19.3073],[-98.0967,19.3036],[-98.0939,19.3012],[-98.0928,19.3006],[-98.0922,19.3003],[-98.092,19.3002],[-98.0917,19.3002],[-98.0915,19.3002],[-98.091,19.3004],[-98.0901,19.3006],[-98.0888,19.3003],[-98.0838,19.3006],[-98.0765,19.2959],[-98.0732,19.3002],[-98.0753,19.3059],[-98.0825,19.3172],[-98.0875,19.3197],[-98.0925,19.3237],[-98.1151,19.318],[-98.1534,19.3384]]]},"properties":{"CVE_ENT":"29","CVE_MUN":"018","CVEGEO":"29018","NOMGEO":"Contla de Juan Cuamatzi"}},
{"type":"Feature","geometry":{"type":"Polygon","coordinates":[[[-98.0282,19.3717],[-98.0836,19.404],[-98.117,19.4123],[-98.1252,19.407],[-98.1249,19.4049],[-98.1246,19.404],[-98.124,19.4033],[-98.1237,19.403],[-98.1228,19.402],[-98.1222,19.4006],[-98.1216,19.3983],[-98.1215,19.3976],[-98.1216,19.3962],[-98.1261,19.3866],[-98.1266,19.3821],[-98.1266,19.3795],[-98.1286,19.3778],[-98.1275,19.3743],[-98.1298,19.3721],[-98.1278,19.3696],[-98.1288,19.3665],[-98.1288,19.3659],[-98.1287,19.3656],[-98.1274,19.366],[-98.1259,19.3657],[-98.1229,19.3638],[-98.1225,19.3631],[-98.1067,19.3668],[-98.0837,19.3571],[-98.0698,19.3676],[-98.0616,19.3594],[-98.0337,19.3555],[-98.0282,19.3717]]]},"properties":{"CVE_ENT":"29","CVE_MUN":"038","CVEGEO":"29038","NOMGEO":"Tzompantepec"}},
{"type":"Feature","geometry":{"type":"Polygon","coordinates":[[[-98.1839,19.3647],[-98.1677,19.3716],[-98.1525,19.374],[-98.151,19.3793],[-98.1606,19.3947],[-98.1471,19.4343],[-98.1571,19.4436],[-98.1666,19.4382],[-98.1735,19.4423],[-98.1777,19.437],[-98.1782,19.4356],[-98.2064,19.3985],[-98.2022,19.3765],[-98.1839,19.3647]]]},"properties":{"CVE_ENT":"29","CVE_MUN":"043","CVEGEO":"29043","NOMGEO":"Yauhquemehcan"}},
{"type":"Feature","geometry":{"type":"Polygon","coordinates":[[[-98.1882,19.1355],[-98.1669,19.1501],[-98.1549,19.1681],[-98.1725,19.1615],[-98.1862,19.1682],[-98.201,19.1647],[-98.2026,19.1527],[-98.2246,19.1381],[-98.2245,19.1379],[-98.208,19.1327],[-98.1882,19.1355]]]},"properties":{"CVE_ENT":"29","CVE_MUN":"027","CVEGEO":"29027","NOMGEO":"Tenancingo"}},
{"type":"Feature","geometry":{"type":"Polygon","coordinates":[[[-98.1013,19.52],[-98.1229,19.5402],[-98.1333,19.5652],[-98.1476,19.5575],[-98.165,19.5699],[-98.1576,19.5872],[-98.1778,19.601],[-98.2142,19.5893],[-98.2328,19.5908],[-98.2479,19.5813],[-98.2391,19.5619],[-98.2417,19.5384],[-98.208,19.5025],[-98.1832,19.4996],[-98.1819,19.4927],[-98.1818,19.4913],[-98.1816,19.49],[-98.1815,19.4896],[-98.1814,19.4894],[-98.1624,19.4939],[-98.1567,19.4971],[-98.1539,19.5057],[-98.1198,19.5019],[-98.1131,19.5168],[-98.1013,19.52]]]},"properties":{"CVE_ENT":"29","CVE_MUN":"003","CVEGEO":"29003","NOMGEO":"Atlangatepec"}}
]}