{"type":"FeatureCollection", "features": [
{"type":"Feature","geometry":{"type":"MultiPolygon","coordinates":[[[[-114.4175,29.988],[-114.4233,29.9687],[-114.4114,29.9583],[-114.3959,29.9667],[-114.4023,29.9831],[-114.4175,29.988]]],[[[-114.8571,31.3896],[-114.9878,31.3616],[-115.0298,31.4484],[-115.0532,31.4405],[-115.0697,31.4781],[-115.0751,31.5611],[-115.0723,31.675],[-115.0563,31.7125],[-115.1066,31.8055],[-115.1458,31.8247],[-115.1753,31.8452],[-115.1875,31.8303],[-115.2277,31.8176],[-115.2928,31.7911],[-115.3119,31.8046],[-115.3833,31.7723],[-115.453,31.7282],[-115.5373,31.6698],[-115.5666,31.6434],[-115.6036,31.6244],[-115.5605,31.559],[-115.4637,31.4794],[-115.4382,31.2923],[-115.3946,30.9718],[-115.3425,30.815],[-115.3078,30.7724],[-115.2365,30.7721],[-115.2148,30.679],[-115.1563,30.6036],[-115.0963,30.5594],[-115.1009,30.5463],[-115.1211,30.5178],[-115.1059,30.4963],[-115.127,30.4668],[-115.122,30.4218],[-115.0893,30.4288],[-115.0486,30.4509],[-114.9687,30.406],[-114.9662,30.3578],[-114.9525,30.3061],[-114.8754,30.2262],[-114.8455,30.1232],[-114.841,30.0746],[-114.7872,30.0557],[-114.6914,29.9978],[-114.5497,29.7186],[-114.486,29.5931],[-114.3396,29.5493],[-114.2814,29.3595],[-114.2248,29.3243],[-114.1084,29.292],[-114.0279,29.286],[-113.9993,29.2946],[-113.9666,29.2987],[-113.959,29.3592],[-113.9298,29.3963],[-113.9316,29.4167],[-113.9227,29.4306],[-113.8931,29.4341],[-113.8818,29.4448],[-113.8485,29.439],[-113.8358,29.4556],[-113.8625,29.4624],[-113.8967,29.4848],[-113.9098,29.4995],[-113.9431,29.5242],[-113.9959,29.5778],[-114.0209,29.5808],[-114.0329,29.5949],[-114.0474,29.5976],[-114.064,29.6295],[-114.1104,29.6528],[-114.1323,29.6718],[-114.1489,29.6939],[-114.1814,29.7081],[-114.2008,29.7287],[-114.2072,29.7436],[-114.2205,29.746],[-114.2446,29.7631],[-114.2569,29.7599],[-114.2704,29.7704],[-114.2925,29.7673],[-114.2871,29.7495],[-114.2961,29.7421],[-114.3177,29.7412],[-114.3424,29.7466],[-114.3456,29.7604],[-114.3903,29.7814],[-114.3945,29.8097],[-114.4148,29.8561],[-114.4092,29.8787],[-114.413,29.8907],[-114.4294,29.9059],[-114.4625,29.9099],[-114.4729,29.9153],[-114.4828,29.9432],[-114.4943,29.9529],[-114.5341,29.9682],[-114.5512,30.0018],[-114.5652,30.0114],[-114.5833,30.0522],[-114.5854,30.0768],[-114.597,30.0888],[-114.6079,30.1116],[-114.6275,30.1195],[-114.6352,30.1429],[-114.6635,30.1845],[-114.6688,30.198],[-114.6505,30.2253],[-114.652,30.2416],[-114.6401,30.2576],[-114.6561,30.2791],[-114.6471,30.3044],[-114.6443,30.3369],[-114.6348,30.3495],[-114.6435,30.3775],[-114.6305,30.4193],[-114.6387,30.4589],[-114.631,30.4775],[-114.634,30.5026],[-114.6488,30.527],[-114.6526,30.5573],[-114.6768,30.5874],[-114.6989,30.6359],[-114.6945,30.678],[-114.7054,30.7123],[-114.6932,30.7446],[-114.7002,30.7698],[-114.6974,30.8185],[-114.7096,30.8485],[-114.7042,30.8625],[-114.7097,30.9051],[-114.7179,30.9319],[-114.7363,30.9461],[-114.786,30.9662],[-114.8187,30.984],[-114.8341,31.0017],[-114.8316,31.0254],[-114.8117,31.044],[-114.833,31.0665],[-114.8485,31.073],[-114.8701,31.0937],[-114.8856,31.1236],[-114.8909,31.1528],[-114.8813,31.2362],[-114.8821,31.2523],[-114.8934,31.2663],[-114.8785,31.3405],[-114.8565,31.3827],[-114.8571,31.3896]]]]},"properties":{"CVE_ENT":"02","CVE_MUN":"007","CVEGEO":"02007","NOMGEO":"San Felipe"}},
{"type":"Feature","geometry":{"type":"Polygon","coordinates":[[[-116.7386,32.5668],[-116.7553,32.5566],[-116.7381,32.5291],[-116.7097,32.5177],[-116.7211,32.4804],[-116.7151,32.4731],[-116.6911,32.4835],[-116.6755,32.4551],[-116.6684,32.4112],[-116.653,32.3983],[-116.6658,32.3875],[-116.6394,32.3638],[-116.6567,32.354],[-116.6911,32.3263],[-116.6892,32.2861],[-116.6353,32.2743],[-116.6209,32.2653],[-116.6109,32.2442],[-116.6068,32.2112],[-116.5293,32.2454],[-116.1462,32.2374],[-115.8743,32.3862],[-115.8822,32.5933],[-115.8793,32.6361],[-116.0898,32.6197],[-116.4003,32.5949],[-116.7386,32.5668]]]},"properties":{"CVE_ENT":"02","CVE_MUN":"003","CVEGEO":"02003","NOMGEO":"Tecate"}},
{"type":"Feature","geometry":{"type":"Polygon","coordinates":[[[-116.6068,32.2112],[-116.6109,32.2442],[-116.6209,32.2653],[-116.6353,32.2743],[-116.6892,32.2861],[-116.6911,32.3263],[-116.6567,32.354],[-116.6394,32.3638],[-116.6658,32.3875],[-116.653,32.3983],[-116.6684,32.4112],[-116.6755,32.4551],[-116.6911,32.4835],[-116.7151,32.4731],[-116.7211,32.4804],[-116.7097,32.5177],[-116.7381,32.5291],[-116.7553,32.5566],[-116.7388,32.5668],[-117.1245,32.5343],[-117.1241,32.4924],[-117.1125,32.45],[-117.1027,32.4389],[-117.0922,32.4087],[-117.0661,32.4124],[-117.0629,32.4264],[-117.0506,32.4208],[-117.0461,32.4124],[-117.0261,32.4152],[-116.9858,32.4019],[-116.9742,32.3748],[-116.9627,32.3781],[-116.9493,32.3659],[-116.9493,32.3433],[-116.9068,32.3351],[-116.9493,32.3153],[-116.9493,32.2984],[-116.8225,32.2983],[-116.6723,32.1824],[-116.6068,32.2112]]]},"properties":{"CVE_ENT":"02","CVE_MUN":"004","CVEGEO":"02004","NOMGEO":"Tijuana"}},
{"type":"Feature","geometry":{"type":"MultiPolygon","coordinates":[[[[-115.2176,28.3777],[-115.2416,28.3567],[-115.2506,28.3394],[-115.2478,28.3156],[-115.262,28.3004],[-115.2539,28.2854],[-115.2579,28.2734],[-115.238,28.2315],[-115.253,28.2068],[-115.2921,28.1632],[-115.3345,28.1232],[-115.3517,28.1158],[-115.3556,28.0767],[-115.3044,28.0951],[-115.2839,28.0902],[-115.2657,28.0732],[-115.2508,28.0357],[-115.2236,28.0341],[-115.1809,28.0404],[-115.1886,28.0604],[-115.1815,28.0692],[-115.1864,28.104],[-115.1576,28.1426],[-115.1564,28.1793],[-115.1724,28.2092],[-115.1733,28.2262],[-115.1638,28.2604],[-115.174,28.2888],[-115.1765,28.3101],[-115.1855,28.3139],[-115.1962,28.3357],[-115.1943,28.3604],[-115.2176,28.3777]]],[[[-115.6036,31.6244],[-115.7096,31.7825],[-115.8478,31.9901],[-115.856,32.1131],[-115.8743,32.3862],[-116.1462,32.2374],[-116.5293,32.2454],[-116.6068,32.2112],[-116.6723,32.1824],[-116.8827,32.0892],[-116.8812,32.0676],[-116.8871,32.0344],[-116.881,32.0187],[-116.8492,31.9871],[-116.8299,31.9786],[-116.7995,31.9821],[-116.7825,31.9784],[-116.7633,31.964],[-116.7566,31.945],[-116.7564,31.9143],[-116.7463,31.9021],[-116.7219,31.9026],[-116.6994,31.8948],[-116.6771,31.8692],[-116.6568,31.8613],[-116.6264,31.8602],[-116.6121,31.8395],[-116.612,31.8021],[-116.6199,31.7829],[-116.6102,31.77],[-116.6218,31.7496],[-116.6547,31.7233],[-116.6722,31.719],[-116.7243,31.7481],[-116.7434,31.7433],[-116.7177,31.7256],[-116.7091,31.7118],[-116.6966,31.7161],[-116.6499,31.6645],[-116.6542,31.6423],[-116.6676,31.6179],[-116.6538,31.5792],[-116.6743,31.5788],[-116.6881,31.5604],[-116.6655,31.5487],[-116.6595,31.5291],[-116.6371,31.5184],[-116.6087,31.4972],[-116.6047,31.4669],[-116.5638,31.4613],[-116.5255,31.437],[-116.5006,31.4108],[-116.4854,31.3749],[-116.4679,31.3519],[-116.4557,31.3467],[-116.4525,31.3314],[-116.4402,31.325],[-116.4154,31.2951],[-116.3927,31.2838],[-116.384,31.2663],[-116.3659,31.2502],[-116.3399,31.2076],[-116.3346,31.1915],[-116.3095,31.1525],[-116.3131,31.0969],[-116.3303,31.0109],[-116.3387,30.9853],[-116.3305,30.9593],[-116.3189,30.9557],[-116.2853,30.9693],[-116.2675,30.9651],[-116.2443,30.9326],[-116.2215,30.9178],[-116.139,30.9627],[-116.1345,30.9781],[-116.0946,30.9826],[-116.0863,31.0143],[-116.0586,31.0218],[-116.0515,31.0157],[-116.0257,31.042],[-115.9963,31.0368],[-115.9867,31.0471],[-115.9608,31.0444],[-115.9367,31.0625],[-115.9114,31.0694],[-115.8918,31.0806],[-115.8527,31.0805],[-115.8233,31.0761],[-115.7741,31.0628],[-115.7581,31.0796],[-115.7423,31.1044],[-115.7215,31.1008],[-115.6917,31.1157],[-115.6928,31.1218],[-115.6423,31.1264],[-115.6269,31.1201],[-115.6228,31.0993],[-115.6028,31.0752],[-115.5869,31.0899],[-115.5575,31.0749],[-115.5772,31.0477],[-115.5534,30.7193],[-115.3257,30.7334],[-115.3078,30.7724],[-115.3425,30.815],[-115.3946,30.9718],[-115.4382,31.2923],[-115.4637,31.4794],[-115.5605,31.559],[-115.6036,31.6244]]]]},"properties":{"CVE_ENT":"02","CVE_MUN":"001","CVEGEO":"02001","NOMGEO":"Ensenada"}},
{"type":"Feature","geometry":{"type":"MultiPolygon","coordinates":[[[[-115.5924,28.3168],[-115.6067,28.3007],[-115.5849,28.2969],[-115.5924,28.3168]]],[[[-112.8923,28.6783],[-112.8666,28.6525],[-112.8678,28.6439],[-112.8429,28.6396],[-112.8298,28.6273],[-112.7989,28.6106],[-112.7893,28.5873],[-112.7722,28.5769],[-112.758,28.5858],[-112.7658,28.6034],[-112.803,28.6358],[-112.8599,28.6724],[-112.8923,28.6783]]],[[[-112.9314,28.7094],[-112.9271,28.6948],[-112.8987,28.6834],[-112.8973,28.6968],[-112.9208,28.6997],[-112.9314,28.7094]]],[[[-113.5246,29.0955],[-113.5094,29.06],[-113.5023,29.0889],[-113.5246,29.0955]]],[[[-113.5139,29.5515],[-113.5248,29.5433],[-113.556,29.5341],[-113.5723,29.522],[-113.5642,29.511],[-113.5779,29.4682],[-113.5923,29.451],[-113.5882,29.4089],[-113.5699,29.4001],[-113.5314,29.3518],[-113.5255,29.3348],[-113.5102,29.3259],[-113.5033,29.2977],[-113.4943,29.2842],[-113.474,29.2778],[-113.4428,29.2757],[-113.4223,29.2358],[-113.4044,29.2095],[-113.3633,29.187],[-113.3536,29.1708],[-113.3197,29.1572],[-113.3007,29.1451],[-113.2656,29.1066],[-113.244,29.0671],[-113.2004,29.048],[-113.1886,29.0284],[-113.1546,29.015],[-113.1229,28.9896],[-113.1157,28.9886],[-113.1152,29.0286],[-113.1016,29.0556],[-113.1484,29.0662],[-113.1538,29.0937],[-113.1748,29.131],[-113.1724,29.1969],[-113.1786,29.2489],[-113.168,29.2794],[-113.1835,29.2896],[-113.2072,29.2847],[-113.2395,29.2887],[-113.2555,29.2828],[-113.2822,29.2888],[-113.3406,29.2947],[-113.3651,29.3067],[-113.3763,29.3458],[-113.352,29.3873],[-113.3613,29.393],[-113.3754,29.4254],[-113.3839,29.4336],[-113.3954,29.4602],[-113.4066,29.4607],[-113.4254,29.4739],[-113.4315,29.4924],[-113.479,29.5321],[-113.5128,29.5416],[-113.5139,29.5515]]],[[[-118.2615,29.1849],[-118.2702,29.1886],[-118.2949,29.1715],[-118.3159,29.1753],[-118.334,29.1694],[-118.3651,29.1462],[-118.3512,29.1148],[-118.3647,29.0775],[-118.344,29.0658],[-118.3388,29.0552],[-118.3171,29.0378],[-118.3029,28.9718],[-118.2909,28.9608],[-118.2956,28.9388],[-118.2828,28.8933],[-118.2609,28.8835],[-118.2459,28.8946],[-118.2386,28.9153],[-118.2281,28.9215],[-118.2243,28.9558],[-118.2295,28.9961],[-118.2217,29.0141],[-118.2281,29.062],[-118.2534,29.0945],[-118.2768,29.1037],[-118.2882,29.1444],[-118.2615,29.1849]]],[[[-115.3078,30.7724],[-115.3257,30.7334],[-115.5534,30.7193],[-115.5772,31.0477],[-115.5575,31.0749],[-115.5869,31.0899],[-115.6028,31.0752],[-115.6228,31.0993],[-115.6269,31.1201],[-115.6423,31.1264],[-115.6928,31.1218],[-115.6917,31.1157],[-115.7215,31.1008],[-115.7423,31.1044],[-115.7581,31.0796],[-115.7741,31.0628],[-115.8233,31.0761],[-115.8527,31.0805],[-115.8918,31.0806],[-115.9114,31.0694],[-115.9367,31.0625],[-115.9608,31.0444],[-115.9867,31.0471],[-115.9963,31.0368],[-116.0257,31.042],[-116.0515,31.0157],[-116.0586,31.0218],[-116.0863,31.0143],[-116.0946,30.9826],[-116.1345,30.9781],[-116.139,30.9627],[-116.2215,30.9178],[-116.2103,30.9056],[-116.2006,30.8824],[-116.1762,30.8627],[-116.1609,30.8636],[-116.1408,30.8543],[-116.1066,30.8236],[-116.0866,30.8218],[-116.0644,30.8071],[-116.0526,30.7825],[-116.0468,30.7189],[-116.0323,30.6962],[-116.0281,30.6648],[-116.0294,30.6043],[-116.0346,30.5561],[-116.0485,30.4725],[-116.0359,30.458],[-116.0321,30.4369],[-116.017,30.4287],[-116.0052,30.3858],[-116.0014,30.3599],[-115.9796,30.3648],[-115.9964,30.3871],[-115.9947,30.4066],[-116.0149,30.431],[-116.0224,30.4502],[-116.0033,30.4542],[-115.9842,30.4314],[-115.9713,30.4269],[-115.9522,30.464],[-115.9361,30.4577],[-115.9432,30.4442],[-115.9411,30.4122],[-115.9751,30.4076],[-115.9775,30.3947],[-115.9438,30.4037],[-115.929,30.4032],[-115.9006,30.3928],[-115.8524,30.3596],[-115.8341,30.3386],[-115.8162,30.3086],[-115.8025,30.2782],[-115.7953,30.2387],[-115.7949,30.1951],[-115.8029,30.1522],[-115.8015,30.134],[-115.7895,30.1183],[-115.7813,30.0909],[-115.7863,30.0579],[-115.8052,29.9732],[-115.8102,29.9615],[-115.7883,29.9594],[-115.7429,29.9479],[-115.7234,29.9285],[-115.7021,29.9003],[-115.6858,29.8423],[-115.6865,29.8075],[-115.6983,29.7556],[-115.6787,29.7439],[-115.6212,29.6965],[-115.6031,29.6979],[-115.5807,29.6888],[-115.5636,29.6635],[-115.5252,29.6358],[-115.5039,29.6163],[-115.4784,29.6268],[-115.4453,29.6185],[-115.3939,29.5747],[-115.3786,29.5581],[-115.3409,29.5558],[-115.3219,29.5451],[-115.2978,29.5402],[-115.2656,29.5189],[-115.2555,29.5176],[-115.214,29.4761],[-115.1953,29.4442],[-115.1785,29.4314],[-115.1538,29.4207],[-115.1069,29.4214],[-115.0814,29.4183],[-115.029,29.3973],[-115.013,29.3864],[-114.9813,29.382],[-114.9497,29.3596],[-114.9113,29.3151],[-114.8635,29.2756],[-114.8461,29.2459],[-114.8303,29.2411],[-114.8126,29.2136],[-114.7993,29.2118],[-114.7859,29.1971],[-114.7686,29.1965],[-114.7453,29.1829],[-114.7356,29.1613],[-114.7343,29.1354],[-114.7184,29.1168],[-114.6963,29.1104],[-114.6681,29.1101],[-114.6521,29.0967],[-114.6273,29.0902],[-114.6172,29.0624],[-114.6087,29.0575],[-114.5991,28.9992],[-114.6013,28.986],[-114.5814,28.9736],[-114.5625,28.9704],[-114.5487,28.9555],[-114.5364,28.9278],[-114.5097,28.934],[-114.4891,28.9321],[-114.4619,28.9101],[-114.4511,28.9078],[-114.4374,28.8806],[-114.4193,28.8811],[-114.4059,28.8613],[-114.3968,28.8161],[-114.3773,28.8134],[-114.3634,28.7996],[-114.3597,28.7799],[-114.3438,28.7572],[-114.3453,28.7349],[-114.3149,28.7262],[-114.2959,28.7039],[-114.286,28.706],[-114.2717,28.6925],[-114.2692,28.66],[-114.2476,28.6586],[-114.2376,28.6667],[-114.1838,28.6571],[-114.1639,28.6406],[-114.1554,28.6129],[-114.1614,28.5693],[-114.1506,28.56],[-114.1165,28.559],[-114.0962,28.546],[-114.0863,28.5226],[-114.0691,28.5138],[-114.0692,28.4885],[-114.0458,28.465],[-114.0474,28.4426],[-114.064,28.387],[-114.0909,28.3228],[-114.1241,28.2557],[-114.1154,28.243],[-114.094,28.242],[-114.0723,28.2616],[-114.0524,28.2239],[-114.0476,28.1899],[-114.0563,28.1728],[-114.039,28.1707],[-114.0505,28.1478],[-114.054,28.1233],[-114.0404,28.0907],[-114.0609,28.0822],[-114.0761,28.115],[-114.077,28.1457],[-114.061,28.1714],[-114.0729,28.1852],[-114.1098,28.1202],[-114.1005,28.1076],[-114.1018,28.074],[-114.0784,28.0546],[-114.0876,28.0248],[-114.1354,28.0295],[-114.1151,28.0483],[-114.1193,28.0811],[-114.1382,28.0841],[-114.1873,28.02],[-114.2054,28],[-113.9167,28],[-113.7333,28],[-113.5,28],[-113.25,28],[-113.0667,28],[-112.7648,28],[-112.7821,28.0025],[-112.8039,28.0237],[-112.8028,28.0455],[-112.7893,28.0662],[-112.8029,28.0842],[-112.8126,28.1206],[-112.8103,28.1475],[-112.7962,28.1873],[-112.8098,28.2163],[-112.8394,28.2498],[-112.8631,28.2678],[-112.8726,28.2808],[-112.8687,28.3013],[-112.8756,28.3092],[-112.8695,28.3368],[-112.8493,28.3821],[-112.8598,28.4041],[-112.849,28.4216],[-112.8462,28.4404],[-112.8671,28.4306],[-112.8803,28.4344],[-112.8745,28.4503],[-112.9036,28.4751],[-112.9658,28.4578],[-113.0012,28.4545],[-113.0355,28.4672],[-113.0388,28.4748],[-113.0758,28.4854],[-113.1078,28.5113],[-113.1126,28.5482],[-113.1309,28.602],[-113.1303,28.6364],[-113.1588,28.6601],[-113.1937,28.7435],[-113.1919,28.765],[-113.1964,28.7918],[-113.2129,28.804],[-113.2156,28.8186],[-113.2336,28.8355],[-113.2603,28.8405],[-113.2702,28.8309],[-113.3121,28.8034],[-113.3502,28.803],[-113.3515,28.8169],[-113.3637,28.8221],[-113.3707,28.8372],[-113.366,28.8703],[-113.3803,28.8931],[-113.3738,28.9084],[-113.3921,28.9125],[-113.3868,28.9402],[-113.4142,28.9237],[-113.4285,28.9347],[-113.4322,28.9518],[-113.4813,28.9419],[-113.4871,28.9274],[-113.4719,28.9122],[-113.478,28.8964],[-113.4948,28.8901],[-113.5242,28.8921],[-113.5353,28.9068],[-113.5577,28.9481],[-113.5447,28.9621],[-113.5471,28.9849],[-113.5611,29],[-113.5607,29.0233],[-113.5387,29.058],[-113.5484,29.0654],[-113.5673,29.0948],[-113.5671,29.1077],[-113.5813,29.1253],[-113.5933,29.1304],[-113.6083,29.1575],[-113.6221,29.1615],[-113.6272,29.1754],[-113.643,29.1843],[-113.6392,29.1981],[-113.6545,29.2059],[-113.6528,29.2244],[-113.6256,29.2527],[-113.6387,29.2847],[-113.6952,29.3249],[-113.7163,29.3488],[-113.726,29.3668],[-113.7517,29.383],[-113.7722,29.4097],[-113.7978,29.4181],[-113.8319,29.435],[-113.8358,29.4556],[-113.8485,29.439],[-113.8818,29.4448],[-113.8931,29.4341],[-113.9227,29.4306],[-113.9316,29.4167],[-113.9298,29.3963],[-113.959,29.3592],[-113.9666,29.2987],[-113.9993,29.2946],[-114.0279,29.286],[-114.1084,29.292],[-114.2248,29.3243],[-114.2814,29.3595],[-114.3396,29.5493],[-114.486,29.5931],[-114.5497,29.7186],[-114.6914,29.9978],[-114.7872,30.0557],[-114.841,30.0746],[-114.8455,30.1232],[-114.8754,30.2262],[-114.9525,30.3061],[-114.9662,30.3578],[-114.9687,30.406],[-115.0486,30.4509],[-115.0893,30.4288],[-115.122,30.4218],[-115.127,30.4668],[-115.1059,30.4963],[-115.1211,30.5178],[-115.1009,30.5463],[-115.0963,30.5594],[-115.1563,30.6036],[-115.2148,30.679],[-115.2365,30.7721],[-115.3078,30.7724]]]]},"properties":{"CVE_ENT":"02","CVE_MUN":"006","CVEGEO":"02006","NOMGEO":"San Quintín"}},
{"type":"Feature","geometry":{"type":"Polygon","coordinates":[[[-117.057,32.4237],[-117.0629,32.4264],[-117.0631,32.4228],[-117.0661,32.4124],[-117.0922,32.4087],[-117.091,32.3978],[-117.0713,32.3648],[-117.0545,32.3296],[-117.0403,32.2882],[-117.0241,32.2684],[-116.9571,32.2519],[-116.9356,32.2419],[-116.9223,32.226],[-116.9076,32.1773],[-116.887,32.1258],[-116.8827,32.0892],[-116.6723,32.1824],[-116.8225,32.2983],[-116.9493,32.2984],[-116.9493,32.3153],[-116.9068,32.3351],[-116.9493,32.3433],[-116.9493,32.3659],[-116.9627,32.3781],[-116.9742,32.3748],[-116.9858,32.4019],[-117.0261,32.4152],[-117.0461,32.4124],[-117.0524,32.4169],[-117.0506,32.4208],[-117.0528,32.4218],[-117.057,32.4237]]]},"properties":{"CVE_ENT":"02","CVE_MUN":"005","CVEGEO":"02005","NOMGEO":"Playas de Rosarito"}},
{"type":"Feature","geometry":{"type":"MultiPolygon","coordinates":[[[[-114.7465,31.8019],[-114.7697,31.8168],[-114.7999,31.8126],[-114.8002,31.7631],[-114.7918,31.731],[-114.7639,31.7057],[-114.7299,31.6953],[-114.7175,31.6812],[-114.688,31.6869],[-114.6682,31.6763],[-114.6498,31.6821],[-114.6687,31.7188],[-114.7174,31.7517],[-114.7393,31.777],[-114.7465,31.8019]]],[[[-114.8136,32.4939],[-114.8032,32.53],[-114.8043,32.5443],[-114.7921,32.56],[-114.8123,32.5622],[-114.8013,32.5884],[-114.809,32.6169],[-114.7854,32.6224],[-114.7502,32.6617],[-114.7461,32.676],[-114.7197,32.7187],[-115.0997,32.6931],[-115.3845,32.6732],[-115.7098,32.649],[-115.8793,32.6361],[-115.8822,32.5933],[-115.8743,32.3862],[-115.856,32.1131],[-115.8478,31.9901],[-115.7096,31.7825],[-115.6036,31.6244],[-115.5666,31.6434],[-115.5373,31.6698],[-115.453,31.7282],[-115.3833,31.7723],[-115.3119,31.8046],[-115.2928,31.7911],[-115.2277,31.8176],[-115.1875,31.8303],[-115.1753,31.8452],[-115.1458,31.8247],[-115.1066,31.8055],[-115.0563,31.7125],[-115.0723,31.675],[-115.0751,31.5611],[-115.0697,31.4781],[-115.0532,31.4405],[-115.0298,31.4484],[-114.9878,31.3616],[-114.8571,31.3896],[-114.8732,31.4005],[-114.8703,31.4212],[-114.8599,31.436],[-114.8533,31.4686],[-114.8577,31.5065],[-114.8687,31.528],[-114.8625,31.5327],[-114.8554,31.5839],[-114.8372,31.5945],[-114.8354,31.6175],[-114.8137,31.6077],[-114.7923,31.6153],[-114.7841,31.6384],[-114.7905,31.6733],[-114.8078,31.6981],[-114.8218,31.7363],[-114.821,31.7605],[-114.8103,31.7863],[-114.8069,31.8167],[-114.8257,31.8288],[-114.8432,31.8636],[-114.8751,31.8656],[-114.887,31.8716],[-114.9067,31.8673],[-114.9148,31.8822],[-114.9392,31.8921],[-114.9471,31.9118],[-114.9655,31.9184],[-114.9674,31.9969],[-114.957,32.0386],[-114.9897,32.1464],[-114.9753,32.178],[-115.0414,32.2324],[-115.053,32.2452],[-115.0427,32.2701],[-115.0076,32.3054],[-114.9656,32.341],[-114.9632,32.3767],[-114.9685,32.3892],[-114.9538,32.397],[-114.9609,32.4107],[-114.9316,32.4411],[-114.9392,32.4743],[-114.935,32.4819],[-114.9001,32.4835],[-114.8802,32.492],[-114.8491,32.4734],[-114.8157,32.4833],[-114.8136,32.4939]]]]},"properties":{"CVE_ENT":"02","CVE_MUN":"002","CVEGEO":"02002","NOMGEO":"Mexicali"}}
]}