{"type":"FeatureCollection", "features": [
{"type":"Feature","geometry":{"type":"Polygon","coordinates":[[[-99.1179,19.5906],[-99.1237,19.5928],[-99.1338,19.5862],[-99.1509,19.5605],[-99.1609,19.5493],[-99.163,19.518],[-99.1572,19.5028],[-99.1431,19.4651],[-99.1222,19.4598],[-99.1014,19.45],[-99.0623,19.4448],[-99.0509,19.4502],[-99.068,19.4891],[-99.0639,19.4988],[-99.0904,19.5095],[-99.1144,19.5111],[-99.1306,19.5361],[-99.1081,19.5649],[-99.1129,19.5733],[-99.1179,19.5906]]]},"properties":{"CVE_ENT":"09","CVE_MUN":"005","CVEGEO":"09005","NOMGEO":"Gustavo A. Madero"}},
{"type":"Feature","geometry":{"type":"Polygon","coordinates":[[[-99.0581,19.4007],[-99.0608,19.3826],[-99.0836,19.3925],[-99.0956,19.3796],[-99.1225,19.3824],[-99.1355,19.3772],[-99.1398,19.3569],[-99.122,19.3577],[-99.1139,19.3373],[-99.0991,19.3204],[-99.069,19.285],[-99.0648,19.3016],[-99.0538,19.3119],[-99.0014,19.3271],[-98.9604,19.3254],[-98.9743,19.337],[-98.9946,19.3581],[-98.9919,19.3676],[-99.0203,19.3836],[-99.0581,19.4007]]]},"properties":{"CVE_ENT":"09","CVE_MUN":"007","CVEGEO":"09007","NOMGEO":"Iztapalapa"}},
{"type":"Feature","geometry":{"type":"Polygon","coordinates":[[[-99.1222,19.4598],[-99.1431,19.4651],[-99.1637,19.4564],[-99.1657,19.4438],[-99.1843,19.4078],[-99.1704,19.3998],[-99.1366,19.4028],[-99.1257,19.4043],[-99.1282,19.4138],[-99.1222,19.4598]]]},"properties":{"CVE_ENT":"09","CVE_MUN":"015","CVEGEO":"09015","NOMGEO":"Cuauhtémoc"}},
{"type":"Feature","geometry":{"type":"Polygon","coordinates":[[[-99.0509,19.4502],[-99.0623,19.4448],[-99.1014,19.45],[-99.1222,19.4598],[-99.1282,19.4138],[-99.1257,19.4043],[-99.0961,19.4091],[-99.078,19.4071],[-99.0699,19.4199],[-99.0558,19.4221],[-99.0465,19.4424],[-99.0509,19.4502]]]},"properties":{"CVE_ENT":"09","CVE_MUN":"017","CVEGEO":"09017","NOMGEO":"Venustiano Carranza"}},
{"type":"Feature","geometry":{"type":"Polygon","coordinates":[[[-99.069,19.285],[-99.0991,19.3204],[-99.1009,19.3],[-99.1014,19.2952],[-99.1239,19.2856],[-99.1411,19.2825],[-99.1394,19.2547],[-99.1445,19.2345],[-99.1544,19.2206],[-99.133,19.2101],[-99.1271,19.1873],[-99.1324,19.1785],[-99.1302,19.1525],[-99.0992,19.2081],[-99.0302,19.2236],[-99.007,19.2516],[-99.0359,19.2706],[-99.069,19.285]]]},"properties":{"CVE_ENT":"09","CVE_MUN":"013","CVEGEO":"09013","NOMGEO":"Xochimilco"}},
{"type":"Feature","geometry":{"type":"Polygon","coordinates":[[[-99.1398,19.3569],[-99.1717,19.3596],[-99.1912,19.3369],[-99.2058,19.3057],[-99.2032,19.3052],[-99.2002,19.3042],[-99.196,19.3022],[-99.1935,19.302],[-99.1629,19.3014],[-99.1567,19.2968],[-99.1426,19.2996],[-99.1347,19.3083],[-99.1009,19.3],[-99.0991,19.3204],[-99.1139,19.3373],[-99.122,19.3577],[-99.1398,19.3569]]]},"properties":{"CVE_ENT":"09","CVE_MUN":"003","CVEGEO":"09003","NOMGEO":"Coyoacán"}},
{"type":"Feature","geometry":{"type":"Polygon","coordinates":[[[-99.2199,19.3123],[-99.2125,19.3272],[-99.2312,19.3298],[-99.2552,19.3266],[-99.2694,19.3136],[-99.2733,19.2852],[-99.3024,19.2589],[-99.3141,19.2568],[-99.3223,19.2326],[-99.3156,19.2274],[-99.3096,19.2247],[-99.2932,19.2139],[-99.2824,19.2131],[-99.2531,19.2351],[-99.2446,19.2527],[-99.247,19.2645],[-99.2414,19.294],[-99.2319,19.305],[-99.2239,19.3109],[-99.2199,19.3123]]]},"properties":{"CVE_ENT":"09","CVE_MUN":"008","CVEGEO":"09008","NOMGEO":"La Magdalena Contreras"}},
{"type":"Feature","geometry":{"type":"Polygon","coordinates":[[[-99.0598,19.0482],[-99.0432,19.0758],[-99.029,19.0854],[-98.9836,19.0788],[-98.9657,19.0859],[-98.9575,19.1224],[-98.9665,19.1439],[-98.9546,19.1495],[-98.9674,19.1644],[-98.9524,19.1686],[-98.9677,19.1897],[-98.9668,19.209],[-98.9782,19.2151],[-98.9906,19.2258],[-99.0302,19.2236],[-99.0992,19.2081],[-99.1302,19.1525],[-99.1525,19.1421],[-99.1633,19.1175],[-99.1365,19.0894],[-99.1354,19.0893],[-99.0598,19.0482]]]},"properties":{"CVE_ENT":"09","CVE_MUN":"009","CVEGEO":"09009","NOMGEO":"Milpa Alta"}},
{"type":"Feature","geometry":{"type":"Polygon","coordinates":[[[-99.1891,19.3956],[-99.1922,19.4037],[-99.2388,19.3928],[-99.2477,19.386],[-99.2701,19.3728],[-99.2592,19.3491],[-99.2852,19.3361],[-99.2907,19.3213],[-99.3172,19.2958],[-99.3157,19.2822],[-99.3236,19.2651],[-99.3243,19.2326],[-99.3223,19.2326],[-99.3141,19.2568],[-99.3024,19.2589],[-99.2733,19.2852],[-99.2694,19.3136],[-99.2552,19.3266],[-99.2312,19.3298],[-99.2125,19.3272],[-99.2199,19.3123],[-99.2058,19.3057],[-99.1912,19.3369],[-99.1717,19.3596],[-99.1911,19.3635],[-99.1891,19.3956]]]},"properties":{"CVE_ENT":"09","CVE_MUN":"010","CVEGEO":"09010","NOMGEO":"Álvaro Obregón"}},
{"type":"Feature","geometry":{"type":"Polygon","coordinates":[[[-99.1366,19.4028],[-99.1704,19.3998],[-99.1891,19.3956],[-99.1911,19.3635],[-99.1717,19.3596],[-99.1398,19.3569],[-99.1355,19.3772],[-99.1366,19.4028]]]},"properties":{"CVE_ENT":"09","CVE_MUN":"014","CVEGEO":"09014","NOMGEO":"Benito Juárez"}},
{"type":"Feature","geometry":{"type":"Polygon","coordinates":[[[-98.9604,19.3254],[-99.0014,19.3271],[-99.0538,19.3119],[-99.0648,19.3016],[-99.069,19.285],[-99.0359,19.2706],[-99.007,19.2516],[-99.0302,19.2236],[-98.9906,19.2258],[-98.9685,19.2106],[-98.9458,19.225],[-98.9686,19.2322],[-98.966,19.2499],[-98.9765,19.2531],[-98.9672,19.306],[-98.9604,19.3254]]]},"properties":{"CVE_ENT":"09","CVE_MUN":"011","CVEGEO":"09011","NOMGEO":"Tláhuac"}},
{"type":"Feature","geometry":{"type":"Polygon","coordinates":[[[-99.0558,19.4221],[-99.0699,19.4199],[-99.078,19.4071],[-99.0961,19.4091],[-99.1257,19.4043],[-99.1366,19.4028],[-99.1355,19.3772],[-99.1225,19.3824],[-99.0956,19.3796],[-99.0836,19.3925],[-99.0608,19.3826],[-99.0581,19.4007],[-99.0558,19.4221]]]},"properties":{"CVE_ENT":"09","CVE_MUN":"006","CVEGEO":"09006","NOMGEO":"Iztacalco"}},
{"type":"Feature","geometry":{"type":"Polygon","coordinates":[[[-99.1572,19.5028],[-99.2047,19.5151],[-99.2138,19.4973],[-99.2211,19.4751],[-99.2068,19.4712],[-99.1885,19.4608],[-99.1637,19.4564],[-99.1431,19.4651],[-99.1572,19.5028]]]},"properties":{"CVE_ENT":"09","CVE_MUN":"002","CVEGEO":"09002","NOMGEO":"Azcapotzalco"}},
{"type":"Feature","geometry":{"type":"Polygon","coordinates":[[[-99.1302,19.1525],[-99.1324,19.1785],[-99.1271,19.1873],[-99.133,19.2101],[-99.1544,19.2206],[-99.1445,19.2345],[-99.1394,19.2547],[-99.1411,19.2825],[-99.1239,19.2856],[-99.1014,19.2952],[-99.1347,19.3083],[-99.1426,19.2996],[-99.1567,19.2968],[-99.1629,19.3014],[-99.1768,19.3033],[-99.1823,19.3033],[-99.1935,19.302],[-99.196,19.3022],[-99.2002,19.3042],[-99.2032,19.3052],[-99.2133,19.307],[-99.221,19.3111],[-99.2239,19.3109],[-99.2414,19.294],[-99.247,19.2645],[-99.2446,19.2527],[-99.2531,19.2351],[-99.2824,19.2131],[-99.3096,19.2247],[-99.3156,19.2274],[-99.3162,19.2215],[-99.3071,19.2137],[-99.3028,19.1909],[-99.2876,19.1466],[-99.2826,19.1382],[-99.2801,19.1341],[-99.2787,19.1317],[-99.2268,19.0961],[-99.1365,19.0894],[-99.1633,19.1175],[-99.1525,19.1421],[-99.1302,19.1525]]]},"properties":{"CVE_ENT":"09","CVE_MUN":"012","CVEGEO":"09012","NOMGEO":"Tlalpan"}},
{"type":"Feature","geometry":{"type":"Polygon","coordinates":[[[-99.2558,19.4036],[-99.2956,19.3691],[-99.3078,19.3716],[-99.3264,19.3537],[-99.3338,19.3306],[-99.3564,19.3033],[-99.35,19.2968],[-99.3649,19.2778],[-99.3392,19.2677],[-99.3423,19.2411],[-99.3243,19.2326],[-99.3236,19.2651],[-99.3157,19.2822],[-99.3172,19.2958],[-99.2907,19.3213],[-99.2852,19.3361],[-99.2592,19.3491],[-99.2701,19.3728],[-99.2477,19.386],[-99.2558,19.4036]]]},"properties":{"CVE_ENT":"09","CVE_MUN":"004","CVEGEO":"09004","NOMGEO":"Cuajimalpa de Morelos"}},
{"type":"Feature","geometry":{"type":"Polygon","coordinates":[[[-99.1637,19.4564],[-99.1885,19.4608],[-99.2068,19.4712],[-99.2121,19.4671],[-99.2232,19.4293],[-99.2396,19.4122],[-99.2558,19.4036],[-99.2477,19.386],[-99.2388,19.3928],[-99.1922,19.4037],[-99.1891,19.3956],[-99.1704,19.3998],[-99.1843,19.4078],[-99.1657,19.4438],[-99.1637,19.4564]]]},"properties":{"CVE_ENT":"09","CVE_MUN":"016","CVEGEO":"09016","NOMGEO":"Miguel Hidalgo"}}
]}