{"type":"FeatureCollection", "features": [
{"type":"Feature","geometry":{"type":"Polygon","coordinates":[[[-99.2058,18.8758],[-99.221,18.8622],[-99.2176,18.8421],[-99.208,18.8398],[-99.2132,18.8071],[-99.2063,18.7962],[-99.1912,18.798],[-99.1909,18.7606],[-99.1824,18.7452],[-99.1479,18.759],[-99.1487,18.7868],[-99.161,18.7951],[-99.1463,18.8278],[-99.1484,18.836],[-99.1645,18.8566],[-99.1803,18.8569],[-99.2058,18.8758]]]},"properties":{"CVE_ENT":"17","CVE_MUN":"008","CVEGEO":"17008","NOMGEO":"Emiliano Zapata"}},
{"type":"Feature","geometry":{"type":"Polygon","coordinates":[[[-98.7193,18.605],[-98.7347,18.6049],[-98.735,18.5893],[-98.7483,18.5879],[-98.7606,18.5863],[-98.7986,18.5797],[-98.7975,18.5657],[-98.8147,18.5634],[-98.8105,18.5192],[-98.7985,18.4977],[-98.7796,18.4804],[-98.763,18.4763],[-98.7549,18.4571],[-98.7535,18.4572],[-98.7522,18.4539],[-98.7476,18.4514],[-98.745,18.4546],[-98.7396,18.4551],[-98.7379,18.4534],[-98.7364,18.4488],[-98.7353,18.4474],[-98.7346,18.444],[-98.73,18.4405],[-98.7253,18.4413],[-98.7121,18.4457],[-98.7067,18.4451],[-98.7104,18.4681],[-98.699,18.495],[-98.7127,18.518],[-98.7031,18.5398],[-98.7167,18.5659],[-98.7125,18.5854],[-98.7193,18.605]]]},"properties":{"CVE_ENT":"17","CVE_MUN":"003","CVEGEO":"17003","NOMGEO":"Axochiapan"}},
{"type":"Feature","geometry":{"type":"Polygon","coordinates":[[[-98.6887,18.8581],[-98.6792,18.8761],[-98.6721,18.8794],[-98.672,18.8818],[-98.6725,18.8842],[-98.6687,18.8848],[-98.6633,18.8983],[-98.6729,18.9094],[-98.7029,18.8897],[-98.6975,18.8778],[-98.7135,18.8672],[-98.7177,18.8645],[-98.7241,18.8208],[-98.7148,18.8432],[-98.701,18.8619],[-98.6887,18.8581]]]},"properties":{"CVE_ENT":"17","CVE_MUN":"036","CVEGEO":"17036","NOMGEO":"Hueyapan"}},
{"type":"Feature","geometry":{"type":"Polygon","coordinates":[[[-98.9529,18.9276],[-98.9763,18.9334],[-98.9886,18.9214],[-98.9879,18.898],[-98.9995,18.9003],[-99.014,18.9336],[-99.0079,18.9488],[-99.0162,18.9597],[-99.0195,18.9481],[-99.0258,18.9451],[-99.0293,18.9256],[-99.0529,18.9262],[-99.0957,18.9156],[-99.1161,18.8978],[-99.1226,18.8967],[-99.1269,18.8984],[-99.1317,18.8964],[-99.1201,18.8804],[-99.1231,18.8621],[-99.1484,18.836],[-99.1463,18.8278],[-99.1172,18.8297],[-99.0904,18.8044],[-99.0835,18.7712],[-99.0677,18.7813],[-99.0498,18.8105],[-99.0484,18.8309],[-99.0385,18.8584],[-99.0141,18.8542],[-98.9669,18.8806],[-98.9414,18.8907],[-98.9529,18.9276]]]},"properties":{"CVE_ENT":"17","CVE_MUN":"029","CVEGEO":"17029","NOMGEO":"Yautepec"}},
{"type":"Feature","geometry":{"type":"Polygon","coordinates":[[[-99.221,18.8622],[-99.2268,18.8672],[-99.2373,18.8982],[-99.2566,18.8907],[-99.2876,18.9139],[-99.2846,18.8914],[-99.2888,18.8791],[-99.2738,18.8434],[-99.2952,18.8429],[-99.3275,18.8678],[-99.3523,18.8423],[-99.3484,18.8307],[-99.3122,18.8155],[-99.2881,18.7954],[-99.2865,18.7811],[-99.282,18.7742],[-99.252,18.7823],[-99.2677,18.8065],[-99.267,18.8234],[-99.2465,18.8268],[-99.2359,18.8102],[-99.2132,18.8071],[-99.208,18.8398],[-99.2176,18.8421],[-99.221,18.8622]]]},"properties":{"CVE_ENT":"17","CVE_MUN":"018","CVEGEO":"17018","NOMGEO":"Temixco"}},
{"type":"Feature","geometry":{"type":"Polygon","coordinates":[[[-99.3578,18.746],[-99.3777,18.7588],[-99.391,18.7526],[-99.3839,18.7396],[-99.3794,18.72],[-99.3554,18.6981],[-99.3782,18.6808],[-99.393,18.6793],[-99.3931,18.6656],[-99.4108,18.6549],[-99.3951,18.6496],[-99.3789,18.6276],[-99.3555,18.6161],[-99.3487,18.6421],[-99.3473,18.6631],[-99.3581,18.6745],[-99.3334,18.6882],[-99.3281,18.7158],[-99.3564,18.7397],[-99.3578,18.746]]]},"properties":{"CVE_ENT":"17","CVE_MUN":"014","CVEGEO":"17014","NOMGEO":"Mazatepec"}},
{"type":"Feature","geometry":{"type":"Polygon","coordinates":[[[-98.7606,18.5863],[-98.7809,18.6051],[-98.8346,18.6323],[-98.8181,18.6475],[-98.8416,18.6811],[-98.8501,18.6732],[-98.8761,18.6721],[-98.9128,18.6791],[-98.9359,18.672],[-98.9427,18.66],[-98.9246,18.6201],[-98.9497,18.6315],[-98.9592,18.65],[-98.9799,18.6283],[-98.9722,18.6159],[-98.9721,18.5959],[-99.0064,18.5921],[-99.017,18.5773],[-98.9972,18.5692],[-98.9954,18.5394],[-98.9854,18.5255],[-98.9671,18.5237],[-98.9684,18.4966],[-98.9358,18.4834],[-98.9152,18.4573],[-98.9109,18.4621],[-98.8651,18.4798],[-98.8494,18.4798],[-98.8379,18.4937],[-98.8403,18.5128],[-98.8261,18.5229],[-98.8105,18.5192],[-98.8147,18.5634],[-98.7975,18.5657],[-98.7986,18.5797],[-98.7606,18.5863]]]},"properties":{"CVE_ENT":"17","CVE_MUN":"019","CVEGEO":"17019","NOMGEO":"Tepalcingo"}},
{"type":"Feature","geometry":{"type":"Polygon","coordinates":[[[-98.9284,18.8821],[-98.9414,18.8907],[-98.9669,18.8806],[-99.0141,18.8542],[-99.0385,18.8584],[-99.0484,18.8309],[-99.0032,18.806],[-98.9773,18.7991],[-98.9554,18.8025],[-98.9388,18.7861],[-98.9367,18.7736],[-98.9575,18.7614],[-98.925,18.7393],[-98.9123,18.7704],[-98.8881,18.7959],[-98.8969,18.802],[-98.9293,18.8075],[-98.9266,18.8296],[-98.9091,18.8362],[-98.9068,18.8515],[-98.9284,18.8525],[-98.9121,18.8732],[-98.9284,18.8821]]]},"properties":{"CVE_ENT":"17","CVE_MUN":"006","CVEGEO":"17006","NOMGEO":"Cuautla"}},
{"type":"Feature","geometry":{"type":"Polygon","coordinates":[[[-99.3487,18.6421],[-99.3555,18.6161],[-99.3789,18.6276],[-99.3951,18.6496],[-99.4108,18.6549],[-99.428,18.6375],[-99.4443,18.6329],[-99.4531,18.6433],[-99.4644,18.6437],[-99.4526,18.6118],[-99.4294,18.5889],[-99.4229,18.5621],[-99.4078,18.5561],[-99.3903,18.5257],[-99.3792,18.5205],[-99.3447,18.5219],[-99.3385,18.56],[-99.3276,18.5658],[-99.3375,18.5952],[-99.3342,18.6224],[-99.3487,18.6421]]]},"properties":{"CVE_ENT":"17","CVE_MUN":"001","CVEGEO":"17001","NOMGEO":"Amacuzac"}},
{"type":"Feature","geometry":{"type":"Polygon","coordinates":[[[-99.1588,18.6617],[-99.1708,18.6577],[-99.1752,18.6408],[-99.1782,18.6207],[-99.1654,18.6044],[-99.1517,18.5986],[-99.1479,18.5723],[-99.1629,18.5314],[-99.1966,18.5314],[-99.2087,18.523],[-99.235,18.5012],[-99.2292,18.4807],[-99.1759,18.4885],[-99.2066,18.4657],[-99.2044,18.4553],[-99.2067,18.4474],[-99.1888,18.4352],[-99.1813,18.4484],[-99.1603,18.4643],[-99.1355,18.4608],[-99.1364,18.4501],[-99.125,18.4363],[-99.1279,18.4267],[-99.1085,18.4163],[-99.1005,18.4012],[-99.0895,18.4],[-99.0661,18.3671],[-99.0756,18.3446],[-99.066,18.3326],[-99.0314,18.3649],[-99.0159,18.3863],[-98.9875,18.3996],[-98.974,18.4171],[-98.9392,18.422],[-98.9193,18.432],[-98.9152,18.4573],[-98.9358,18.4834],[-98.9684,18.4966],[-98.9671,18.5237],[-98.9854,18.5255],[-98.9954,18.5394],[-98.9972,18.5692],[-99.017,18.5773],[-99.0365,18.5642],[-99.0453,18.5788],[-99.0732,18.5835],[-99.0885,18.6274],[-99.0909,18.6423],[-99.1169,18.6615],[-99.1209,18.6483],[-99.1588,18.6617]]]},"properties":{"CVE_ENT":"17","CVE_MUN":"025","CVEGEO":"17025","NOMGEO":"Tlaquiltenango"}},
{"type":"Feature","geometry":{"type":"Polygon","coordinates":[[[-98.8407,18.9557],[-98.8601,18.966],[-98.8573,18.9746],[-98.87,18.9905],[-98.8684,18.9999],[-98.8817,18.9999],[-98.888,18.9765],[-98.8983,18.9605],[-98.9218,18.9554],[-98.9529,18.9276],[-98.9414,18.8907],[-98.9284,18.8821],[-98.9051,18.891],[-98.8913,18.9072],[-98.8734,18.9069],[-98.8511,18.9184],[-98.8359,18.9502],[-98.8407,18.9557]]]},"properties":{"CVE_ENT":"17","CVE_MUN":"002","CVEGEO":"17002","NOMGEO":"Atlatlahucan"}},
{"type":"Feature","geometry":{"type":"Polygon","coordinates":[[[-98.9804,18.9923],[-98.9976,18.9879],[-99.0146,18.9753],[-99.0162,18.9597],[-99.0079,18.9488],[-99.014,18.9336],[-98.9995,18.9003],[-98.9879,18.898],[-98.9886,18.9214],[-98.9763,18.9334],[-98.9529,18.9276],[-98.9218,18.9554],[-98.9226,18.9675],[-98.9622,18.9882],[-98.9804,18.9923]]]},"properties":{"CVE_ENT":"17","CVE_MUN":"026","CVEGEO":"17026","NOMGEO":"Tlayacapan"}},
{"type":"Feature","geometry":{"type":"Polygon","coordinates":[[[-98.979,19.0745],[-98.9836,19.0788],[-99.029,19.0854],[-99.0302,19.0846],[-99.0432,19.0758],[-99.0598,19.0482],[-99.036,19.0168],[-99.0306,19.0002],[-99.018,18.9963],[-99.0146,18.9753],[-98.9976,18.9879],[-98.9804,18.9923],[-98.9715,19.0114],[-98.9587,19.005],[-98.9558,19.0268],[-98.9412,19.0182],[-98.9251,19.0274],[-98.9173,19.0396],[-98.9034,19.0385],[-98.9171,19.0594],[-98.9443,19.0697],[-98.9578,19.0603],[-98.979,19.0745]]]},"properties":{"CVE_ENT":"17","CVE_MUN":"023","CVEGEO":"17023","NOMGEO":"Tlalnepantla"}},
{"type":"Feature","geometry":{"type":"Polygon","coordinates":[[[-98.8881,18.7959],[-98.9123,18.7704],[-98.925,18.7393],[-98.9575,18.7614],[-98.9367,18.7736],[-98.9388,18.7861],[-98.9554,18.8025],[-98.9773,18.7991],[-99.0032,18.806],[-99.0484,18.8309],[-99.0498,18.8105],[-99.0677,18.7813],[-99.0835,18.7712],[-99.0776,18.7591],[-99.075,18.7238],[-99.0668,18.7112],[-99.0926,18.7059],[-99.0868,18.6838],[-99.0872,18.6625],[-99.0519,18.6678],[-99.0361,18.6657],[-99.032,18.6763],[-99.0028,18.6648],[-99.0008,18.638],[-99.0204,18.6313],[-99.0333,18.6099],[-99.0395,18.5815],[-99.0453,18.5788],[-99.0365,18.5642],[-99.017,18.5773],[-99.0064,18.5921],[-98.9721,18.5959],[-98.9722,18.6159],[-98.9799,18.6283],[-98.9592,18.65],[-98.9497,18.6315],[-98.9246,18.6201],[-98.9427,18.66],[-98.9359,18.672],[-98.9128,18.6791],[-98.8761,18.6721],[-98.8661,18.6883],[-98.8764,18.7058],[-98.8705,18.7272],[-98.8546,18.7217],[-98.8367,18.7435],[-98.8376,18.7523],[-98.8364,18.7645],[-98.8537,18.7623],[-98.8619,18.7798],[-98.8881,18.7959]]]},"properties":{"CVE_ENT":"17","CVE_MUN":"004","CVEGEO":"17004","NOMGEO":"Ayala"}},
{"type":"Feature","geometry":{"type":"Polygon","coordinates":[[[-98.7534,18.7429],[-98.761,18.7287],[-98.8376,18.7523],[-98.8367,18.7435],[-98.8546,18.7217],[-98.8359,18.721],[-98.8068,18.7133],[-98.786,18.6882],[-98.7809,18.6675],[-98.755,18.665],[-98.7536,18.6496],[-98.7669,18.6443],[-98.753,18.6221],[-98.7607,18.6103],[-98.7483,18.5879],[-98.735,18.5893],[-98.7347,18.6049],[-98.7193,18.605],[-98.7167,18.6253],[-98.721,18.6577],[-98.7275,18.6696],[-98.7418,18.7029],[-98.724,18.7191],[-98.7186,18.7366],[-98.7534,18.7429]]]},"properties":{"CVE_ENT":"17","CVE_MUN":"010","CVEGEO":"17010","NOMGEO":"Jantetelco"}},
{"type":"Feature","geometry":{"type":"Polygon","coordinates":[[[-99.2662,18.6427],[-99.276,18.6549],[-99.2917,18.6596],[-99.2775,18.704],[-99.2849,18.7061],[-99.316,18.6891],[-99.3334,18.6882],[-99.3581,18.6745],[-99.3473,18.6631],[-99.3487,18.6421],[-99.3342,18.6224],[-99.3375,18.5952],[-99.3276,18.5658],[-99.3385,18.56],[-99.3447,18.5219],[-99.3792,18.5205],[-99.363,18.499],[-99.3551,18.4767],[-99.3283,18.4888],[-99.3284,18.4595],[-99.3042,18.4595],[-99.2687,18.4533],[-99.246,18.4564],[-99.2044,18.4553],[-99.2066,18.4657],[-99.1759,18.4885],[-99.2292,18.4807],[-99.235,18.5012],[-99.2087,18.523],[-99.2198,18.5409],[-99.2357,18.5473],[-99.2481,18.5303],[-99.2667,18.5408],[-99.2853,18.5656],[-99.2965,18.5622],[-99.2915,18.5911],[-99.3019,18.5951],[-99.2884,18.6257],[-99.2662,18.6427]]]},"properties":{"CVE_ENT":"17","CVE_MUN":"017","CVEGEO":"17017","NOMGEO":"Puente de Ixtla"}},
{"type":"Feature","geometry":{"type":"Polygon","coordinates":[[[-99.342,18.9225],[-99.3648,18.899],[-99.4067,18.8952],[-99.411,18.8782],[-99.4294,18.8776],[-99.4323,18.8578],[-99.4267,18.8247],[-99.4243,18.8079],[-99.3987,18.7575],[-99.391,18.7526],[-99.3777,18.7588],[-99.3578,18.746],[-99.344,18.7495],[-99.33,18.7654],[-99.2927,18.7852],[-99.2865,18.7811],[-99.2881,18.7954],[-99.3122,18.8155],[-99.3484,18.8307],[-99.3523,18.8423],[-99.3275,18.8678],[-99.3382,18.8957],[-99.342,18.9225]]]},"properties":{"CVE_ENT":"17","CVE_MUN":"015","CVEGEO":"17015","NOMGEO":"Miacatlán"}},
{"type":"Feature","geometry":{"type":"Polygon","coordinates":[[[-98.7135,18.8672],[-98.7057,18.8908],[-98.7073,18.9029],[-98.6781,18.9237],[-98.6736,18.9517],[-98.6633,18.9625],[-98.6503,18.9981],[-98.6386,19.0077],[-98.6329,19.0155],[-98.6522,19.006],[-98.6645,19.0036],[-98.6909,18.9676],[-98.7148,18.9426],[-98.7263,18.9447],[-98.7551,18.9163],[-98.7391,18.8997],[-98.7361,18.8672],[-98.7659,18.8541],[-98.7687,18.8389],[-98.7754,18.8323],[-98.7529,18.8285],[-98.7329,18.835],[-98.7241,18.8208],[-98.7177,18.8645],[-98.7135,18.8672]]]},"properties":{"CVE_ENT":"17","CVE_MUN":"022","CVEGEO":"17022","NOMGEO":"Tetela del Volcán"}},
{"type":"Feature","geometry":{"type":"Polygon","coordinates":[[[-99.1365,19.0894],[-99.2268,19.0961],[-99.2787,19.1317],[-99.2823,19.1299],[-99.2951,19.1229],[-99.3137,19.0982],[-99.3183,19.0874],[-99.3189,19.0311],[-99.2931,19.024],[-99.2691,19.0028],[-99.2218,19.0076],[-99.2287,18.9817],[-99.2149,18.983],[-99.1933,19.0007],[-99.1654,19.0237],[-99.1483,19.0503],[-99.1354,19.0893],[-99.1365,19.0894]]]},"properties":{"CVE_ENT":"17","CVE_MUN":"009","CVEGEO":"17009","NOMGEO":"Huitzilac"}},
{"type":"Feature","geometry":{"type":"Polygon","coordinates":[[[-99.1844,18.9367],[-99.1882,18.9182],[-99.2071,18.9059],[-99.2164,18.8784],[-99.2058,18.8758],[-99.1803,18.8569],[-99.1645,18.8566],[-99.1484,18.836],[-99.1231,18.8621],[-99.1201,18.8804],[-99.1317,18.8964],[-99.1332,18.8971],[-99.1346,18.8976],[-99.1498,18.9084],[-99.1844,18.9367]]]},"properties":{"CVE_ENT":"17","CVE_MUN":"011","CVEGEO":"17011","NOMGEO":"Jiutepec"}},
{"type":"Feature","geometry":{"type":"Polygon","coordinates":[[[-99.1752,18.6408],[-99.1855,18.6471],[-99.21,18.6281],[-99.2311,18.6316],[-99.2662,18.6427],[-99.2884,18.6257],[-99.3019,18.5951],[-99.2915,18.5911],[-99.2965,18.5622],[-99.2853,18.5656],[-99.2667,18.5408],[-99.2481,18.5303],[-99.2357,18.5473],[-99.2198,18.5409],[-99.2087,18.523],[-99.1966,18.5314],[-99.1629,18.5314],[-99.1479,18.5723],[-99.1517,18.5986],[-99.1654,18.6044],[-99.1782,18.6207],[-99.1752,18.6408]]]},"properties":{"CVE_ENT":"17","CVE_MUN":"012","CVEGEO":"17012","NOMGEO":"Jojutla"}},
{"type":"Feature","geometry":{"type":"Polygon","coordinates":[[[-99.0835,18.7712],[-99.0904,18.8044],[-99.1172,18.8297],[-99.1463,18.8278],[-99.161,18.7951],[-99.1487,18.7868],[-99.1479,18.759],[-99.1824,18.7452],[-99.1909,18.7606],[-99.1885,18.7287],[-99.1965,18.7074],[-99.1994,18.6838],[-99.1944,18.6694],[-99.1622,18.6754],[-99.1588,18.6617],[-99.1209,18.6483],[-99.1169,18.6615],[-99.0909,18.6423],[-99.0885,18.6274],[-99.0732,18.5835],[-99.0453,18.5788],[-99.0395,18.5815],[-99.0333,18.6099],[-99.0204,18.6313],[-99.0008,18.638],[-99.0028,18.6648],[-99.032,18.6763],[-99.0361,18.6657],[-99.0519,18.6678],[-99.0872,18.6625],[-99.0868,18.6838],[-99.0926,18.7059],[-99.0668,18.7112],[-99.075,18.7238],[-99.0776,18.7591],[-99.0835,18.7712]]]},"properties":{"CVE_ENT":"17","CVE_MUN":"024","CVEGEO":"17024","NOMGEO":"Tlaltizapán de Zapata"}},
{"type":"Feature","geometry":{"type":"Polygon","coordinates":[[[-98.8242,18.9549],[-98.8359,18.9502],[-98.8511,18.9184],[-98.8734,18.9069],[-98.8913,18.9072],[-98.9051,18.891],[-98.9284,18.8821],[-98.9121,18.8732],[-98.9284,18.8525],[-98.9068,18.8515],[-98.9091,18.8362],[-98.9266,18.8296],[-98.9293,18.8075],[-98.8969,18.802],[-98.8881,18.7959],[-98.8619,18.7798],[-98.8537,18.7623],[-98.8364,18.7645],[-98.8237,18.7681],[-98.8037,18.7912],[-98.8041,18.7921],[-98.8031,18.7929],[-98.8027,18.7942],[-98.801,18.7952],[-98.8017,18.797],[-98.7995,18.7983],[-98.7977,18.8052],[-98.8021,18.8125],[-98.8021,18.8252],[-98.8154,18.8125],[-98.8308,18.8354],[-98.8138,18.8512],[-98.8236,18.8594],[-98.8249,18.8789],[-98.8129,18.8813],[-98.7921,18.9353],[-98.7995,18.9403],[-98.8169,18.9433],[-98.8242,18.9549]]]},"properties":{"CVE_ENT":"17","CVE_MUN":"030","CVEGEO":"17030","NOMGEO":"Yecapixtla"}},
{"type":"Feature","geometry":{"type":"Polygon","coordinates":[[[-98.8546,18.7217],[-98.8705,18.7272],[-98.8764,18.7058],[-98.8661,18.6883],[-98.8761,18.6721],[-98.8501,18.6732],[-98.8416,18.6811],[-98.8181,18.6475],[-98.8346,18.6323],[-98.7809,18.6051],[-98.7606,18.5863],[-98.7483,18.5879],[-98.7607,18.6103],[-98.753,18.6221],[-98.7669,18.6443],[-98.7536,18.6496],[-98.755,18.665],[-98.7809,18.6675],[-98.786,18.6882],[-98.8068,18.7133],[-98.8359,18.721],[-98.8546,18.7217]]]},"properties":{"CVE_ENT":"17","CVE_MUN":"013","CVEGEO":"17013","NOMGEO":"Jonacatepec de Leandro Valle"}},
{"type":"Feature","geometry":{"type":"Polygon","coordinates":[[[-99.2865,18.7811],[-99.2927,18.7852],[-99.33,18.7654],[-99.344,18.7495],[-99.3578,18.746],[-99.3564,18.7397],[-99.3281,18.7158],[-99.3334,18.6882],[-99.316,18.6891],[-99.2849,18.7061],[-99.28,18.7244],[-99.2811,18.7369],[-99.298,18.7394],[-99.2922,18.7549],[-99.2768,18.7579],[-99.282,18.7742],[-99.2865,18.7811]]]},"properties":{"CVE_ENT":"17","CVE_MUN":"034","CVEGEO":"17034","NOMGEO":"Coatetelco"}},
{"type":"Feature","geometry":{"type":"Polygon","coordinates":[[[-99.0598,19.0482],[-99.1354,19.0893],[-99.1483,19.0503],[-99.1654,19.0237],[-99.1933,19.0007],[-99.1812,18.9724],[-99.1844,18.9367],[-99.1346,18.8976],[-99.1269,18.8984],[-99.1226,18.8967],[-99.1161,18.8978],[-99.0957,18.9156],[-99.0529,18.9262],[-99.0293,18.9256],[-99.0195,18.9481],[-99.0146,18.9753],[-99.018,18.9963],[-99.0306,19.0002],[-99.036,19.0168],[-99.0621,19.0487],[-99.0598,19.0482]]]},"properties":{"CVE_ENT":"17","CVE_MUN":"020","CVEGEO":"17020","NOMGEO":"Tepoztlán"}},
{"type":"Feature","geometry":{"type":"Polygon","coordinates":[[[-99.1588,18.6617],[-99.1622,18.6754],[-99.1944,18.6694],[-99.1994,18.6838],[-99.2185,18.6854],[-99.2268,18.6725],[-99.2247,18.6547],[-99.2311,18.6316],[-99.21,18.6281],[-99.1855,18.6471],[-99.1752,18.6408],[-99.1708,18.6577],[-99.1588,18.6617]]]},"properties":{"CVE_ENT":"17","CVE_MUN":"031","CVEGEO":"17031","NOMGEO":"Zacatepec"}},
{"type":"Feature","geometry":{"type":"Polygon","coordinates":[[[-99.3839,18.7396],[-99.4035,18.7483],[-99.4232,18.7328],[-99.4392,18.7007],[-99.4582,18.7066],[-99.4682,18.6959],[-99.442,18.6839],[-99.4359,18.6753],[-99.4484,18.6598],[-99.4531,18.6433],[-99.4443,18.6329],[-99.428,18.6375],[-99.4108,18.6549],[-99.3931,18.6656],[-99.393,18.6793],[-99.3782,18.6808],[-99.3554,18.6981],[-99.3794,18.72],[-99.3839,18.7396]]]},"properties":{"CVE_ENT":"17","CVE_MUN":"021","CVEGEO":"17021","NOMGEO":"Tetecala"}},
{"type":"Feature","geometry":{"type":"Polygon","coordinates":[[[-98.9034,19.0385],[-98.9173,19.0396],[-98.9251,19.0274],[-98.9412,19.0182],[-98.9558,19.0268],[-98.9587,19.005],[-98.9715,19.0114],[-98.9804,18.9923],[-98.9622,18.9882],[-98.9226,18.9675],[-98.9218,18.9554],[-98.8983,18.9605],[-98.888,18.9765],[-98.8817,18.9999],[-98.8684,18.9999],[-98.871,19.0254],[-98.8882,19.0369],[-98.9034,19.0385]]]},"properties":{"CVE_ENT":"17","CVE_MUN":"027","CVEGEO":"17027","NOMGEO":"Totolapan"}},
{"type":"Feature","geometry":{"type":"Polygon","coordinates":[[[-98.7263,18.9447],[-98.7631,18.9404],[-98.7861,18.9429],[-98.7921,18.9353],[-98.8129,18.8813],[-98.8249,18.8789],[-98.8236,18.8594],[-98.8138,18.8512],[-98.8308,18.8354],[-98.8154,18.8125],[-98.8021,18.8252],[-98.7994,18.8297],[-98.798,18.8257],[-98.7844,18.8193],[-98.7815,18.8277],[-98.7687,18.8389],[-98.7659,18.8541],[-98.7361,18.8672],[-98.7391,18.8997],[-98.7551,18.9163],[-98.7263,18.9447]]]},"properties":{"CVE_ENT":"17","CVE_MUN":"016","CVEGEO":"17016","NOMGEO":"Ocuituco"}},
{"type":"Feature","geometry":{"type":"Polygon","coordinates":[[[-98.6887,18.8581],[-98.701,18.8619],[-98.7148,18.8432],[-98.7241,18.8208],[-98.7329,18.835],[-98.7529,18.8285],[-98.7754,18.8323],[-98.7844,18.8193],[-98.798,18.8257],[-98.8018,18.8234],[-98.8021,18.8125],[-98.7977,18.8052],[-98.8041,18.7921],[-98.8037,18.7912],[-98.8024,18.7904],[-98.8012,18.7905],[-98.7956,18.7874],[-98.7914,18.7866],[-98.7691,18.7751],[-98.768,18.7727],[-98.7631,18.769],[-98.7631,18.7685],[-98.7635,18.767],[-98.7574,18.7646],[-98.756,18.7649],[-98.7492,18.7628],[-98.7451,18.7596],[-98.7397,18.7669],[-98.7337,18.7789],[-98.7279,18.8055],[-98.7082,18.8213],[-98.7009,18.8416],[-98.6887,18.8581]]]},"properties":{"CVE_ENT":"17","CVE_MUN":"032","CVEGEO":"17032","NOMGEO":"Zacualpan de Amilpas"}},
{"type":"Feature","geometry":{"type":"Polygon","coordinates":[[[-98.7474,18.7584],[-98.7574,18.7646],[-98.7635,18.767],[-98.7631,18.7685],[-98.7631,18.7688],[-98.7631,18.769],[-98.768,18.7727],[-98.7691,18.7751],[-98.7914,18.7866],[-98.7956,18.7874],[-98.8012,18.7905],[-98.8037,18.7912],[-98.8237,18.7681],[-98.8364,18.7645],[-98.8376,18.7523],[-98.761,18.7287],[-98.7534,18.7429],[-98.7474,18.7584]]]},"properties":{"CVE_ENT":"17","CVE_MUN":"033","CVEGEO":"17033","NOMGEO":"Temoac"}},
{"type":"Feature","geometry":{"type":"Polygon","coordinates":[[[-99.1965,18.7074],[-99.2245,18.7163],[-99.2524,18.7179],[-99.28,18.7244],[-99.2849,18.7061],[-99.2775,18.704],[-99.2917,18.6596],[-99.276,18.6549],[-99.2662,18.6427],[-99.2311,18.6316],[-99.2247,18.6547],[-99.2268,18.6725],[-99.2185,18.6854],[-99.1994,18.6838],[-99.1965,18.7074]]]},"properties":{"CVE_ENT":"17","CVE_MUN":"035","CVEGEO":"17035","NOMGEO":"Xoxocotla"}},
{"type":"Feature","geometry":{"type":"Polygon","coordinates":[[[-99.1844,18.9367],[-99.1812,18.9724],[-99.1933,19.0007],[-99.2149,18.983],[-99.2287,18.9817],[-99.2218,19.0076],[-99.2691,19.0028],[-99.2931,19.024],[-99.3118,19.0247],[-99.3197,19.0113],[-99.3111,18.9917],[-99.313,18.9481],[-99.3379,18.9324],[-99.342,18.9225],[-99.3382,18.8957],[-99.3275,18.8678],[-99.2952,18.8429],[-99.2738,18.8434],[-99.2888,18.8791],[-99.2846,18.8914],[-99.2876,18.9139],[-99.2566,18.8907],[-99.2373,18.8982],[-99.2268,18.8672],[-99.221,18.8622],[-99.2058,18.8758],[-99.2164,18.8784],[-99.2071,18.9059],[-99.1882,18.9182],[-99.1844,18.9367]]]},"properties":{"CVE_ENT":"17","CVE_MUN":"007","CVEGEO":"17007","NOMGEO":"Cuernavaca"}},
{"type":"Feature","geometry":{"type":"Polygon","coordinates":[[[-99.391,18.7526],[-99.3987,18.7575],[-99.4243,18.8079],[-99.4267,18.8247],[-99.451,18.7725],[-99.4633,18.7672],[-99.4662,18.7538],[-99.4944,18.7205],[-99.4807,18.6846],[-99.4644,18.6437],[-99.4531,18.6433],[-99.4484,18.6598],[-99.4359,18.6753],[-99.442,18.6839],[-99.4682,18.6959],[-99.4582,18.7066],[-99.4392,18.7007],[-99.4232,18.7328],[-99.4035,18.7483],[-99.3839,18.7396],[-99.391,18.7526]]]},"properties":{"CVE_ENT":"17","CVE_MUN":"005","CVEGEO":"17005","NOMGEO":"Coatlán del Río"}},
{"type":"Feature","geometry":{"type":"Polygon","coordinates":[[[-99.2132,18.8071],[-99.2359,18.8102],[-99.2465,18.8268],[-99.267,18.8234],[-99.2677,18.8065],[-99.252,18.7823],[-99.282,18.7742],[-99.2768,18.7579],[-99.2922,18.7549],[-99.298,18.7394],[-99.2811,18.7369],[-99.28,18.7244],[-99.2524,18.7179],[-99.2245,18.7163],[-99.1965,18.7074],[-99.1885,18.7287],[-99.1909,18.7606],[-99.1912,18.798],[-99.2063,18.7962],[-99.2132,18.8071]]]},"properties":{"CVE_ENT":"17","CVE_MUN":"028","CVEGEO":"17028","NOMGEO":"Xochitepec"}}
]}