{"type":"FeatureCollection", "features": [
{"type":"Feature","geometry":{"type":"Polygon","coordinates":[[[-104.3488,22.4097],[-104.3715,22.4217],[-104.4592,22.3868],[-104.4941,22.3763],[-104.4873,22.3532],[-104.5074,22.346],[-104.5187,22.3606],[-104.5352,22.3642],[-104.5587,22.3934],[-104.5746,22.3948],[-104.593,22.4186],[-104.6054,22.4457],[-104.6026,22.4605],[-104.6553,22.4622],[-104.6536,22.4981],[-104.6565,22.5413],[-104.67,22.5653],[-104.6858,22.5578],[-104.7371,22.5581],[-104.7615,22.5701],[-104.7797,22.603],[-104.7761,22.6305],[-104.7792,22.6429],[-104.8043,22.6487],[-104.8111,22.6379],[-104.8321,22.6414],[-104.8401,22.6511],[-104.8584,22.6483],[-104.8625,22.6071],[-104.9605,22.5053],[-104.9879,22.4987],[-104.9883,22.4852],[-105.0064,22.4824],[-104.9927,22.4631],[-105.0252,22.4591],[-105.0383,22.4473],[-105.0446,22.4277],[-105.0337,22.4162],[-105.0335,22.392],[-105.0219,22.3722],[-105.0357,22.3585],[-105.0508,22.3294],[-105.043,22.3079],[-105.0205,22.3022],[-105.0253,22.29],[-105.0083,22.2623],[-105.0136,22.2302],[-105.0078,22.2183],[-104.989,22.2138],[-104.9819,22.1872],[-104.9874,22.1727],[-104.9741,22.1568],[-104.9648,22.1612],[-104.9411,22.1515],[-104.8607,22.1428],[-104.8318,22.119],[-104.8108,22.0728],[-104.823,22.0571],[-104.8326,22.0345],[-104.7999,22.0155],[-104.7922,21.9979],[-104.8316,21.9818],[-104.8372,21.9642],[-104.8629,21.9372],[-104.8836,21.9346],[-104.9023,21.9026],[-104.9038,21.8863],[-104.9011,21.8783],[-104.8611,21.8955],[-104.8701,21.8582],[-104.8908,21.8571],[-104.9406,21.8128],[-104.9339,21.8058],[-104.9284,21.7817],[-104.929,21.7744],[-104.9234,21.7796],[-104.9225,21.7909],[-104.9018,21.7802],[-104.8643,21.7731],[-104.8426,21.7898],[-104.851,21.8017],[-104.8279,21.8277],[-104.8067,21.8387],[-104.7701,21.843],[-104.7591,21.8546],[-104.74,21.8454],[-104.7222,21.8445],[-104.7147,21.8342],[-104.7136,21.8142],[-104.698,21.8055],[-104.6964,21.7907],[-104.6801,21.7764],[-104.6774,21.7595],[-104.6605,21.7485],[-104.6684,21.7361],[-104.6405,21.7098],[-104.6487,21.7026],[-104.6232,21.6744],[-104.6207,21.6529],[-104.6038,21.6342],[-104.5977,21.6082],[-104.5672,21.5722],[-104.573,21.569],[-104.5705,21.5358],[-104.5641,21.5229],[-104.5294,21.5169],[-104.5254,21.5063],[-104.5423,21.4869],[-104.542,21.4675],[-104.532,21.4606],[-104.5135,21.462],[-104.4998,21.4791],[-104.4812,21.4785],[-104.4739,21.4705],[-104.4304,21.5204],[-104.4387,21.534],[-104.4591,21.5291],[-104.4701,21.5415],[-104.4412,21.5514],[-104.4762,21.5726],[-104.4658,21.5844],[-104.4758,21.6104],[-104.4389,21.6026],[-104.442,21.6286],[-104.4273,21.6559],[-104.4526,21.6609],[-104.4487,21.6865],[-104.4314,21.7193],[-104.4333,21.7313],[-104.4481,21.7482],[-104.4101,21.8558],[-104.4229,21.8626],[-104.4439,21.9282],[-104.4302,21.9286],[-104.3959,21.9393],[-104.3743,21.9524],[-104.3637,21.974],[-104.371,21.9794],[-104.3615,22.0529],[-104.3635,22.0741],[-104.3732,22.1014],[-104.3647,22.1124],[-104.3563,22.1654],[-104.3366,22.1867],[-104.3407,22.2064],[-104.3286,22.2455],[-104.2956,22.2769],[-104.2859,22.3029],[-104.2926,22.3074],[-104.2926,22.3443],[-104.2931,22.3651],[-104.3253,22.3807],[-104.35,22.3864],[-104.3488,22.4097]]]},"properties":{"CVE_ENT":"18","CVE_MUN":"009","CVEGEO":"18009","NOMGEO":"Del Nayar"}},
{"type":"Feature","geometry":{"type":"Polygon","coordinates":[[[-104.4554,20.985],[-104.4614,20.9933],[-104.4822,20.9931],[-104.5011,20.9672],[-104.5221,20.9627],[-104.5403,20.967],[-104.5423,20.9486],[-104.5812,20.9658],[-104.6291,20.9242],[-104.6189,20.9238],[-104.6018,20.9311],[-104.5782,20.934],[-104.5569,20.9242],[-104.5429,20.9119],[-104.5437,20.898],[-104.5244,20.8858],[-104.5217,20.8743],[-104.5064,20.8608],[-104.5032,20.8418],[-104.4848,20.8329],[-104.4791,20.8226],[-104.4479,20.8036],[-104.441,20.8077],[-104.3966,20.7808],[-104.3766,20.7469],[-104.3549,20.7356],[-104.35,20.726],[-104.3238,20.7173],[-104.3036,20.6927],[-104.2871,20.6872],[-104.2873,20.6589],[-104.2806,20.6464],[-104.282,20.629],[-104.2568,20.6035],[-104.2518,20.6078],[-104.2562,20.652],[-104.238,20.6607],[-104.2523,20.6807],[-104.2473,20.6899],[-104.2414,20.71],[-104.2478,20.7265],[-104.2599,20.7353],[-104.2829,20.7835],[-104.2976,20.7708],[-104.3283,20.7981],[-104.3759,20.7841],[-104.3504,20.8116],[-104.3625,20.8141],[-104.3584,20.8343],[-104.3347,20.8467],[-104.3184,20.8386],[-104.2923,20.8488],[-104.3046,20.8796],[-104.3289,20.9104],[-104.3332,20.9277],[-104.352,20.9359],[-104.3453,20.9648],[-104.3772,20.963],[-104.3974,20.9691],[-104.4031,20.9465],[-104.4405,20.9427],[-104.4531,20.9598],[-104.4554,20.985]]]},"properties":{"CVE_ENT":"18","CVE_MUN":"003","CVEGEO":"18003","NOMGEO":"Amatlán de Cañas"}},
{"type":"Feature","geometry":{"type":"Polygon","coordinates":[[[-105.1106,21.6762],[-105.114,21.7019],[-105.0911,21.7042],[-105.1229,21.7327],[-105.0949,21.7388],[-105.0804,21.7474],[-105.0529,21.7472],[-105.0403,21.7416],[-105.0266,21.7211],[-104.9941,21.7165],[-104.9347,21.7434],[-104.927,21.7635],[-104.9296,21.7698],[-104.93,21.7748],[-104.9393,21.7714],[-104.9393,21.7811],[-104.9284,21.7817],[-104.9339,21.8058],[-104.9406,21.8128],[-104.8908,21.8571],[-104.8701,21.8582],[-104.8611,21.8955],[-104.9011,21.8783],[-104.9062,21.8908],[-104.9113,21.8896],[-104.9204,21.8939],[-104.9265,21.8832],[-104.9387,21.8938],[-104.9701,21.8885],[-105.0282,21.8988],[-105.0282,21.907],[-105.0623,21.9041],[-105.0575,21.8816],[-105.0964,21.8925],[-105.0989,21.872],[-105.1437,21.8724],[-105.1578,21.8781],[-105.1682,21.9041],[-105.1861,21.9072],[-105.1931,21.8997],[-105.2013,21.8893],[-105.2032,21.8853],[-105.2068,21.8821],[-105.2268,21.8736],[-105.2342,21.8819],[-105.2715,21.8807],[-105.2972,21.8839],[-105.3218,21.8615],[-105.3551,21.8496],[-105.3649,21.9405],[-105.4021,21.9228],[-105.412,21.9103],[-105.4236,21.9443],[-105.4481,21.9456],[-105.4731,21.9564],[-105.5021,22.0005],[-105.5044,22.0109],[-105.5225,22.0252],[-105.5525,22.0708],[-105.5907,22.1341],[-105.5998,22.1454],[-105.6057,22.171],[-105.6158,22.1855],[-105.6225,22.2152],[-105.6203,22.2396],[-105.6331,22.2586],[-105.6361,22.2924],[-105.6627,22.2923],[-105.6449,22.1949],[-105.6499,22.1672],[-105.6478,22.1379],[-105.6543,22.0429],[-105.6522,22.0229],[-105.6421,21.9865],[-105.6315,21.9631],[-105.5942,21.9007],[-105.5455,21.8287],[-105.5057,21.7568],[-105.4986,21.7368],[-105.468,21.6766],[-105.4515,21.6525],[-105.4446,21.632],[-105.4391,21.6466],[-105.4235,21.6493],[-105.4285,21.6244],[-105.4087,21.6244],[-105.4084,21.6489],[-105.4189,21.6626],[-105.3893,21.6759],[-105.375,21.6714],[-105.3619,21.6963],[-105.3298,21.7099],[-105.3047,21.6966],[-105.2881,21.7112],[-105.2826,21.7257],[-105.2279,21.687],[-105.2099,21.6994],[-105.1706,21.6962],[-105.1394,21.7046],[-105.1189,21.6738],[-105.1106,21.6762]]]},"properties":{"CVE_ENT":"18","CVE_MUN":"015","CVEGEO":"18015","NOMGEO":"Santiago Ixcuintla"}},
{"type":"Feature","geometry":{"type":"Polygon","coordinates":[[[-104.4739,21.4705],[-104.4812,21.4785],[-104.4998,21.4791],[-104.5135,21.462],[-104.532,21.4606],[-104.542,21.4675],[-104.5423,21.4869],[-104.5254,21.5063],[-104.5294,21.5169],[-104.5641,21.5229],[-104.5705,21.5358],[-104.573,21.569],[-104.5672,21.5722],[-104.5977,21.6082],[-104.6186,21.5885],[-104.6377,21.5921],[-104.6542,21.5868],[-104.6644,21.5476],[-104.628,21.5106],[-104.6302,21.5049],[-104.6734,21.5013],[-104.6765,21.4838],[-104.7304,21.4433],[-104.6894,21.4239],[-104.7022,21.4156],[-104.7139,21.3983],[-104.7237,21.4141],[-104.7359,21.4149],[-104.7638,21.3951],[-104.7602,21.3769],[-104.7796,21.3725],[-104.8045,21.333],[-104.7967,21.3221],[-104.7782,21.3182],[-104.7618,21.3237],[-104.733,21.2798],[-104.7204,21.2679],[-104.697,21.2832],[-104.6802,21.2816],[-104.6738,21.2724],[-104.6962,21.246],[-104.6803,21.2181],[-104.6536,21.2009],[-104.6351,21.1758],[-104.6142,21.1471],[-104.609,21.1268],[-104.585,21.0955],[-104.5768,21.1116],[-104.5904,21.118],[-104.6007,21.1373],[-104.5856,21.1394],[-104.5346,21.1615],[-104.5388,21.1782],[-104.5529,21.1837],[-104.5482,21.1961],[-104.5544,21.2137],[-104.5344,21.2093],[-104.5187,21.2234],[-104.4944,21.2268],[-104.4693,21.2426],[-104.4095,21.2875],[-104.4168,21.2987],[-104.3983,21.309],[-104.4082,21.3443],[-104.4001,21.3513],[-104.4224,21.3623],[-104.4306,21.379],[-104.4214,21.4127],[-104.4372,21.4243],[-104.4689,21.4353],[-104.4739,21.4705]]]},"properties":{"CVE_ENT":"18","CVE_MUN":"014","CVEGEO":"18014","NOMGEO":"Santa María del Oro"}},
{"type":"Feature","geometry":{"type":"Polygon","coordinates":[[[-104.2376,21.2022],[-104.2477,21.2265],[-104.2746,21.2349],[-104.2879,21.2514],[-104.3108,21.2634],[-104.3356,21.2553],[-104.3499,21.2742],[-104.349,21.2986],[-104.3587,21.3269],[-104.3749,21.3325],[-104.3819,21.3501],[-104.4001,21.3513],[-104.4082,21.3443],[-104.3983,21.309],[-104.4168,21.2987],[-104.4095,21.2875],[-104.4693,21.2426],[-104.4944,21.2268],[-104.5187,21.2234],[-104.5344,21.2093],[-104.5544,21.2137],[-104.5482,21.1961],[-104.5529,21.1837],[-104.5388,21.1782],[-104.4921,21.1563],[-104.5239,21.1292],[-104.47,21.1063],[-104.455,21.0738],[-104.4368,21.0748],[-104.4424,21.0578],[-104.4286,21.0554],[-104.4199,21.0698],[-104.38,21.0656],[-104.3661,21.0723],[-104.3089,21.0713],[-104.2905,21.0866],[-104.3097,21.1181],[-104.3072,21.1325],[-104.3225,21.1427],[-104.3199,21.169],[-104.3353,21.1708],[-104.3368,21.2048],[-104.3242,21.1983],[-104.3069,21.2038],[-104.2758,21.2019],[-104.2612,21.2069],[-104.2376,21.2022]]]},"properties":{"CVE_ENT":"18","CVE_MUN":"007","CVEGEO":"18007","NOMGEO":"Jala"}},
{"type":"Feature","geometry":{"type":"Polygon","coordinates":[[[-105.0033,22.977],[-105.0138,22.9777],[-105.076,22.9596],[-105.1636,22.9539],[-105.2541,22.9563],[-105.2977,22.9542],[-105.3236,22.9413],[-105.3369,22.9717],[-105.3361,22.996],[-105.3538,23.0203],[-105.3561,23.0442],[-105.3505,23.0606],[-105.3707,23.0749],[-105.3922,23.0841],[-105.413,23.0741],[-105.4117,23.0304],[-105.4326,23.024],[-105.4533,22.9774],[-105.5013,22.9586],[-105.4982,22.9335],[-105.4712,22.8833],[-105.4842,22.8587],[-105.4949,22.8106],[-105.5232,22.7731],[-105.5141,22.7593],[-105.5153,22.7395],[-105.5229,22.7243],[-105.5115,22.6852],[-105.4981,22.6514],[-105.464,22.6592],[-105.448,22.6608],[-105.4055,22.6559],[-105.4032,22.6237],[-105.3833,22.5653],[-105.324,22.5713],[-105.2684,22.5687],[-105.2681,22.5837],[-105.2456,22.5874],[-105.2256,22.5598],[-105.2029,22.5372],[-105.1762,22.5383],[-105.1524,22.564],[-105.1383,22.56],[-105.1125,22.5694],[-105.0974,22.5857],[-105.1158,22.6144],[-105.0861,22.6148],[-105.0724,22.6565],[-105.0684,22.6784],[-105.0573,22.6881],[-104.8927,22.7374],[-104.9156,22.7485],[-104.9056,22.7998],[-104.9195,22.8206],[-104.9328,22.8273],[-104.9405,22.8162],[-104.959,22.8136],[-104.9783,22.8262],[-104.9875,22.8462],[-104.9889,22.8909],[-105.0051,22.9036],[-105.0097,22.9215],[-104.9969,22.952],[-105.0083,22.9685],[-105.0033,22.977]]]},"properties":{"CVE_ENT":"18","CVE_MUN":"005","CVEGEO":"18005","NOMGEO":"Huajicori"}},
{"type":"Feature","geometry":{"type":"Polygon","coordinates":[[[-104.5977,21.6082],[-104.6038,21.6342],[-104.6207,21.6529],[-104.6232,21.6744],[-104.6487,21.7026],[-104.6405,21.7098],[-104.6684,21.7361],[-104.6605,21.7485],[-104.6774,21.7595],[-104.6801,21.7764],[-104.6964,21.7907],[-104.698,21.8055],[-104.7136,21.8142],[-104.7147,21.8342],[-104.7222,21.8445],[-104.74,21.8454],[-104.7591,21.8546],[-104.7701,21.843],[-104.8067,21.8387],[-104.8279,21.8277],[-104.851,21.8017],[-104.8426,21.7898],[-104.8643,21.7731],[-104.9018,21.7802],[-104.9225,21.7909],[-104.9234,21.7796],[-104.929,21.7744],[-104.9296,21.7698],[-104.927,21.7635],[-104.9347,21.7434],[-104.9941,21.7165],[-105.0266,21.7211],[-105.0403,21.7416],[-105.0529,21.7472],[-105.0804,21.7474],[-105.0949,21.7388],[-105.1229,21.7327],[-105.0911,21.7042],[-105.114,21.7019],[-105.1106,21.6762],[-105.0797,21.6759],[-105.0707,21.6642],[-105.0829,21.6455],[-105.0825,21.6186],[-105.0663,21.6018],[-105.0496,21.595],[-105.0577,21.5693],[-105.0472,21.5535],[-105.062,21.5419],[-105.0648,21.5257],[-105.054,21.5046],[-105.0222,21.4895],[-104.9978,21.4935],[-104.9731,21.4724],[-104.889,21.4712],[-104.8718,21.463],[-104.8515,21.4677],[-104.8342,21.4653],[-104.7844,21.4246],[-104.8093,21.416],[-104.7769,21.3965],[-104.7638,21.3951],[-104.7359,21.4149],[-104.7237,21.4141],[-104.7139,21.3983],[-104.7022,21.4156],[-104.6894,21.4239],[-104.7304,21.4433],[-104.6765,21.4838],[-104.6734,21.5013],[-104.6302,21.5049],[-104.628,21.5106],[-104.6644,21.5476],[-104.6542,21.5868],[-104.6377,21.5921],[-104.6186,21.5885],[-104.5977,21.6082]]]},"properties":{"CVE_ENT":"18","CVE_MUN":"017","CVEGEO":"18017","NOMGEO":"Tepic"}},
{"type":"Feature","geometry":{"type":"Polygon","coordinates":[[[-104.6351,21.1758],[-104.6536,21.2009],[-104.6803,21.2181],[-104.6962,21.246],[-104.6738,21.2724],[-104.6802,21.2816],[-104.697,21.2832],[-104.7204,21.2679],[-104.733,21.2798],[-104.7618,21.3237],[-104.7782,21.3182],[-104.7967,21.3221],[-104.8025,21.3264],[-104.8122,21.2858],[-104.8127,21.2711],[-104.8271,21.2537],[-104.8189,21.238],[-104.8382,21.2205],[-104.8403,21.2052],[-104.8204,21.1895],[-104.8064,21.168],[-104.8048,21.1654],[-104.8178,21.1673],[-104.8232,21.1684],[-104.8314,21.1694],[-104.856,21.1548],[-104.8437,21.1402],[-104.8482,21.1183],[-104.8434,21.0907],[-104.8308,21.0833],[-104.7918,21.0354],[-104.7921,21.0254],[-104.7968,21.0218],[-104.7978,21.0189],[-104.7968,21.0174],[-104.7996,21.0157],[-104.7794,21.0212],[-104.7729,21.0096],[-104.7317,21.0123],[-104.7214,21.0299],[-104.6954,21.0439],[-104.6958,21.0581],[-104.6598,21.0811],[-104.6646,21.1205],[-104.648,21.132],[-104.6357,21.1262],[-104.6221,21.1349],[-104.629,21.1668],[-104.6351,21.1758]]]},"properties":{"CVE_ENT":"18","CVE_MUN":"013","CVEGEO":"18013","NOMGEO":"San Pedro Lagunillas"}},
{"type":"Feature","geometry":{"type":"MultiPolygon","coordinates":[[[[-106.2281,21.3326],[-106.2583,21.3348],[-106.2775,21.314],[-106.2683,21.3008],[-106.2517,21.2916],[-106.23,21.2994],[-106.2281,21.3326]]],[[[-106.4347,21.4942],[-106.4605,21.4946],[-106.4936,21.4675],[-106.4779,21.4515],[-106.4637,21.4496],[-106.3967,21.4199],[-106.3883,21.4242],[-106.3795,21.4491],[-106.3599,21.4604],[-106.3719,21.4815],[-106.3988,21.4831],[-106.4347,21.4942]]],[[[-106.6533,21.6935],[-106.6473,21.6745],[-106.6514,21.6515],[-106.6277,21.6122],[-106.6307,21.6024],[-106.5977,21.5812],[-106.5462,21.5632],[-106.5335,21.5509],[-106.5126,21.5728],[-106.5121,21.5975],[-106.5199,21.6156],[-106.5373,21.6331],[-106.5355,21.657],[-106.547,21.6676],[-106.5742,21.6815],[-106.6079,21.6917],[-106.6533,21.6935]]],[[[-105.1106,21.6762],[-105.1189,21.6738],[-105.1394,21.7046],[-105.1706,21.6962],[-105.2099,21.6994],[-105.2279,21.687],[-105.2826,21.7257],[-105.2881,21.7112],[-105.3047,21.6966],[-105.3298,21.7099],[-105.3619,21.6963],[-105.375,21.6714],[-105.3893,21.6759],[-105.4189,21.6626],[-105.4084,21.6489],[-105.4087,21.6244],[-105.4285,21.6244],[-105.4235,21.6493],[-105.4391,21.6466],[-105.4446,21.632],[-105.4114,21.6021],[-105.3463,21.564],[-105.2655,21.5119],[-105.2472,21.5149],[-105.2336,21.526],[-105.2065,21.5018],[-105.2016,21.4806],[-105.1882,21.4601],[-105.1883,21.4467],[-105.2034,21.4358],[-105.2084,21.4185],[-105.2201,21.4045],[-105.2186,21.393],[-105.2369,21.373],[-105.2377,21.3634],[-105.2155,21.3734],[-105.2062,21.3704],[-105.1932,21.3706],[-105.2075,21.3401],[-105.1803,21.35],[-105.1495,21.3559],[-105.1534,21.3765],[-105.1423,21.3776],[-105.1373,21.3942],[-105.1114,21.39],[-105.0973,21.4055],[-105.0925,21.4473],[-105.0837,21.4536],[-105.0467,21.4587],[-105.0343,21.4678],[-105.0347,21.4749],[-105.0222,21.4895],[-105.0321,21.4918],[-105.054,21.5046],[-105.0648,21.5257],[-105.062,21.5419],[-105.0472,21.5535],[-105.0577,21.5693],[-105.0496,21.595],[-105.0663,21.6018],[-105.0825,21.6186],[-105.0829,21.6455],[-105.0707,21.6642],[-105.0797,21.6759],[-105.1106,21.6762]]],[[[-106.6732,21.7749],[-106.6875,21.7458],[-106.6795,21.7298],[-106.659,21.7376],[-106.6732,21.7749]]]]},"properties":{"CVE_ENT":"18","CVE_MUN":"012","CVEGEO":"18012","NOMGEO":"San Blas"}},
{"type":"Feature","geometry":{"type":"Polygon","coordinates":[[[-104.9038,21.8863],[-104.9023,21.9026],[-104.8836,21.9346],[-104.8629,21.9372],[-104.8372,21.9642],[-104.8316,21.9818],[-104.7922,21.9979],[-104.7999,22.0155],[-104.8326,22.0345],[-104.823,22.0571],[-104.8108,22.0728],[-104.8318,22.119],[-104.8607,22.1428],[-104.9411,22.1515],[-104.9648,22.1612],[-104.9741,22.1568],[-104.9439,22.1015],[-104.9516,22.0868],[-104.948,22.0682],[-104.9285,22.0491],[-104.9519,22.0293],[-104.9566,22.0133],[-104.9516,21.9984],[-104.9623,21.9629],[-104.9742,21.9501],[-105.0435,21.9419],[-105.0577,21.9717],[-105.0669,21.9567],[-105.0864,21.941],[-105.1347,21.9426],[-105.1168,21.9674],[-105.1268,21.9765],[-105.148,21.964],[-105.1552,21.9692],[-105.1772,21.9633],[-105.1854,21.9534],[-105.2241,21.9571],[-105.2326,21.9493],[-105.2096,21.9435],[-105.2013,21.8893],[-105.1861,21.9072],[-105.1682,21.9041],[-105.1578,21.8781],[-105.1437,21.8724],[-105.0989,21.872],[-105.0964,21.8925],[-105.0575,21.8816],[-105.0623,21.9041],[-105.0282,21.907],[-105.0282,21.8988],[-104.9701,21.8885],[-104.9489,21.8881],[-104.9387,21.8938],[-104.9204,21.8939],[-104.9113,21.8896],[-104.9062,21.8908],[-104.9038,21.8863]]]},"properties":{"CVE_ENT":"18","CVE_MUN":"011","CVEGEO":"18011","NOMGEO":"Ruíz"}},
{"type":"Feature","geometry":{"type":"Polygon","coordinates":[[[-105.0357,22.3585],[-105.0516,22.3593],[-105.0843,22.3475],[-105.1058,22.3556],[-105.1162,22.348],[-105.1206,22.2846],[-105.1544,22.2555],[-105.1752,22.2629],[-105.2384,22.2753],[-105.2544,22.2663],[-105.282,22.2578],[-105.2927,22.2409],[-105.3182,22.2539],[-105.3452,22.2459],[-105.3383,22.236],[-105.3582,22.22],[-105.387,22.2281],[-105.3629,22.2382],[-105.3728,22.2553],[-105.385,22.2434],[-105.4095,22.2419],[-105.4051,22.2118],[-105.4245,22.2014],[-105.4598,22.2067],[-105.4804,22.1994],[-105.5101,22.2369],[-105.511,22.1735],[-105.5352,22.1781],[-105.556,22.1653],[-105.5744,22.1603],[-105.5728,22.1367],[-105.5608,22.1072],[-105.5457,22.1018],[-105.5314,22.0882],[-105.5148,22.0902],[-105.4823,22.0777],[-105.4817,22.0234],[-105.4494,21.9958],[-105.4282,21.9939],[-105.4126,21.9999],[-105.3763,21.9977],[-105.3512,22.0031],[-105.3396,21.9896],[-105.2984,21.9637],[-105.295,21.9443],[-105.2587,21.9461],[-105.2551,21.9672],[-105.2454,21.9703],[-105.2326,21.9493],[-105.2241,21.9571],[-105.1854,21.9534],[-105.1772,21.9633],[-105.1552,21.9692],[-105.148,21.964],[-105.1268,21.9765],[-105.1168,21.9674],[-105.1347,21.9426],[-105.0864,21.941],[-105.0669,21.9567],[-105.0577,21.9717],[-105.0435,21.9419],[-104.9742,21.9501],[-104.9623,21.9629],[-104.9516,21.9984],[-104.9566,22.0133],[-104.9519,22.0293],[-104.9285,22.0491],[-104.948,22.0682],[-104.9516,22.0868],[-104.9439,22.1015],[-104.9741,22.1568],[-104.9874,22.1727],[-104.9819,22.1872],[-104.989,22.2138],[-105.0078,22.2183],[-105.0136,22.2302],[-105.0083,22.2623],[-105.0253,22.29],[-105.0205,22.3022],[-105.043,22.3079],[-105.0508,22.3294],[-105.0357,22.3585]]]},"properties":{"CVE_ENT":"18","CVE_MUN":"010","CVEGEO":"18010","NOMGEO":"Rosamorada"}},
{"type":"Feature","geometry":{"type":"Polygon","coordinates":[[[-104.4286,21.0554],[-104.4424,21.0578],[-104.4368,21.0748],[-104.455,21.0738],[-104.47,21.1063],[-104.5239,21.1292],[-104.4921,21.1563],[-104.5388,21.1782],[-104.5346,21.1615],[-104.5856,21.1394],[-104.6007,21.1373],[-104.5904,21.118],[-104.5768,21.1116],[-104.585,21.0955],[-104.609,21.1268],[-104.6142,21.1471],[-104.6351,21.1758],[-104.629,21.1668],[-104.6221,21.1349],[-104.6357,21.1262],[-104.648,21.132],[-104.6646,21.1205],[-104.6598,21.0811],[-104.6958,21.0581],[-104.6954,21.0439],[-104.7214,21.0299],[-104.7317,21.0123],[-104.7251,21.0048],[-104.7294,20.9832],[-104.6926,20.9617],[-104.6811,20.9607],[-104.681,20.9438],[-104.6547,20.932],[-104.6381,20.9341],[-104.6291,20.9242],[-104.5812,20.9658],[-104.5423,20.9486],[-104.5403,20.967],[-104.5221,20.9627],[-104.5011,20.9672],[-104.4822,20.9931],[-104.4614,20.9933],[-104.4554,20.985],[-104.4462,21.0128],[-104.4174,21.0129],[-104.4063,21.0247],[-104.4348,21.0373],[-104.4286,21.0554]]]},"properties":{"CVE_ENT":"18","CVE_MUN":"002","CVEGEO":"18002","NOMGEO":"Ahuacatlán"}},
{"type":"Feature","geometry":{"type":"Polygon","coordinates":[[[-105.0724,22.6565],[-105.0861,22.6148],[-105.1158,22.6144],[-105.0974,22.5857],[-105.1125,22.5694],[-105.1383,22.56],[-105.1524,22.564],[-105.1762,22.5383],[-105.2029,22.5372],[-105.2256,22.5598],[-105.2456,22.5874],[-105.2681,22.5837],[-105.2684,22.5687],[-105.324,22.5713],[-105.3833,22.5653],[-105.4032,22.6237],[-105.4055,22.6559],[-105.448,22.6608],[-105.464,22.6592],[-105.4742,22.6328],[-105.4523,22.6271],[-105.4481,22.6101],[-105.456,22.5987],[-105.4391,22.5879],[-105.4346,22.55],[-105.4417,22.5243],[-105.4608,22.5086],[-105.5027,22.5256],[-105.5336,22.515],[-105.5399,22.5356],[-105.5736,22.5393],[-105.5983,22.5367],[-105.6005,22.5589],[-105.622,22.5714],[-105.6314,22.5888],[-105.6506,22.5795],[-105.6601,22.5859],[-105.6822,22.5721],[-105.6721,22.5519],[-105.6704,22.5309],[-105.6596,22.5171],[-105.6395,22.5175],[-105.6053,22.4965],[-105.5898,22.5005],[-105.5643,22.4875],[-105.5487,22.4629],[-105.5653,22.4502],[-105.5296,22.427],[-105.5391,22.47],[-105.4998,22.4539],[-105.4794,22.4584],[-105.456,22.4451],[-105.4098,22.4385],[-105.4107,22.401],[-105.3984,22.398],[-105.4055,22.3709],[-105.3969,22.3702],[-105.3568,22.3514],[-105.3414,22.3539],[-105.3408,22.3713],[-105.3258,22.3725],[-105.3137,22.355],[-105.298,22.3432],[-105.2998,22.329],[-105.2858,22.303],[-105.2662,22.3075],[-105.2544,22.2663],[-105.2384,22.2753],[-105.1752,22.2629],[-105.1544,22.2555],[-105.1206,22.2846],[-105.1162,22.348],[-105.1058,22.3556],[-105.0843,22.3475],[-105.0516,22.3593],[-105.0357,22.3585],[-105.0219,22.3722],[-105.0335,22.392],[-105.0337,22.4162],[-105.0446,22.4277],[-105.0383,22.4473],[-105.0252,22.4591],[-104.9927,22.4631],[-105.0064,22.4824],[-104.9883,22.4852],[-104.9879,22.4987],[-105.0076,22.5857],[-105.0724,22.6565]]]},"properties":{"CVE_ENT":"18","CVE_MUN":"001","CVEGEO":"18001","NOMGEO":"Acaponeta"}},
{"type":"Feature","geometry":{"type":"Polygon","coordinates":[[[-105.2326,21.9493],[-105.2454,21.9703],[-105.2551,21.9672],[-105.2587,21.9461],[-105.295,21.9443],[-105.2984,21.9637],[-105.3396,21.9896],[-105.3512,22.0031],[-105.3763,21.9977],[-105.4126,21.9999],[-105.4282,21.9939],[-105.4494,21.9958],[-105.4817,22.0234],[-105.4823,22.0777],[-105.5148,22.0902],[-105.5314,22.0882],[-105.5457,22.1018],[-105.5608,22.1072],[-105.5728,22.1367],[-105.5889,22.1345],[-105.5525,22.0708],[-105.5225,22.0252],[-105.5044,22.0109],[-105.5021,22.0005],[-105.4731,21.9564],[-105.4481,21.9456],[-105.4236,21.9443],[-105.412,21.9103],[-105.4021,21.9228],[-105.3649,21.9405],[-105.3551,21.8496],[-105.3218,21.8615],[-105.2972,21.8839],[-105.2715,21.8807],[-105.2342,21.8819],[-105.2268,21.8736],[-105.2065,21.8774],[-105.2068,21.8821],[-105.2032,21.8853],[-105.2037,21.8862],[-105.204,21.8887],[-105.2013,21.8893],[-105.2096,21.9435],[-105.2326,21.9493]]]},"properties":{"CVE_ENT":"18","CVE_MUN":"018","CVEGEO":"18018","NOMGEO":"Tuxpan"}},
{"type":"Feature","geometry":{"type":"Polygon","coordinates":[[[-104.2,21.8943],[-104.1993,21.911],[-104.1797,21.9375],[-104.1737,21.9709],[-104.1933,21.9854],[-104.212,21.9831],[-104.2453,21.9669],[-104.2772,21.9824],[-104.2814,21.9997],[-104.2958,22.0024],[-104.3255,21.9767],[-104.3637,21.974],[-104.3743,21.9524],[-104.3959,21.9393],[-104.4302,21.9286],[-104.4439,21.9282],[-104.4229,21.8626],[-104.4101,21.8558],[-104.4481,21.7482],[-104.4333,21.7313],[-104.4314,21.7193],[-104.4487,21.6865],[-104.4526,21.6609],[-104.4273,21.6559],[-104.442,21.6286],[-104.4389,21.6026],[-104.4758,21.6104],[-104.4658,21.5844],[-104.4762,21.5726],[-104.4412,21.5514],[-104.4701,21.5415],[-104.4591,21.5291],[-104.4387,21.534],[-104.4304,21.5204],[-104.4739,21.4705],[-104.4689,21.4353],[-104.4372,21.4243],[-104.4214,21.4127],[-104.4306,21.379],[-104.4224,21.3623],[-104.4001,21.3513],[-104.3819,21.3501],[-104.3749,21.3325],[-104.3587,21.3269],[-104.349,21.2986],[-104.3499,21.2742],[-104.3356,21.2553],[-104.3108,21.2634],[-104.2879,21.2514],[-104.2746,21.2349],[-104.2477,21.2265],[-104.2376,21.2022],[-104.2309,21.1858],[-104.2194,21.1766],[-104.1964,21.1936],[-104.1581,21.1849],[-104.1473,21.1916],[-104.1144,21.1899],[-104.0982,21.2005],[-104.0718,21.1886],[-104.0158,21.2085],[-104.0161,21.2276],[-103.9713,21.2563],[-103.9584,21.2528],[-103.9459,21.238],[-103.9179,21.231],[-103.8737,21.2425],[-103.8619,21.2489],[-103.84,21.2398],[-103.8185,21.249],[-103.825,21.2719],[-103.7991,21.3033],[-103.7781,21.3108],[-103.7761,21.3212],[-103.7496,21.3369],[-103.7457,21.363],[-103.7413,21.3741],[-103.7654,21.386],[-103.7513,21.4175],[-103.7326,21.4159],[-103.7209,21.4254],[-103.742,21.4416],[-103.7521,21.4663],[-103.7509,21.4763],[-103.7687,21.4828],[-103.7801,21.5],[-103.8009,21.4883],[-103.8258,21.4945],[-103.8366,21.5127],[-103.8594,21.5241],[-103.8551,21.5484],[-103.8853,21.5542],[-103.903,21.5744],[-103.9232,21.59],[-103.9076,21.6178],[-103.9118,21.6298],[-103.9302,21.6419],[-103.9208,21.6689],[-103.9088,21.6738],[-103.8904,21.6994],[-103.9014,21.7173],[-103.9265,21.7363],[-103.9336,21.7484],[-103.9164,21.7569],[-103.9226,21.771],[-103.9445,21.7768],[-103.9778,21.7713],[-103.9889,21.7797],[-104.0113,21.7821],[-104.0526,21.7946],[-104.094,21.7859],[-104.1304,21.7905],[-104.1488,21.8074],[-104.1607,21.8099],[-104.1892,21.849],[-104.1793,21.8604],[-104.1957,21.8792],[-104.2,21.8943]]]},"properties":{"CVE_ENT":"18","CVE_MUN":"019","CVEGEO":"18019","NOMGEO":"La Yesca"}},
{"type":"Feature","geometry":{"type":"Polygon","coordinates":[[[-105.2071,21.3707],[-105.2155,21.3734],[-105.2388,21.362],[-105.2445,21.3442],[-105.2268,21.2875],[-105.2199,21.2465],[-105.2164,21.2038],[-105.2312,21.1865],[-105.2378,21.1221],[-105.2311,21.119],[-105.229,21.0952],[-105.2427,21.0498],[-105.2676,21.0272],[-105.2922,21.0251],[-105.3135,21.0331],[-105.3208,21.0016],[-105.3319,20.9857],[-105.3451,20.9793],[-105.3557,20.9603],[-105.3224,20.9296],[-105.3666,20.8785],[-105.3504,20.8537],[-105.308,20.8719],[-105.2864,20.9001],[-105.255,20.9065],[-105.2201,20.9535],[-105.0708,20.9703],[-105.0376,20.9916],[-105.0336,21.0022],[-105.0043,20.992],[-104.9838,20.9594],[-104.9628,20.9515],[-104.9532,20.9301],[-104.8991,20.9485],[-104.9,20.9635],[-104.8676,20.9946],[-104.8598,20.9939],[-104.8277,21.0181],[-104.8109,21.012],[-104.8044,21.0149],[-104.8032,21.0165],[-104.8007,21.0159],[-104.8,21.0164],[-104.7968,21.0174],[-104.7921,21.0254],[-104.7918,21.0354],[-104.8308,21.0833],[-104.8434,21.0907],[-104.8482,21.1183],[-104.8437,21.1402],[-104.856,21.1548],[-104.8314,21.1694],[-104.8232,21.1684],[-104.8178,21.1673],[-104.8048,21.1654],[-104.8204,21.1895],[-104.8403,21.2052],[-104.8382,21.2205],[-104.8189,21.238],[-104.8271,21.2537],[-104.8127,21.2711],[-104.8122,21.2858],[-104.8025,21.3264],[-104.8192,21.3248],[-104.8278,21.3364],[-104.8413,21.3315],[-104.8704,21.335],[-104.8814,21.3131],[-104.9229,21.3022],[-104.9431,21.3087],[-104.9603,21.3059],[-104.979,21.3171],[-104.9961,21.3374],[-105.009,21.3344],[-105.0303,21.3433],[-105.0478,21.3423],[-105.0601,21.3229],[-105.0733,21.3352],[-105.0989,21.3166],[-105.1495,21.3559],[-105.1803,21.35],[-105.2075,21.3401],[-105.2138,21.3442],[-105.2127,21.3495],[-105.2035,21.3524],[-105.1932,21.3706],[-105.2071,21.3707]]]},"properties":{"CVE_ENT":"18","CVE_MUN":"004","CVEGEO":"18004","NOMGEO":"Compostela"}},
{"type":"Feature","geometry":{"type":"Polygon","coordinates":[[[-104.2376,21.2022],[-104.2612,21.2069],[-104.2758,21.2019],[-104.3069,21.2038],[-104.3242,21.1983],[-104.3368,21.2048],[-104.3353,21.1708],[-104.3199,21.169],[-104.3225,21.1427],[-104.3072,21.1325],[-104.3097,21.1181],[-104.2905,21.0866],[-104.3089,21.0713],[-104.3661,21.0723],[-104.38,21.0656],[-104.4199,21.0698],[-104.4286,21.0554],[-104.4348,21.0373],[-104.4063,21.0247],[-104.4174,21.0129],[-104.4462,21.0128],[-104.4554,20.985],[-104.4531,20.9598],[-104.4405,20.9427],[-104.4031,20.9465],[-104.3974,20.9691],[-104.3772,20.963],[-104.3453,20.9648],[-104.352,20.9359],[-104.3332,20.9277],[-104.3289,20.9104],[-104.3046,20.8796],[-104.2923,20.8488],[-104.2791,20.8645],[-104.2895,20.888],[-104.2685,20.8873],[-104.2595,20.894],[-104.2474,20.9188],[-104.2211,20.9415],[-104.2072,20.936],[-104.2048,20.9599],[-104.2331,20.9687],[-104.2385,20.9917],[-104.2243,21.0076],[-104.2407,21.0217],[-104.2339,21.0412],[-104.2384,21.0523],[-104.2167,21.0858],[-104.2106,21.1306],[-104.2251,21.1508],[-104.2194,21.1766],[-104.2309,21.1858],[-104.2376,21.2022]]]},"properties":{"CVE_ENT":"18","CVE_MUN":"006","CVEGEO":"18006","NOMGEO":"Ixtlán del Río"}},
{"type":"Feature","geometry":{"type":"Polygon","coordinates":[[[-105.0251,20.9994],[-105.0336,21.0022],[-105.0376,20.9916],[-105.0708,20.9703],[-105.2201,20.9535],[-105.255,20.9065],[-105.2864,20.9001],[-105.308,20.8719],[-105.3504,20.8537],[-105.3666,20.8785],[-105.3224,20.9296],[-105.3557,20.9603],[-105.3871,20.9379],[-105.402,20.9313],[-105.4184,20.898],[-105.4357,20.8741],[-105.454,20.8717],[-105.4655,20.8366],[-105.4854,20.7999],[-105.5072,20.7826],[-105.5244,20.7907],[-105.5394,20.7708],[-105.5123,20.772],[-105.4759,20.7522],[-105.4639,20.7549],[-105.4334,20.7475],[-105.4117,20.7351],[-105.3996,20.7348],[-105.3706,20.7518],[-105.3642,20.7619],[-105.3477,20.7597],[-105.3156,20.7319],[-105.2956,20.6894],[-105.2838,20.672],[-105.2724,20.6838],[-105.2563,20.6953],[-105.2385,20.726],[-105.2352,20.7474],[-105.197,20.7772],[-105.1734,20.7678],[-105.1623,20.7925],[-105.171,20.7961],[-105.166,20.8238],[-105.1526,20.8626],[-105.1302,20.8886],[-105.1131,20.8999],[-105.1045,20.9123],[-105.0945,20.9195],[-105.0882,20.9231],[-105.0879,20.9232],[-105.0875,20.9232],[-105.0868,20.9231],[-105.0855,20.9239],[-105.0599,20.9334],[-105.0468,20.9343],[-105.0316,20.9092],[-105.0053,20.9222],[-104.9888,20.9214],[-104.968,20.9109],[-104.9628,20.9515],[-104.9838,20.9594],[-105.0043,20.992],[-105.0251,20.9994]]]},"properties":{"CVE_ENT":"18","CVE_MUN":"020","CVEGEO":"18020","NOMGEO":"Bahía de Banderas"}},
{"type":"Feature","geometry":{"type":"Polygon","coordinates":[[[-104.7638,21.3951],[-104.7769,21.3965],[-104.8093,21.416],[-104.7844,21.4246],[-104.8342,21.4653],[-104.8515,21.4677],[-104.8718,21.463],[-104.889,21.4712],[-104.9731,21.4724],[-104.9978,21.4935],[-105.0222,21.4895],[-105.0347,21.4749],[-105.0343,21.4678],[-105.0467,21.4587],[-105.0837,21.4536],[-105.0925,21.4473],[-105.0973,21.4055],[-105.1114,21.39],[-105.1373,21.3942],[-105.1423,21.3776],[-105.1534,21.3765],[-105.1495,21.3559],[-105.0989,21.3166],[-105.0733,21.3352],[-105.0601,21.3229],[-105.0478,21.3423],[-105.0303,21.3433],[-105.009,21.3344],[-104.9961,21.3374],[-104.979,21.3171],[-104.9603,21.3059],[-104.9431,21.3087],[-104.9229,21.3022],[-104.8814,21.3131],[-104.8704,21.335],[-104.8413,21.3315],[-104.8278,21.3364],[-104.8192,21.3248],[-104.8025,21.3264],[-104.7967,21.3221],[-104.8045,21.333],[-104.7796,21.3725],[-104.7602,21.3769],[-104.7638,21.3951]]]},"properties":{"CVE_ENT":"18","CVE_MUN":"008","CVEGEO":"18008","NOMGEO":"Xalisco"}},
{"type":"Feature","geometry":{"type":"Polygon","coordinates":[[[-105.6822,22.5721],[-105.7004,22.5585],[-105.6772,22.5129],[-105.6711,22.4816],[-105.677,22.4681],[-105.7012,22.4677],[-105.7141,22.4749],[-105.7277,22.4924],[-105.7502,22.5393],[-105.7596,22.5376],[-105.7582,22.5308],[-105.7227,22.4631],[-105.7004,22.4143],[-105.6772,22.3488],[-105.6627,22.2923],[-105.6361,22.2924],[-105.6331,22.2586],[-105.6203,22.2396],[-105.6225,22.2152],[-105.6158,22.1855],[-105.6057,22.171],[-105.5998,22.1454],[-105.5889,22.1345],[-105.5728,22.1367],[-105.5744,22.1603],[-105.556,22.1653],[-105.5352,22.1781],[-105.511,22.1735],[-105.5101,22.2369],[-105.4804,22.1994],[-105.4598,22.2067],[-105.4245,22.2014],[-105.4051,22.2118],[-105.4095,22.2419],[-105.385,22.2434],[-105.3728,22.2553],[-105.3629,22.2382],[-105.387,22.2281],[-105.3582,22.22],[-105.3383,22.236],[-105.3452,22.2459],[-105.3182,22.2539],[-105.2927,22.2409],[-105.282,22.2578],[-105.2544,22.2663],[-105.2662,22.3075],[-105.2858,22.303],[-105.2998,22.329],[-105.298,22.3432],[-105.3137,22.355],[-105.3258,22.3725],[-105.3408,22.3713],[-105.3414,22.3539],[-105.3568,22.3514],[-105.3969,22.3702],[-105.4055,22.3709],[-105.3984,22.398],[-105.4107,22.401],[-105.4098,22.4385],[-105.456,22.4451],[-105.4794,22.4584],[-105.4998,22.4539],[-105.5391,22.47],[-105.5296,22.427],[-105.5653,22.4502],[-105.5487,22.4629],[-105.5643,22.4875],[-105.5898,22.5005],[-105.6053,22.4965],[-105.6395,22.5175],[-105.6596,22.5171],[-105.6704,22.5309],[-105.6721,22.5519],[-105.6822,22.5721]]]},"properties":{"CVE_ENT":"18","CVE_MUN":"016","CVEGEO":"18016","NOMGEO":"Tecuala"}}
]}