{"type":"FeatureCollection", "features": [
{"type":"Feature","geometry":{"type":"Polygon","coordinates":[[[-102.0969,22.023],[-102.1097,22.0271],[-102.1164,22.0408],[-102.1063,22.0552],[-102.1073,22.0748],[-102.1409,22.0753],[-102.1385,22.0602],[-102.1446,22.0354],[-102.1532,22.0225],[-102.1797,22.0332],[-102.2079,22.0379],[-102.2228,22.0315],[-102.2262,21.997],[-102.2078,21.9947],[-102.2032,21.9716],[-102.2276,21.9748],[-102.23,21.9614],[-102.2484,21.95],[-102.2788,21.9584],[-102.2831,21.9468],[-102.3085,21.9477],[-102.3084,21.9344],[-102.3434,21.939],[-102.3462,21.9124],[-102.3659,21.9054],[-102.3883,21.9093],[-102.3932,21.898],[-102.4205,21.8864],[-102.4306,21.8655],[-102.4346,21.8454],[-102.4565,21.8176],[-102.5171,21.8152],[-102.5448,21.8025],[-102.5296,21.7845],[-102.5539,21.78],[-102.5594,21.7551],[-102.5831,21.7471],[-102.5831,21.7439],[-102.5552,21.7436],[-102.5425,21.7326],[-102.4684,21.6979],[-102.4569,21.6981],[-102.4415,21.6734],[-102.425,21.6718],[-102.4134,21.6668],[-102.4075,21.6595],[-102.3695,21.6506],[-102.3669,21.6428],[-102.3257,21.6223],[-102.3102,21.6266],[-102.2954,21.6531],[-102.227,21.6568],[-102.2143,21.6948],[-102.1779,21.6882],[-102.1714,21.707],[-102.1549,21.7],[-102.1421,21.7054],[-102.1363,21.7205],[-102.1255,21.7258],[-102.1162,21.7365],[-102.1156,21.736],[-102.1148,21.7387],[-102.1147,21.7388],[-102.1139,21.7408],[-102.116,21.7423],[-102.1164,21.7431],[-102.1117,21.7455],[-102.1093,21.7494],[-102.1021,21.7553],[-102.1016,21.7616],[-102.0887,21.7671],[-102.0946,21.7777],[-102.0645,21.7962],[-102.115,21.8002],[-102.1534,21.7889],[-102.1506,21.8097],[-102.1697,21.8235],[-102.176,21.8441],[-102.1748,21.8705],[-102.1572,21.8696],[-102.1553,21.9106],[-102.1662,21.9196],[-102.1642,21.9372],[-102.1384,21.9375],[-102.1319,21.9769],[-102.1006,21.9722],[-102.0969,22.023]]]},"properties":{"CVE_ENT":"01","CVE_MUN":"001","CVEGEO":"01001","NOMGEO":"Aguascalientes"}},
{"type":"Feature","geometry":{"type":"Polygon","coordinates":[[[-102.3549,22.127],[-102.3579,22.1401],[-102.3799,22.1386],[-102.3719,22.1709],[-102.3809,22.187],[-102.3692,22.2044],[-102.3653,22.2224],[-102.3748,22.228],[-102.407,22.2283],[-102.442,22.2383],[-102.4419,22.273],[-102.4501,22.288],[-102.4561,22.3232],[-102.4622,22.3228],[-102.4702,22.3092],[-102.5013,22.3043],[-102.5066,22.2938],[-102.527,22.2909],[-102.6687,22.2919],[-102.67,22.2457],[-102.6414,22.2284],[-102.6458,22.2043],[-102.6759,22.1756],[-102.6694,22.1596],[-102.6863,22.137],[-102.6834,22.1299],[-102.6875,22.1242],[-102.6895,22.1238],[-102.6901,22.1234],[-102.6919,22.1141],[-102.6911,22.1062],[-102.6935,22.1047],[-102.687,22.1065],[-102.6857,22.0996],[-102.6712,22.0983],[-102.669,22.0876],[-102.6435,22.0935],[-102.6208,22.0815],[-102.6022,22.0401],[-102.5911,22.0314],[-102.5607,22.0294],[-102.5529,22.0146],[-102.5295,22.0157],[-102.5163,22.0243],[-102.4814,22.0226],[-102.4504,21.9852],[-102.4323,21.9958],[-102.4272,22.0181],[-102.4166,22.0376],[-102.4188,22.0805],[-102.3919,22.0886],[-102.3824,22.1278],[-102.3544,22.1159],[-102.3549,22.127]]]},"properties":{"CVE_ENT":"01","CVE_MUN":"008","CVEGEO":"01008","NOMGEO":"San José de Gracia"}},
{"type":"Feature","geometry":{"type":"Polygon","coordinates":[[[-102.1409,22.0753],[-102.1629,22.1003],[-102.1803,22.0843],[-102.191,22.0661],[-102.2115,22.0734],[-102.2262,22.0861],[-102.2737,22.0881],[-102.2852,22.0826],[-102.2864,22.0622],[-102.3103,22.0372],[-102.3013,22.0311],[-102.2791,22.0332],[-102.2656,22.0207],[-102.2748,21.9952],[-102.2723,21.9765],[-102.2788,21.9584],[-102.2484,21.95],[-102.23,21.9614],[-102.2276,21.9748],[-102.2032,21.9716],[-102.2078,21.9947],[-102.2262,21.997],[-102.2228,22.0315],[-102.2079,22.0379],[-102.1797,22.0332],[-102.1532,22.0225],[-102.1446,22.0354],[-102.1385,22.0602],[-102.1409,22.0753]]]},"properties":{"CVE_ENT":"01","CVE_MUN":"011","CVEGEO":"01011","NOMGEO":"San Francisco de los Romo"}},
{"type":"Feature","geometry":{"type":"Polygon","coordinates":[[[-102.1621,22.3485],[-102.1807,22.3504],[-102.189,22.3624],[-102.1866,22.3403],[-102.1909,22.3179],[-102.2131,22.3144],[-102.2177,22.2947],[-102.2387,22.2974],[-102.2496,22.2867],[-102.2563,22.2672],[-102.257,22.2357],[-102.2773,22.2254],[-102.2765,22.1875],[-102.2666,22.1869],[-102.2592,22.1864],[-102.2511,22.183],[-102.2497,22.1796],[-102.2475,22.1778],[-102.2465,22.1747],[-102.2469,22.171],[-102.2208,22.1679],[-102.213,22.1637],[-102.2063,22.1626],[-102.2045,22.1611],[-102.2031,22.1604],[-102.2014,22.1599],[-102.1863,22.1612],[-102.1757,22.1295],[-102.1489,22.1547],[-102.1265,22.1576],[-102.137,22.1911],[-102.1328,22.2152],[-102.1465,22.2338],[-102.1301,22.2411],[-102.1241,22.287],[-102.1532,22.2904],[-102.1498,22.3472],[-102.1621,22.3485]]]},"properties":{"CVE_ENT":"01","CVE_MUN":"009","CVEGEO":"01009","NOMGEO":"Tepezalá"}},
{"type":"Feature","geometry":{"type":"Polygon","coordinates":[[[-102.2596,22.1831],[-102.2765,22.1875],[-102.2773,22.2254],[-102.257,22.2357],[-102.2563,22.2672],[-102.2496,22.2867],[-102.2387,22.2974],[-102.2177,22.2947],[-102.2131,22.3144],[-102.1909,22.3179],[-102.1866,22.3403],[-102.189,22.3624],[-102.212,22.3625],[-102.212,22.3727],[-102.2521,22.3744],[-102.2388,22.3524],[-102.2451,22.342],[-102.2462,22.2984],[-102.2616,22.2857],[-102.2967,22.2895],[-102.3165,22.3129],[-102.3042,22.332],[-102.3624,22.3288],[-102.3627,22.3465],[-102.3495,22.3467],[-102.3442,22.363],[-102.3784,22.3609],[-102.3879,22.3641],[-102.4656,22.3502],[-102.4705,22.337],[-102.461,22.3318],[-102.4622,22.3228],[-102.4561,22.3232],[-102.4501,22.288],[-102.4419,22.273],[-102.442,22.2383],[-102.407,22.2283],[-102.3748,22.228],[-102.3653,22.2224],[-102.3692,22.2044],[-102.3809,22.187],[-102.3719,22.1709],[-102.3799,22.1386],[-102.3579,22.1401],[-102.3549,22.127],[-102.3506,22.1466],[-102.3032,22.1405],[-102.293,22.1463],[-102.2959,22.1696],[-102.2581,22.1755],[-102.2596,22.1831]]]},"properties":{"CVE_ENT":"01","CVE_MUN":"007","CVEGEO":"01007","NOMGEO":"Rincón de Romos"}},
{"type":"Feature","geometry":{"type":"Polygon","coordinates":[[[-102.2042,22.1609],[-102.213,22.1637],[-102.2208,22.1679],[-102.2469,22.171],[-102.2465,22.1747],[-102.2475,22.1778],[-102.2497,22.1796],[-102.2511,22.183],[-102.2596,22.1831],[-102.2581,22.1755],[-102.2959,22.1696],[-102.293,22.1463],[-102.3032,22.1405],[-102.3506,22.1466],[-102.3549,22.127],[-102.3544,22.1159],[-102.3824,22.1278],[-102.3919,22.0886],[-102.4188,22.0805],[-102.4166,22.0376],[-102.3873,22.0403],[-102.3817,22.0591],[-102.3655,22.0467],[-102.3548,22.0628],[-102.3376,22.0601],[-102.3326,22.0324],[-102.3103,22.0372],[-102.2864,22.0622],[-102.2852,22.0826],[-102.2737,22.0881],[-102.2262,22.0861],[-102.2115,22.0734],[-102.191,22.0661],[-102.199,22.071],[-102.1925,22.1015],[-102.2167,22.1063],[-102.2178,22.1227],[-102.2045,22.1451],[-102.2042,22.1609]]]},"properties":{"CVE_ENT":"01","CVE_MUN":"006","CVEGEO":"01006","NOMGEO":"Pabellón de Arteaga"}},
{"type":"Feature","geometry":{"type":"Polygon","coordinates":[[[-102.2532,22.3745],[-102.2503,22.3872],[-102.2709,22.4118],[-102.2899,22.42],[-102.2983,22.4596],[-102.3118,22.4569],[-102.312,22.4408],[-102.321,22.4183],[-102.3214,22.3885],[-102.3593,22.385],[-102.3784,22.3609],[-102.3442,22.363],[-102.3495,22.3467],[-102.3627,22.3465],[-102.3624,22.3288],[-102.3042,22.332],[-102.3165,22.3129],[-102.2967,22.2895],[-102.2616,22.2857],[-102.2462,22.2984],[-102.2451,22.342],[-102.2388,22.3524],[-102.2532,22.3745]]]},"properties":{"CVE_ENT":"01","CVE_MUN":"004","CVEGEO":"01004","NOMGEO":"Cosío"}},
{"type":"Feature","geometry":{"type":"Polygon","coordinates":[[[-102.3103,22.0372],[-102.3326,22.0324],[-102.3376,22.0601],[-102.3548,22.0628],[-102.3655,22.0467],[-102.3817,22.0591],[-102.3873,22.0403],[-102.4166,22.0376],[-102.4272,22.0181],[-102.4323,21.9958],[-102.4504,21.9852],[-102.4814,22.0226],[-102.5163,22.0243],[-102.5295,22.0157],[-102.5529,22.0146],[-102.5551,22.0022],[-102.5718,21.9723],[-102.5877,21.9133],[-102.5817,21.8994],[-102.5853,21.8702],[-102.5984,21.8652],[-102.5964,21.8302],[-102.5855,21.8292],[-102.5899,21.7983],[-102.5589,21.804],[-102.5448,21.8025],[-102.5171,21.8152],[-102.4565,21.8176],[-102.4346,21.8454],[-102.4306,21.8655],[-102.4205,21.8864],[-102.3932,21.898],[-102.3883,21.9093],[-102.3659,21.9054],[-102.3462,21.9124],[-102.3434,21.939],[-102.3084,21.9344],[-102.3085,21.9477],[-102.2831,21.9468],[-102.2788,21.9584],[-102.2723,21.9765],[-102.2748,21.9952],[-102.2656,22.0207],[-102.2791,22.0332],[-102.3013,22.0311],[-102.3103,22.0372]]]},"properties":{"CVE_ENT":"01","CVE_MUN":"005","CVEGEO":"01005","NOMGEO":"Jesús María"}},
{"type":"Feature","geometry":{"type":"Polygon","coordinates":[[[-101.8978,21.9584],[-101.9481,22.0088],[-101.9919,22.0079],[-101.9875,22.0392],[-102.0228,22.0443],[-102.0361,22.0523],[-102.0601,22.0444],[-102.0649,22.0174],[-102.0969,22.023],[-102.1006,21.9722],[-102.1319,21.9769],[-102.1384,21.9375],[-102.1642,21.9372],[-102.1662,21.9196],[-102.1553,21.9106],[-102.1572,21.8696],[-102.1748,21.8705],[-102.176,21.8441],[-102.1697,21.8235],[-102.1506,21.8097],[-102.1534,21.7889],[-102.115,21.8002],[-102.0645,21.7962],[-102.0551,21.8164],[-102.0417,21.8231],[-102.0384,21.8532],[-102.02,21.8625],[-101.9569,21.8842],[-101.9156,21.8982],[-101.8802,21.9101],[-101.838,21.9073],[-101.8353,21.9418],[-101.8723,21.9465],[-101.8797,21.9439],[-101.8978,21.9584]]]},"properties":{"CVE_ENT":"01","CVE_MUN":"010","CVEGEO":"01010","NOMGEO":"El Llano"}},
{"type":"Feature","geometry":{"type":"Polygon","coordinates":[[[-102.5529,22.0146],[-102.5607,22.0294],[-102.5911,22.0314],[-102.6022,22.0401],[-102.6208,22.0815],[-102.6435,22.0935],[-102.669,22.0876],[-102.6712,22.0983],[-102.6857,22.0996],[-102.687,22.1065],[-102.6935,22.1047],[-102.6941,22.1039],[-102.6967,22.1025],[-102.6978,22.1015],[-102.7096,22.0966],[-102.7185,22.0908],[-102.7221,22.0905],[-102.7249,22.0902],[-102.7558,22.0737],[-102.761,22.0463],[-102.7816,22.0286],[-102.8055,21.9963],[-102.8207,21.9642],[-102.8435,21.9264],[-102.8556,21.8845],[-102.8634,21.8638],[-102.8657,21.8629],[-102.8679,21.861],[-102.8703,21.8587],[-102.8728,21.8564],[-102.8742,21.8528],[-102.8709,21.8462],[-102.8646,21.8435],[-102.8619,21.8397],[-102.8581,21.8332],[-102.8473,21.8334],[-102.8533,21.7991],[-102.8324,21.7979],[-102.8169,21.7665],[-102.7923,21.755],[-102.7722,21.7378],[-102.7352,21.7157],[-102.7228,21.7191],[-102.7204,21.7215],[-102.7176,21.7331],[-102.714,21.7301],[-102.6963,21.7288],[-102.6907,21.7524],[-102.6713,21.7625],[-102.6335,21.7673],[-102.5963,21.744],[-102.5831,21.7439],[-102.5831,21.7471],[-102.5594,21.7551],[-102.5539,21.78],[-102.5296,21.7845],[-102.5448,21.8025],[-102.5589,21.804],[-102.5899,21.7983],[-102.5855,21.8292],[-102.5964,21.8302],[-102.5984,21.8652],[-102.5853,21.8702],[-102.5817,21.8994],[-102.5877,21.9133],[-102.5718,21.9723],[-102.5551,22.0022],[-102.5529,22.0146]]]},"properties":{"CVE_ENT":"01","CVE_MUN":"003","CVEGEO":"01003","NOMGEO":"Calvillo"}},
{"type":"Feature","geometry":{"type":"Polygon","coordinates":[[[-101.8978,21.9584],[-101.8913,21.9766],[-101.8638,21.99],[-101.8617,21.9987],[-101.8622,22.0088],[-101.8607,22.0169],[-101.8613,22.0186],[-101.8606,22.028],[-101.8621,22.0282],[-101.8614,22.0294],[-101.8605,22.0332],[-101.8643,22.0415],[-101.8812,22.0541],[-101.9676,22.1112],[-101.986,22.1208],[-102.0082,22.1238],[-102.0173,22.1269],[-102.0259,22.1298],[-102.0171,22.154],[-102.0443,22.1534],[-102.0295,22.1687],[-102.001,22.1681],[-101.9997,22.2337],[-102.0025,22.2414],[-102.022,22.2443],[-102.03,22.2855],[-102.0373,22.299],[-102.0756,22.3061],[-102.0896,22.289],[-102.1241,22.287],[-102.1301,22.2411],[-102.1465,22.2338],[-102.1328,22.2152],[-102.137,22.1911],[-102.1265,22.1576],[-102.1489,22.1547],[-102.1757,22.1295],[-102.1863,22.1612],[-102.1984,22.16],[-102.2014,22.1599],[-102.2031,22.1604],[-102.2042,22.1609],[-102.2045,22.1451],[-102.2178,22.1227],[-102.2167,22.1063],[-102.1925,22.1015],[-102.199,22.071],[-102.191,22.0661],[-102.1803,22.0843],[-102.1629,22.1003],[-102.1409,22.0753],[-102.1073,22.0748],[-102.1063,22.0552],[-102.1164,22.0408],[-102.1097,22.0271],[-102.0969,22.023],[-102.0649,22.0174],[-102.0601,22.0444],[-102.0361,22.0523],[-102.0228,22.0443],[-101.9875,22.0392],[-101.9919,22.0079],[-101.9481,22.0088],[-101.8978,21.9584]]]},"properties":{"CVE_ENT":"01","CVE_MUN":"002","CVEGEO":"01002","NOMGEO":"Asientos"}}
]}
