{"type":"FeatureCollection", "features": [
{"type":"Feature","geometry":{"type":"Polygon","coordinates":[[[-100.2853,19.0157],[-100.2661,19.0099],[-100.2585,19.0098],[-100.2557,19.0112],[-100.2545,19.0098],[-100.2512,19.0094],[-100.2409,19.013],[-100.2404,19.0132],[-100.2404,19.0141],[-100.2401,19.0145],[-100.2401,19.0147],[-100.2398,19.0149],[-100.2376,19.0157],[-100.2289,19.0269],[-100.237,19.0646],[-100.2255,19.0685],[-100.2148,19.1179],[-100.2386,19.1148],[-100.2814,19.091],[-100.2851,19.0581],[-100.3038,19.0415],[-100.2901,19.0333],[-100.2853,19.0157]]]},"properties":{"CVE_ENT":"15","CVE_MUN":"116","CVEGEO":"15116","NOMGEO":"Zacazonapan"}},
{"type":"Feature","geometry":{"type":"Polygon","coordinates":[[[-99.5956,19.1572],[-99.6085,19.1354],[-99.5819,19.1224],[-99.5374,19.1204],[-99.5344,19.1434],[-99.5956,19.1572]]]},"properties":{"CVE_ENT":"15","CVE_MUN":"072","CVEGEO":"15072","NOMGEO":"Rayón"}},
{"type":"Feature","geometry":{"type":"Polygon","coordinates":[[[-99.9224,20.2311],[-99.9184,20.2118],[-99.9509,20.2159],[-99.9527,20.24],[-99.9607,20.2545],[-99.9849,20.2648],[-99.9864,20.2567],[-99.9809,20.2531],[-99.9812,20.2439],[-99.9777,20.2391],[-99.9645,20.2161],[-99.9668,20.2075],[-99.9486,20.1913],[-99.9358,20.1693],[-99.9311,20.1424],[-99.9422,20.1201],[-99.9361,20.0991],[-99.9235,20.0817],[-99.9263,20.0643],[-99.9183,20.0446],[-99.9025,20.04],[-99.9006,20.0227],[-99.8864,20.016],[-99.8694,19.999],[-99.8265,20.0162],[-99.8293,20.0418],[-99.8204,20.0547],[-99.784,20.0452],[-99.78,20.0344],[-99.7452,20.031],[-99.7339,20.0168],[-99.7232,20.0185],[-99.6938,20.0493],[-99.6743,20.0555],[-99.6705,20.0779],[-99.6976,20.0862],[-99.6991,20.0975],[-99.7151,20.1079],[-99.7164,20.1383],[-99.7146,20.1611],[-99.7378,20.1542],[-99.7475,20.1447],[-99.7741,20.1723],[-99.8432,20.2063],[-99.8529,20.2149],[-99.8714,20.2101],[-99.9191,20.2331],[-99.9224,20.2311]]]},"properties":{"CVE_ENT":"15","CVE_MUN":"003","CVEGEO":"15003","NOMGEO":"Aculco"}},
{"type":"Feature","geometry":{"type":"Polygon","coordinates":[[[-99.9191,19.2927],[-99.9337,19.3055],[-99.9681,19.3167],[-99.9824,19.3328],[-100.0038,19.3138],[-100.0106,19.302],[-100.0184,19.3009],[-100.0506,19.3223],[-100.0585,19.2862],[-100.0691,19.2719],[-100.0732,19.2487],[-100.079,19.2409],[-100.0542,19.1998],[-100.0557,19.1816],[-100.0408,19.1794],[-100.0183,19.1924],[-99.9707,19.1865],[-99.9285,19.1944],[-99.9146,19.2038],[-99.909,19.2298],[-99.9002,19.2412],[-99.9017,19.2577],[-99.9017,19.2728],[-99.9191,19.2927]]]},"properties":{"CVE_ENT":"15","CVE_MUN":"007","CVEGEO":"15007","NOMGEO":"Amanalco"}},
{"type":"Feature","geometry":{"type":"Polygon","coordinates":[[[-98.8352,19.0725],[-98.8422,19.0725],[-98.843,19.0403],[-98.871,19.0254],[-98.8684,18.9999],[-98.87,18.9905],[-98.8573,18.9746],[-98.8601,18.966],[-98.8407,18.9557],[-98.8449,18.9731],[-98.8267,18.9819],[-98.8195,19.006],[-98.805,19.0231],[-98.8067,19.0341],[-98.83,19.0459],[-98.842,19.0638],[-98.8352,19.0725]]]},"properties":{"CVE_ENT":"15","CVE_MUN":"094","CVEGEO":"15094","NOMGEO":"Tepetlixpa"}},
{"type":"Feature","geometry":{"type":"Polygon","coordinates":[[[-100.2374,19.4035],[-100.2638,19.4032],[-100.2931,19.3951],[-100.2944,19.3809],[-100.3124,19.3624],[-100.3017,19.3429],[-100.3068,19.3269],[-100.2861,19.3223],[-100.2793,19.3005],[-100.2523,19.2803],[-100.2322,19.2855],[-100.22,19.2628],[-100.2134,19.2771],[-100.187,19.2819],[-100.1869,19.246],[-100.162,19.2911],[-100.1289,19.281],[-100.1098,19.2805],[-100.107,19.2466],[-100.0918,19.2414],[-100.0732,19.2487],[-100.0691,19.2719],[-100.0585,19.2862],[-100.055,19.3065],[-100.0659,19.3213],[-100.095,19.3303],[-100.1089,19.3432],[-100.142,19.3416],[-100.1554,19.3501],[-100.1689,19.3328],[-100.1824,19.328],[-100.177,19.3001],[-100.2341,19.2993],[-100.2263,19.3195],[-100.2462,19.3654],[-100.2374,19.4035]]]},"properties":{"CVE_ENT":"15","CVE_MUN":"032","CVEGEO":"15032","NOMGEO":"Donato Guerra"}},
{"type":"Feature","geometry":{"type":"Polygon","coordinates":[[[-98.9651,19.8067],[-98.9702,19.8087],[-98.9904,19.7887],[-99.0099,19.7864],[-99.0077,19.7737],[-98.9757,19.7583],[-98.9777,19.7332],[-98.9891,19.7217],[-99.0229,19.7296],[-99.0351,19.7287],[-99.033,19.7019],[-99.0452,19.6977],[-99.0534,19.6609],[-99.0615,19.6593],[-99.0626,19.659],[-99.0522,19.6399],[-99.04,19.6142],[-99.0249,19.6154],[-99.01,19.6266],[-99.0118,19.6298],[-99.0129,19.6318],[-99.0143,19.6343],[-99.0157,19.6366],[-99.0168,19.6387],[-99.0173,19.6394],[-99.0176,19.64],[-99.0169,19.6403],[-99.013,19.6455],[-99.0053,19.6481],[-99.0042,19.6518],[-98.9798,19.6487],[-98.9603,19.6575],[-98.9426,19.657],[-98.9315,19.6902],[-98.9352,19.7037],[-98.9243,19.7051],[-98.92,19.7246],[-98.9163,19.728],[-98.9158,19.7294],[-98.9206,19.7327],[-98.9308,19.7409],[-98.9299,19.7419],[-98.9291,19.743],[-98.9413,19.7485],[-98.9344,19.7631],[-98.9513,19.791],[-98.9651,19.8067]]]},"properties":{"CVE_ENT":"15","CVE_MUN":"081","CVEGEO":"15081","NOMGEO":"Tecámac"}},
{"type":"Feature","geometry":{"type":"Polygon","coordinates":[[[-99.8591,20.2685],[-99.8774,20.2714],[-99.9133,20.2859],[-99.9304,20.2649],[-99.934,20.2504],[-99.9224,20.2311],[-99.9191,20.2331],[-99.8714,20.2101],[-99.8529,20.2149],[-99.8432,20.2063],[-99.7741,20.1723],[-99.7475,20.1447],[-99.7378,20.1542],[-99.7146,20.1611],[-99.7164,20.1383],[-99.699,20.1724],[-99.7107,20.1662],[-99.7292,20.172],[-99.7513,20.1889],[-99.7884,20.2231],[-99.7904,20.238],[-99.8419,20.2819],[-99.8591,20.2685]]]},"properties":{"CVE_ENT":"15","CVE_MUN":"071","CVEGEO":"15071","NOMGEO":"Polotitlán"}},
{"type":"Feature","geometry":{"type":"Polygon","coordinates":[[[-98.898,19.3734],[-98.9479,19.3903],[-98.9659,19.3733],[-98.9919,19.3676],[-98.9946,19.3581],[-98.9743,19.337],[-98.952,19.3332],[-98.8997,19.3572],[-98.898,19.3734]]]},"properties":{"CVE_ENT":"15","CVE_MUN":"070","CVEGEO":"15070","NOMGEO":"La Paz"}},
{"type":"Feature","geometry":{"type":"Polygon","coordinates":[[[-99.4327,19.8753],[-99.4548,19.8551],[-99.4611,19.8769],[-99.5088,19.8916],[-99.5468,19.8908],[-99.561,19.8684],[-99.5709,19.8847],[-99.6002,19.8887],[-99.6174,19.8984],[-99.6412,19.8925],[-99.6552,19.8963],[-99.6668,19.8876],[-99.662,19.8748],[-99.6704,19.8406],[-99.6436,19.8196],[-99.6367,19.8185],[-99.6273,19.8204],[-99.6226,19.8214],[-99.6179,19.8223],[-99.616,19.8227],[-99.615,19.8229],[-99.6198,19.8042],[-99.5921,19.7777],[-99.6079,19.7646],[-99.6138,19.7482],[-99.5966,19.7489],[-99.5814,19.734],[-99.5764,19.7382],[-99.555,19.7384],[-99.5341,19.7559],[-99.514,19.7499],[-99.5093,19.7361],[-99.4925,19.733],[-99.4925,19.7521],[-99.4825,19.7638],[-99.4746,19.792],[-99.4584,19.8256],[-99.4457,19.8378],[-99.4207,19.841],[-99.4301,19.8709],[-99.4327,19.8753]]]},"properties":{"CVE_ENT":"15","CVE_MUN":"026","CVEGEO":"15026","NOMGEO":"Chapa de Mota"}},
{"type":"Feature","geometry":{"type":"Polygon","coordinates":[[[-98.6607,19.8349],[-98.6748,19.8324],[-98.6772,19.8132],[-98.6976,19.8321],[-98.6872,19.8505],[-98.6991,19.8584],[-98.7128,19.8538],[-98.7185,19.8623],[-98.7293,19.865],[-98.7338,19.8617],[-98.7418,19.8421],[-98.7535,19.8301],[-98.7776,19.8356],[-98.7784,19.8167],[-98.7622,19.8134],[-98.7647,19.7983],[-98.7289,19.784],[-98.7514,19.7467],[-98.7356,19.7361],[-98.6864,19.8029],[-98.6793,19.7974],[-98.6624,19.8104],[-98.6504,19.8014],[-98.6398,19.8109],[-98.6607,19.8349]]]},"properties":{"CVE_ENT":"15","CVE_MUN":"061","CVEGEO":"15061","NOMGEO":"Nopaltepec"}},
{"type":"Feature","geometry":{"type":"Polygon","coordinates":[[[-99.2476,19.5185],[-99.2667,19.531],[-99.295,19.5343],[-99.3044,19.52],[-99.3198,19.5164],[-99.3384,19.4929],[-99.3494,19.4947],[-99.3628,19.4774],[-99.3711,19.4486],[-99.384,19.4383],[-99.4087,19.4482],[-99.4141,19.4301],[-99.3959,19.4194],[-99.3834,19.4185],[-99.3625,19.4308],[-99.3333,19.4364],[-99.3053,19.4316],[-99.2801,19.4389],[-99.244,19.4203],[-99.2396,19.4122],[-99.2232,19.4293],[-99.2121,19.4671],[-99.2068,19.4712],[-99.2211,19.4751],[-99.2138,19.4973],[-99.219,19.51],[-99.2476,19.5185]]]},"properties":{"CVE_ENT":"15","CVE_MUN":"057","CVEGEO":"15057","NOMGEO":"Naucalpan de Juárez"}},
{"type":"Feature","geometry":{"type":"Polygon","coordinates":[[[-98.9702,19.8087],[-99.0082,19.8284],[-99.0001,19.8333],[-99.0206,19.8677],[-98.9892,19.8814],[-98.9921,19.903],[-99.0285,19.8757],[-99.0341,19.8333],[-99.0582,19.8423],[-99.0737,19.8566],[-99.0722,19.8769],[-99.0887,19.8993],[-99.1022,19.8861],[-99.1202,19.8879],[-99.1158,19.852],[-99.1226,19.8239],[-99.1466,19.836],[-99.1424,19.8501],[-99.1512,19.858],[-99.1737,19.8568],[-99.1771,19.8236],[-99.1897,19.8088],[-99.1803,19.7945],[-99.1723,19.7942],[-99.1436,19.7956],[-99.1416,19.784],[-99.1393,19.7706],[-99.139,19.7687],[-99.1388,19.7677],[-99.1386,19.7663],[-99.1385,19.7655],[-99.1298,19.7516],[-99.1242,19.7651],[-99.115,19.7634],[-99.1119,19.7639],[-99.1045,19.7632],[-99.1006,19.7631],[-99.0992,19.7629],[-99.0991,19.7628],[-99.0987,19.7641],[-99.0804,19.7589],[-99.0852,19.7454],[-99.0724,19.7584],[-99.0504,19.7511],[-99.0442,19.7733],[-99.0359,19.7718],[-99.0351,19.7287],[-99.0229,19.7296],[-98.9891,19.7217],[-98.9777,19.7332],[-98.9757,19.7583],[-99.0077,19.7737],[-99.0099,19.7864],[-98.9904,19.7887],[-98.9702,19.8087]]]},"properties":{"CVE_ENT":"15","CVE_MUN":"120","CVEGEO":"15120","NOMGEO":"Zumpango"}},
{"type":"Feature","geometry":{"type":"Polygon","coordinates":[[[-100.079,19.2409],[-100.0918,19.2414],[-100.107,19.2466],[-100.1098,19.2805],[-100.1289,19.281],[-100.162,19.2911],[-100.1869,19.246],[-100.187,19.2819],[-100.2134,19.2771],[-100.2195,19.2628],[-100.2314,19.2589],[-100.2315,19.2182],[-100.2371,19.2015],[-100.2389,19.1999],[-100.242,19.1979],[-100.2431,19.1974],[-100.2449,19.1949],[-100.2479,19.1794],[-100.2293,19.1802],[-100.2132,19.1634],[-100.2006,19.1341],[-100.2148,19.1179],[-100.1894,19.0975],[-100.1635,19.0896],[-100.1351,19.0957],[-100.1145,19.0801],[-100.082,19.0925],[-100.06,19.0814],[-100.0595,19.1073],[-100.0431,19.1194],[-100.0115,19.1209],[-99.9928,19.1175],[-99.9882,19.1351],[-99.9751,19.142],[-99.9593,19.1755],[-99.9707,19.1865],[-100.0183,19.1924],[-100.0408,19.1794],[-100.0557,19.1816],[-100.0542,19.1998],[-100.079,19.2409]]]},"properties":{"CVE_ENT":"15","CVE_MUN":"110","CVEGEO":"15110","NOMGEO":"Valle de Bravo"}},
{"type":"Feature","geometry":{"type":"Polygon","coordinates":[[[-98.8839,19.536],[-98.8944,19.5505],[-98.8791,19.5659],[-98.911,19.5707],[-98.9104,19.5545],[-98.8928,19.5369],[-98.8839,19.536]]]},"properties":{"CVE_ENT":"15","CVE_MUN":"030","CVEGEO":"15030","NOMGEO":"Chiconcuac"}},
{"type":"Feature","geometry":{"type":"Polygon","coordinates":[[[-99.0877,19.7445],[-99.0852,19.7454],[-99.0804,19.7589],[-99.0987,19.7641],[-99.0989,19.7635],[-99.0991,19.7628],[-99.0992,19.7628],[-99.0995,19.7618],[-99.1024,19.7576],[-99.1045,19.752],[-99.1028,19.7461],[-99.0877,19.7445]]]},"properties":{"CVE_ENT":"15","CVE_MUN":"044","CVEGEO":"15044","NOMGEO":"Jaltenco"}},
{"type":"Feature","geometry":{"type":"Polygon","coordinates":[[[-98.825,19.6313],[-98.8408,19.6356],[-98.8583,19.623],[-98.8719,19.5988],[-98.862,19.5656],[-98.8467,19.5532],[-98.8348,19.557],[-98.8137,19.551],[-98.799,19.5529],[-98.7813,19.526],[-98.771,19.5349],[-98.7468,19.5232],[-98.7292,19.5216],[-98.6852,19.4783],[-98.6532,19.466],[-98.6604,19.4855],[-98.6757,19.4995],[-98.6819,19.518],[-98.7,19.5313],[-98.706,19.5593],[-98.6815,19.5879],[-98.6814,19.5983],[-98.6997,19.6114],[-98.7199,19.6025],[-98.7473,19.6278],[-98.754,19.6182],[-98.7922,19.6115],[-98.8101,19.6148],[-98.8174,19.6187],[-98.8209,19.6208],[-98.8266,19.6252],[-98.825,19.6313]]]},"properties":{"CVE_ENT":"15","CVE_MUN":"093","CVEGEO":"15093","NOMGEO":"Tepetlaoxtoc"}},
{"type":"Feature","geometry":{"type":"Polygon","coordinates":[[[-99.106,19.664],[-99.1181,19.6672],[-99.1101,19.6887],[-99.096,19.6896],[-99.0867,19.687],[-99.0755,19.6835],[-99.0876,19.7082],[-99.1026,19.7103],[-99.1046,19.7105],[-99.1058,19.7107],[-99.1066,19.7108],[-99.1109,19.6986],[-99.1304,19.7061],[-99.1399,19.6935],[-99.1398,19.6928],[-99.1412,19.6873],[-99.1429,19.6801],[-99.1418,19.6774],[-99.1449,19.6727],[-99.1487,19.6622],[-99.1487,19.6604],[-99.1491,19.6575],[-99.1503,19.6495],[-99.1403,19.6458],[-99.1216,19.6495],[-99.1084,19.6495],[-99.106,19.664]]]},"properties":{"CVE_ENT":"15","CVE_MUN":"108","CVEGEO":"15108","NOMGEO":"Tultepec"}},
{"type":"Feature","geometry":{"type":"Polygon","coordinates":[[[-100.1513,19.4869],[-100.1777,19.4926],[-100.201,19.4928],[-100.2075,19.4611],[-100.1897,19.4405],[-100.2159,19.4134],[-100.2374,19.4035],[-100.2462,19.3654],[-100.2263,19.3195],[-100.2341,19.2993],[-100.177,19.3001],[-100.1824,19.328],[-100.1689,19.3328],[-100.1554,19.3501],[-100.142,19.3416],[-100.1089,19.3432],[-100.095,19.3303],[-100.0659,19.3213],[-100.055,19.3065],[-100.0506,19.3223],[-100.0184,19.3009],[-100.0106,19.302],[-100.003,19.3164],[-100.0032,19.3189],[-99.9983,19.3269],[-99.9998,19.3328],[-100.0126,19.3451],[-100.0264,19.3489],[-100.032,19.3609],[-100.0366,19.3811],[-100.0577,19.4207],[-100.0639,19.4439],[-100.0993,19.4464],[-100.1145,19.4593],[-100.1452,19.464],[-100.1452,19.4712],[-100.1514,19.4807],[-100.1513,19.4869]]]},"properties":{"CVE_ENT":"15","CVE_MUN":"111","CVEGEO":"15111","NOMGEO":"Villa de Allende"}},
{"type":"Feature","geometry":{"type":"Polygon","coordinates":[[[-98.7547,19.8768],[-98.7806,19.8835],[-98.7939,19.8721],[-98.7952,19.8564],[-98.8148,19.8678],[-98.8267,19.8245],[-98.8122,19.8181],[-98.8187,19.8023],[-98.8141,19.784],[-98.8182,19.7701],[-98.8387,19.7728],[-98.8559,19.7906],[-98.8693,19.7727],[-98.8684,19.7728],[-98.8662,19.7722],[-98.8633,19.7707],[-98.855,19.7653],[-98.8465,19.762],[-98.8401,19.76],[-98.805,19.744],[-98.7866,19.7282],[-98.7719,19.7514],[-98.7614,19.7453],[-98.7805,19.7269],[-98.7874,19.7131],[-98.7711,19.695],[-98.762,19.7157],[-98.7411,19.7104],[-98.7244,19.6996],[-98.6895,19.6898],[-98.6734,19.6738],[-98.6651,19.6726],[-98.6597,19.6695],[-98.6647,19.6604],[-98.6442,19.6488],[-98.6205,19.661],[-98.6376,19.669],[-98.624,19.6969],[-98.6323,19.7213],[-98.6081,19.7251],[-98.5969,19.7658],[-98.6117,19.7741],[-98.6175,19.7881],[-98.6388,19.8008],[-98.6398,19.8109],[-98.6504,19.8014],[-98.6624,19.8104],[-98.6793,19.7974],[-98.6864,19.8029],[-98.7356,19.7361],[-98.7514,19.7467],[-98.7289,19.784],[-98.7647,19.7983],[-98.7622,19.8134],[-98.7784,19.8167],[-98.7776,19.8356],[-98.7535,19.8301],[-98.7418,19.8421],[-98.7338,19.8617],[-98.7293,19.865],[-98.7547,19.8768]]]},"properties":{"CVE_ENT":"15","CVE_MUN":"016","CVEGEO":"15016","NOMGEO":"Axapusco"}},
{"type":"Feature","geometry":{"type":"Polygon","coordinates":[[[-99.3878,19.7773],[-99.3823,19.828],[-99.3732,19.8515],[-99.3918,19.8599],[-99.415,19.8505],[-99.4301,19.8709],[-99.4207,19.841],[-99.4457,19.8378],[-99.4584,19.8256],[-99.4746,19.792],[-99.4825,19.7638],[-99.4925,19.7521],[-99.4925,19.733],[-99.5093,19.7361],[-99.514,19.7499],[-99.5341,19.7559],[-99.555,19.7384],[-99.5764,19.7382],[-99.5814,19.734],[-99.5714,19.7296],[-99.5717,19.7071],[-99.5199,19.7133],[-99.5432,19.677],[-99.5782,19.6735],[-99.5772,19.6846],[-99.6066,19.697],[-99.6077,19.6823],[-99.6352,19.6897],[-99.6421,19.6611],[-99.6338,19.6665],[-99.6283,19.6663],[-99.611,19.6751],[-99.6061,19.675],[-99.6007,19.6741],[-99.5805,19.6606],[-99.5644,19.6435],[-99.5646,19.6412],[-99.5612,19.6405],[-99.5502,19.6293],[-99.5246,19.6149],[-99.4589,19.6154],[-99.4517,19.6556],[-99.4255,19.6511],[-99.4192,19.6871],[-99.4267,19.6905],[-99.4225,19.6953],[-99.4198,19.7],[-99.4212,19.7004],[-99.4204,19.7016],[-99.4217,19.7033],[-99.4208,19.7048],[-99.4213,19.7102],[-99.4201,19.7164],[-99.4169,19.7191],[-99.4122,19.7456],[-99.3984,19.7677],[-99.3915,19.7739],[-99.3884,19.775],[-99.3878,19.7773]]]},"properties":{"CVE_ENT":"15","CVE_MUN":"112","CVEGEO":"15112","NOMGEO":"Villa del Carbón"}},
{"type":"Feature","geometry":{"type":"Polygon","coordinates":[[[-99.6382,19.0308],[-99.6554,19.03],[-99.6551,19.053],[-99.6848,19.0558],[-99.7165,19.0532],[-99.7327,19.063],[-99.7717,19.0652],[-99.7692,19.0357],[-99.7728,19.027],[-99.7629,18.9976],[-99.749,18.989],[-99.7471,18.9734],[-99.7259,18.9512],[-99.7399,18.942],[-99.7399,18.9325],[-99.7328,18.9282],[-99.7217,18.9063],[-99.7204,18.8993],[-99.7147,18.9112],[-99.6698,18.903],[-99.6331,18.8671],[-99.6094,18.8163],[-99.6081,18.8437],[-99.615,18.8637],[-99.6156,18.8919],[-99.6245,18.9185],[-99.6252,18.9413],[-99.6153,18.9515],[-99.638,18.981],[-99.638,19.0075],[-99.6357,19.0148],[-99.6377,19.0217],[-99.6378,19.0256],[-99.6385,19.0301],[-99.6383,19.0307],[-99.6382,19.0308]]]},"properties":{"CVE_ENT":"15","CVE_MUN":"113","CVEGEO":"15113","NOMGEO":"Villa Guerrero"}},
{"type":"Feature","geometry":{"type":"Polygon","coordinates":[[[-100.3038,19.0415],[-100.3289,19.0437],[-100.3393,19.0619],[-100.3773,19.0762],[-100.4006,19.0685],[-100.4088,19.0752],[-100.4141,19.0648],[-100.4471,19.052],[-100.459,19.033],[-100.479,19.032],[-100.4787,19.0268],[-100.516,19.0091],[-100.5276,19.0103],[-100.5239,18.9985],[-100.5448,18.9659],[-100.5495,18.9469],[-100.5742,18.9145],[-100.5899,18.9153],[-100.6005,18.8929],[-100.6131,18.8871],[-100.5973,18.8758],[-100.5843,18.8582],[-100.5682,18.8497],[-100.5386,18.8441],[-100.5155,18.8516],[-100.4724,18.8464],[-100.4447,18.8261],[-100.4152,18.8238],[-100.394,18.8355],[-100.3973,18.8505],[-100.3732,18.8749],[-100.3437,18.8709],[-100.322,18.861],[-100.3151,18.8481],[-100.2971,18.8377],[-100.2726,18.8475],[-100.252,18.8617],[-100.2562,18.8748],[-100.2418,18.9013],[-100.2499,18.9209],[-100.2329,18.9391],[-100.248,18.9589],[-100.243,18.9637],[-100.2363,18.9633],[-100.2332,18.9675],[-100.2493,18.979],[-100.2571,18.9981],[-100.2824,19.0086],[-100.2853,19.0157],[-100.2901,19.0333],[-100.3038,19.0415]]]},"properties":{"CVE_ENT":"15","CVE_MUN":"123","CVEGEO":"15123","NOMGEO":"Luvianos"}},
{"type":"Feature","geometry":{"type":"Polygon","coordinates":[[[-100.0157,19.7347],[-100.0281,19.7386],[-100.018,19.7563],[-100.0616,19.7646],[-100.0793,19.7641],[-100.0632,19.7254],[-100.0652,19.7117],[-100.0776,19.7053],[-100.0778,19.6783],[-100.0697,19.6595],[-100.0573,19.6508],[-100.0716,19.6358],[-100.0742,19.6029],[-100.0504,19.5838],[-100.0289,19.5856],[-100.0085,19.5814],[-100.0144,19.555],[-100.0112,19.5559],[-100.0016,19.5566],[-99.9929,19.5605],[-99.995,19.5495],[-99.9576,19.5428],[-99.9548,19.5575],[-99.9421,19.5582],[-99.9437,19.572],[-99.9252,19.5691],[-99.9275,19.5544],[-99.9395,19.5559],[-99.9489,19.5388],[-99.9303,19.5331],[-99.9298,19.5356],[-99.929,19.5394],[-99.9368,19.5508],[-99.9018,19.5453],[-99.9009,19.5471],[-99.9005,19.548],[-99.8999,19.5493],[-99.9148,19.5518],[-99.9147,19.5623],[-99.9026,19.5739],[-99.9113,19.5859],[-99.8672,19.6303],[-99.8865,19.661],[-99.8942,19.6593],[-99.9067,19.6851],[-99.9002,19.7064],[-99.8875,19.7198],[-99.9762,19.7394],[-100.0066,19.7514],[-100.0157,19.7347]]]},"properties":{"CVE_ENT":"15","CVE_MUN":"074","CVEGEO":"15074","NOMGEO":"San Felipe del Progreso"}},
{"type":"Feature","geometry":{"type":"Polygon","coordinates":[[[-99.0626,19.6591],[-99.0534,19.6609],[-99.0452,19.6977],[-99.0673,19.7004],[-99.0743,19.6831],[-99.0626,19.6591]]]},"properties":{"CVE_ENT":"15","CVE_MUN":"125","CVEGEO":"15125","NOMGEO":"Tonanitla"}},
{"type":"Feature","geometry":{"type":"Polygon","coordinates":[[[-99.1066,19.7108],[-99.1067,19.711],[-99.1084,19.7124],[-99.1086,19.7126],[-99.109,19.7206],[-99.1151,19.7231],[-99.1318,19.7259],[-99.1368,19.7264],[-99.1386,19.7261],[-99.1523,19.7206],[-99.1597,19.6998],[-99.1399,19.6935],[-99.1304,19.7061],[-99.1109,19.6986],[-99.1066,19.7108]]]},"properties":{"CVE_ENT":"15","CVE_MUN":"053","CVEGEO":"15053","NOMGEO":"Melchor Ocampo"}},
{"type":"Feature","geometry":{"type":"Polygon","coordinates":[[[-99.5529,19.2218],[-99.5901,19.2203],[-99.6082,19.2159],[-99.611,19.199],[-99.5911,19.1976],[-99.5709,19.2064],[-99.5554,19.2055],[-99.5529,19.2218]]]},"properties":{"CVE_ENT":"15","CVE_MUN":"055","CVEGEO":"15055","NOMGEO":"Mexicaltzingo"}},
{"type":"Feature","geometry":{"type":"Polygon","coordinates":[[[-99.5148,19.1843],[-99.5366,19.1923],[-99.5608,19.1779],[-99.5928,19.172],[-99.5956,19.1572],[-99.5344,19.1434],[-99.5262,19.1592],[-99.5158,19.167],[-99.5148,19.1843]]]},"properties":{"CVE_ENT":"15","CVE_MUN":"073","CVEGEO":"15073","NOMGEO":"San Antonio la Isla"}},
{"type":"Feature","geometry":{"type":"Polygon","coordinates":[[[-98.6393,19.0774],[-98.647,19.0859],[-98.6796,19.0869],[-98.6985,19.0743],[-98.7288,19.0838],[-98.7613,19.0712],[-98.7831,19.0693],[-98.788,19.0554],[-98.7829,19.0375],[-98.791,19.0216],[-98.7714,19.0107],[-98.793,18.9947],[-98.8242,18.9549],[-98.8169,18.9433],[-98.7995,18.9403],[-98.7843,18.9723],[-98.7668,18.9885],[-98.7209,18.9876],[-98.6663,19.0013],[-98.6645,19.0036],[-98.6522,19.006],[-98.6329,19.0155],[-98.6275,19.0224],[-98.6199,19.0351],[-98.6302,19.0678],[-98.6393,19.0774]]]},"properties":{"CVE_ENT":"15","CVE_MUN":"015","CVEGEO":"15015","NOMGEO":"Atlautla"}},
{"type":"Feature","geometry":{"type":"Polygon","coordinates":[[[-99.7895,19.846],[-99.7991,19.8405],[-99.8157,19.8542],[-99.8355,19.8627],[-99.8844,19.9016],[-99.8972,19.8836],[-99.9262,19.8906],[-99.9324,19.871],[-99.9653,19.8785],[-99.9657,19.8542],[-99.9302,19.8589],[-99.9319,19.8469],[-99.9449,19.8313],[-99.9599,19.8342],[-99.9587,19.8154],[-99.9493,19.798],[-99.9292,19.7919],[-99.8839,19.7717],[-99.8809,19.7607],[-99.8435,19.7564],[-99.796,19.7339],[-99.7655,19.7441],[-99.745,19.7296],[-99.7057,19.7428],[-99.7105,19.7683],[-99.7288,19.7744],[-99.7424,19.7841],[-99.7487,19.7954],[-99.7797,19.813],[-99.7729,19.8288],[-99.7895,19.846]]]},"properties":{"CVE_ENT":"15","CVE_MUN":"014","CVEGEO":"15014","NOMGEO":"Atlacomulco"}},
{"type":"Feature","geometry":{"type":"MultiPolygon","coordinates":[[[[-99.6096,19.675],[-99.6131,19.6716],[-99.6172,19.6714],[-99.6283,19.6663],[-99.6338,19.6665],[-99.6427,19.6579],[-99.615,19.632],[-99.6034,19.6294],[-99.5966,19.6177],[-99.5726,19.6098],[-99.5638,19.6281],[-99.5646,19.6419],[-99.5644,19.6435],[-99.5805,19.6606],[-99.6096,19.675]]],[[[-99.668,19.8382],[-99.6831,19.8351],[-99.7186,19.8399],[-99.729,19.8276],[-99.7443,19.827],[-99.7491,19.8062],[-99.7484,19.7951],[-99.7424,19.7841],[-99.7288,19.7744],[-99.7105,19.7683],[-99.7051,19.7479],[-99.6889,19.7417],[-99.683,19.7356],[-99.6854,19.723],[-99.6704,19.7146],[-99.678,19.7045],[-99.6594,19.7003],[-99.6426,19.6953],[-99.6077,19.6823],[-99.6066,19.697],[-99.5772,19.6846],[-99.5782,19.6735],[-99.5432,19.677],[-99.5199,19.7133],[-99.5717,19.7071],[-99.5714,19.7296],[-99.5789,19.7312],[-99.5887,19.7382],[-99.5966,19.7489],[-99.6138,19.7482],[-99.6079,19.7646],[-99.5921,19.7777],[-99.6198,19.8042],[-99.6171,19.8149],[-99.6162,19.8185],[-99.6157,19.8203],[-99.6153,19.822],[-99.615,19.8229],[-99.6436,19.8196],[-99.668,19.8382]]]]},"properties":{"CVE_ENT":"15","CVE_MUN":"056","CVEGEO":"15056","NOMGEO":"Morelos"}},
{"type":"Feature","geometry":{"type":"Polygon","coordinates":[[[-99.5638,19.286],[-99.606,19.2872],[-99.607,19.2756],[-99.6364,19.2707],[-99.6435,19.2594],[-99.6305,19.2454],[-99.647,19.2211],[-99.6387,19.2161],[-99.6082,19.2159],[-99.5901,19.2203],[-99.5529,19.2218],[-99.5135,19.2232],[-99.5145,19.2303],[-99.5198,19.239],[-99.54,19.2378],[-99.5526,19.2495],[-99.5638,19.286]]]},"properties":{"CVE_ENT":"15","CVE_MUN":"054","CVEGEO":"15054","NOMGEO":"Metepec"}},
{"type":"Feature","geometry":{"type":"Polygon","coordinates":[[[-99.5595,19.301],[-99.5638,19.286],[-99.5526,19.2495],[-99.54,19.2378],[-99.5198,19.239],[-99.5218,19.2861],[-99.5554,19.286],[-99.5595,19.301]]]},"properties":{"CVE_ENT":"15","CVE_MUN":"076","CVEGEO":"15076","NOMGEO":"San Mateo Atenco"}},
{"type":"Feature","geometry":{"type":"Polygon","coordinates":[[[-99.2661,19.6076],[-99.2699,19.6083],[-99.2765,19.6145],[-99.2761,19.625],[-99.2893,19.6471],[-99.319,19.6452],[-99.3247,19.6713],[-99.3586,19.7055],[-99.379,19.6996],[-99.3896,19.7024],[-99.411,19.6974],[-99.4157,19.6987],[-99.4182,19.6985],[-99.4198,19.7],[-99.4225,19.6953],[-99.4267,19.6905],[-99.4192,19.6871],[-99.4255,19.6511],[-99.4517,19.6556],[-99.4589,19.6154],[-99.5246,19.6149],[-99.5334,19.6014],[-99.5258,19.5821],[-99.5165,19.5738],[-99.4842,19.5754],[-99.468,19.5651],[-99.4433,19.5715],[-99.4303,19.5685],[-99.4007,19.5775],[-99.3688,19.5828],[-99.3346,19.5795],[-99.3202,19.5956],[-99.2904,19.5823],[-99.2661,19.6076]]]},"properties":{"CVE_ENT":"15","CVE_MUN":"060","CVEGEO":"15060","NOMGEO":"Nicolás Romero"}},
{"type":"Feature","geometry":{"type":"Polygon","coordinates":[[[-98.8814,19.2212],[-98.906,19.1791],[-98.92,19.1767],[-98.9247,19.1585],[-98.8849,19.1554],[-98.8884,19.1733],[-98.8753,19.1839],[-98.8516,19.1829],[-98.8437,19.2058],[-98.8814,19.2212]]]},"properties":{"CVE_ENT":"15","CVE_MUN":"083","CVEGEO":"15083","NOMGEO":"Temamatla"}},
{"type":"Feature","geometry":{"type":"Polygon","coordinates":[[[-99.1385,19.7655],[-99.149,19.7656],[-99.1497,19.7458],[-99.1648,19.7303],[-99.1848,19.7335],[-99.2001,19.7473],[-99.1954,19.7147],[-99.1888,19.6947],[-99.192,19.6767],[-99.182,19.6615],[-99.1829,19.6565],[-99.1843,19.6464],[-99.1845,19.6435],[-99.1846,19.6434],[-99.1844,19.6435],[-99.1837,19.6439],[-99.182,19.645],[-99.1799,19.6462],[-99.1793,19.6475],[-99.1785,19.6474],[-99.1779,19.6472],[-99.1777,19.6503],[-99.1744,19.6495],[-99.1697,19.6578],[-99.1599,19.661],[-99.1493,19.6605],[-99.1449,19.6727],[-99.1418,19.6774],[-99.1429,19.6801],[-99.1398,19.6928],[-99.1438,19.6899],[-99.1597,19.6998],[-99.1523,19.7206],[-99.1391,19.7205],[-99.1386,19.7261],[-99.1368,19.7264],[-99.1318,19.7259],[-99.1232,19.7245],[-99.118,19.7401],[-99.1298,19.7516],[-99.1385,19.7655]]]},"properties":{"CVE_ENT":"15","CVE_MUN":"024","CVEGEO":"15024","NOMGEO":"Cuautitlán"}},
{"type":"Feature","geometry":{"type":"Polygon","coordinates":[[[-99.0351,19.7287],[-99.0359,19.7718],[-99.0442,19.7733],[-99.0504,19.7511],[-99.0724,19.7584],[-99.0852,19.7454],[-99.1028,19.7461],[-99.1045,19.752],[-99.1024,19.7576],[-99.0995,19.7618],[-99.0991,19.7628],[-99.0992,19.7629],[-99.1006,19.7631],[-99.1045,19.7632],[-99.1119,19.7639],[-99.115,19.7634],[-99.1242,19.7651],[-99.1298,19.7516],[-99.118,19.7401],[-99.1232,19.7245],[-99.1151,19.7231],[-99.109,19.7206],[-99.1092,19.7185],[-99.1086,19.7126],[-99.1067,19.711],[-99.1066,19.7108],[-99.1058,19.7107],[-99.1046,19.7105],[-99.1026,19.7103],[-99.0876,19.7082],[-99.0755,19.6835],[-99.0673,19.7004],[-99.0452,19.6977],[-99.033,19.7019],[-99.0351,19.7287]]]},"properties":{"CVE_ENT":"15","CVE_MUN":"059","CVEGEO":"15059","NOMGEO":"Nextlalpan"}},
{"type":"Feature","geometry":{"type":"Polygon","coordinates":[[[-98.6392,19.1636],[-98.6716,19.1832],[-98.7001,19.1713],[-98.7164,19.179],[-98.7586,19.1778],[-98.7602,19.1661],[-98.7762,19.1491],[-98.7897,19.1764],[-98.8181,19.1692],[-98.8103,19.1575],[-98.794,19.1602],[-98.7889,19.1474],[-98.7752,19.144],[-98.8034,19.0886],[-98.8149,19.0818],[-98.7957,19.0755],[-98.788,19.0554],[-98.7831,19.0693],[-98.7613,19.0712],[-98.7288,19.0838],[-98.6985,19.0743],[-98.6796,19.0869],[-98.647,19.0859],[-98.6393,19.0774],[-98.627,19.1248],[-98.6407,19.1255],[-98.6362,19.1536],[-98.6392,19.1636]]]},"properties":{"CVE_ENT":"15","CVE_MUN":"009","CVEGEO":"15009","NOMGEO":"Amecameca"}},
{"type":"Feature","geometry":{"type":"Polygon","coordinates":[[[-99.4751,19.5111],[-99.4894,19.5115],[-99.5251,19.4991],[-99.5453,19.4839],[-99.5501,19.4715],[-99.5635,19.4721],[-99.5703,19.46],[-99.5654,19.4454],[-99.5689,19.4279],[-99.5908,19.425],[-99.597,19.4089],[-99.6158,19.4065],[-99.6297,19.4199],[-99.63,19.4036],[-99.6063,19.3947],[-99.5839,19.3754],[-99.5723,19.395],[-99.5657,19.3954],[-99.5428,19.4065],[-99.5203,19.4228],[-99.5044,19.4249],[-99.4703,19.453],[-99.4668,19.4684],[-99.4419,19.4878],[-99.4574,19.5025],[-99.4751,19.5111]]]},"properties":{"CVE_ENT":"15","CVE_MUN":"067","CVEGEO":"15067","NOMGEO":"Otzolotepec"}},
{"type":"Feature","geometry":{"type":"Polygon","coordinates":[[[-98.9244,19.4278],[-98.9255,19.4424],[-98.9402,19.4636],[-98.9783,19.4517],[-98.9792,19.4358],[-98.9905,19.426],[-98.9886,19.4123],[-98.9659,19.3733],[-98.9479,19.3903],[-98.898,19.3734],[-98.8951,19.3977],[-98.9179,19.4062],[-98.9244,19.4278]]]},"properties":{"CVE_ENT":"15","CVE_MUN":"031","CVEGEO":"15031","NOMGEO":"Chimalhuacán"}},
{"type":"Feature","geometry":{"type":"Polygon","coordinates":[[[-98.8807,19.7505],[-98.8815,19.7509],[-98.8822,19.751],[-98.8852,19.7521],[-98.9006,19.7553],[-98.8983,19.7522],[-98.9094,19.7272],[-98.9158,19.7293],[-98.9243,19.7051],[-98.9352,19.7037],[-98.9315,19.6902],[-98.918,19.6854],[-98.9067,19.6615],[-98.8913,19.6493],[-98.8663,19.6575],[-98.8408,19.6356],[-98.825,19.6313],[-98.8066,19.6532],[-98.8076,19.6558],[-98.8093,19.6565],[-98.8121,19.6586],[-98.8133,19.6579],[-98.8135,19.658],[-98.8136,19.6596],[-98.8134,19.6598],[-98.8143,19.6603],[-98.8154,19.6614],[-98.8159,19.6626],[-98.8177,19.6761],[-98.8068,19.6861],[-98.8382,19.6962],[-98.8519,19.7183],[-98.8607,19.7059],[-98.8909,19.7212],[-98.8856,19.7336],[-98.8833,19.7416],[-98.8816,19.7429],[-98.8826,19.7442],[-98.8817,19.7478],[-98.8804,19.7496],[-98.8809,19.7499],[-98.8807,19.7505]]]},"properties":{"CVE_ENT":"15","CVE_MUN":"092","CVEGEO":"15092","NOMGEO":"Teotihuacán"}},
{"type":"Feature","geometry":{"type":"Polygon","coordinates":[[[-100.2076,19.1448],[-100.236,19.1465],[-100.264,19.1283],[-100.2926,19.1485],[-100.3358,19.1576],[-100.3616,19.1547],[-100.3895,19.1429],[-100.3956,19.1171],[-100.4092,19.0854],[-100.4088,19.0752],[-100.4006,19.0685],[-100.3773,19.0762],[-100.3393,19.0619],[-100.3289,19.0437],[-100.3038,19.0415],[-100.2851,19.0581],[-100.2814,19.091],[-100.2386,19.1148],[-100.2148,19.1179],[-100.2006,19.1341],[-100.2076,19.1448]]]},"properties":{"CVE_ENT":"15","CVE_MUN":"066","CVEGEO":"15066","NOMGEO":"Otzoloapan"}},
{"type":"Feature","geometry":{"type":"Polygon","coordinates":[[[-99.5262,19.1592],[-99.5344,19.1434],[-99.5374,19.1204],[-99.5302,19.1204],[-99.5132,19.1191],[-99.482,19.0878],[-99.4879,19.1496],[-99.5262,19.1592]]]},"properties":{"CVE_ENT":"15","CVE_MUN":"098","CVEGEO":"15098","NOMGEO":"Texcalyacac"}},
{"type":"Feature","geometry":{"type":"Polygon","coordinates":[[[-98.6829,19.2648],[-98.699,19.3085],[-98.7221,19.3192],[-98.7655,19.3124],[-98.8019,19.288],[-98.8145,19.3078],[-98.8349,19.2888],[-98.8475,19.3014],[-98.8743,19.304],[-98.8793,19.2888],[-98.9104,19.2902],[-98.9115,19.2813],[-98.9353,19.2582],[-98.9264,19.2429],[-98.9458,19.225],[-98.9685,19.2106],[-98.9668,19.209],[-98.9677,19.1897],[-98.9549,19.1741],[-98.9435,19.1611],[-98.9247,19.1585],[-98.92,19.1767],[-98.906,19.1791],[-98.8814,19.2212],[-98.8711,19.2497],[-98.8363,19.2256],[-98.8322,19.2124],[-98.811,19.2104],[-98.783,19.2262],[-98.7765,19.2411],[-98.7008,19.2552],[-98.6829,19.2648]]]},"properties":{"CVE_ENT":"15","CVE_MUN":"025","CVEGEO":"15025","NOMGEO":"Chalco"}},
{"type":"Feature","geometry":{"type":"Polygon","coordinates":[[[-100.0117,19.0343],[-100.0126,19.0345],[-100.0144,19.0328],[-100.0156,19.0305],[-100.0196,19.0293],[-100.0392,19.0335],[-100.054,19.018],[-100.064,19.0169],[-100.087,19.0187],[-100.0934,19.0174],[-100.1026,19.0027],[-100.0756,18.977],[-100.0848,18.9638],[-100.1084,18.952],[-100.1158,18.9366],[-100.1058,18.9221],[-100.0768,18.9161],[-100.06,18.9305],[-100.0376,18.9322],[-100.0151,18.9386],[-100.0142,18.9395],[-100.0132,18.9404],[-100.0083,18.9477],[-99.9956,18.9543],[-99.965,18.993],[-99.9482,19.0086],[-99.9737,19.0175],[-99.9939,19.026],[-100.0021,19.0321],[-100.0051,19.0331],[-100.0079,19.0336],[-100.0117,19.0343]]]},"properties":{"CVE_ENT":"15","CVE_MUN":"077","CVEGEO":"15077","NOMGEO":"San Simón de Guerrero"}},
{"type":"Feature","geometry":{"type":"Polygon","coordinates":[[[-100.2431,19.1974],[-100.2464,19.1982],[-100.2489,19.199],[-100.2512,19.1966],[-100.2671,19.2009],[-100.2776,19.214],[-100.3305,19.2303],[-100.3377,19.227],[-100.3725,19.1937],[-100.3782,19.1711],[-100.3616,19.1547],[-100.3358,19.1576],[-100.2926,19.1485],[-100.264,19.1283],[-100.236,19.1465],[-100.2076,19.1448],[-100.2132,19.1634],[-100.2293,19.1802],[-100.2479,19.1794],[-100.2479,19.1861],[-100.2547,19.1877],[-100.2637,19.1879],[-100.2643,19.1915],[-100.2591,19.1942],[-100.2585,19.1888],[-100.2512,19.1899],[-100.2465,19.1883],[-100.2449,19.1949],[-100.2431,19.1974]]]},"properties":{"CVE_ENT":"15","CVE_MUN":"078","CVEGEO":"15078","NOMGEO":"Santo Tomás"}},
{"type":"Feature","geometry":{"type":"Polygon","coordinates":[[[-99.143,19.9586],[-99.1401,19.9419],[-99.1461,19.93],[-99.1613,19.9318],[-99.1802,19.9534],[-99.2154,19.9546],[-99.226,19.95],[-99.2107,19.9145],[-99.2239,19.902],[-99.2183,19.8891],[-99.1958,19.8932],[-99.1886,19.8761],[-99.1718,19.8725],[-99.1737,19.8568],[-99.1512,19.858],[-99.1424,19.8501],[-99.1466,19.836],[-99.1226,19.8239],[-99.1158,19.852],[-99.1202,19.8879],[-99.1022,19.8861],[-99.0887,19.8993],[-99.0885,19.9186],[-99.0686,19.9214],[-99.0586,19.9355],[-99.0869,19.9415],[-99.1265,19.945],[-99.143,19.9586]]]},"properties":{"CVE_ENT":"15","CVE_MUN":"096","CVEGEO":"15096","NOMGEO":"Tequixquiac"}},
{"type":"Feature","geometry":{"type":"MultiPolygon","coordinates":[[[[-99.0886,19.5377],[-99.097,19.5572],[-99.1081,19.5649],[-99.1306,19.5361],[-99.1144,19.5111],[-99.0974,19.5126],[-99.0907,19.522],[-99.0802,19.5295],[-99.0886,19.5377]]],[[[-99.1914,19.5857],[-99.1945,19.5885],[-99.1953,19.5894],[-99.196,19.5901],[-99.2077,19.5886],[-99.2118,19.5956],[-99.2175,19.5862],[-99.2125,19.5663],[-99.2248,19.5584],[-99.2361,19.538],[-99.2374,19.5199],[-99.219,19.51],[-99.2047,19.5151],[-99.1572,19.5028],[-99.163,19.518],[-99.1609,19.5493],[-99.1435,19.5723],[-99.1643,19.579],[-99.1819,19.5752],[-99.1914,19.5857]]]]},"properties":{"CVE_ENT":"15","CVE_MUN":"104","CVEGEO":"15104","NOMGEO":"Tlalnepantla de Baz"}},
{"type":"Feature","geometry":{"type":"Polygon","coordinates":[[[-99.6106,18.8129],[-99.6201,18.8204],[-99.6377,18.8137],[-99.6486,18.8335],[-99.6707,18.8207],[-99.6922,18.8226],[-99.7122,18.8119],[-99.697,18.7863],[-99.6615,18.7713],[-99.6487,18.7432],[-99.6357,18.7243],[-99.6206,18.7273],[-99.6188,18.7413],[-99.5899,18.7393],[-99.5808,18.7303],[-99.5737,18.7376],[-99.582,18.7757],[-99.6106,18.8129]]]},"properties":{"CVE_ENT":"15","CVE_MUN":"107","CVEGEO":"15107","NOMGEO":"Tonatico"}},
{"type":"Feature","geometry":{"type":"Polygon","coordinates":[[[-98.9012,19.605],[-98.9226,19.6101],[-98.9695,19.6087],[-98.9726,19.5965],[-98.9369,19.5936],[-98.9258,19.5806],[-98.9109,19.5769],[-98.9023,19.5805],[-98.9012,19.605]]]},"properties":{"CVE_ENT":"15","CVE_MUN":"100","CVEGEO":"15100","NOMGEO":"Tezoyuca"}},
{"type":"Feature","geometry":{"type":"Polygon","coordinates":[[[-100.0966,19.013],[-100.1096,19.0194],[-100.1371,19.0183],[-100.1488,19.0123],[-100.1583,18.9877],[-100.1736,18.979],[-100.182,18.9909],[-100.212,19.0016],[-100.2242,19.0133],[-100.2331,19.0147],[-100.2356,19.0126],[-100.2364,19.0143],[-100.2378,19.0135],[-100.2391,19.0147],[-100.2396,19.0146],[-100.2401,19.0145],[-100.2512,19.0094],[-100.2571,18.9981],[-100.2493,18.979],[-100.2332,18.9675],[-100.2363,18.9633],[-100.243,18.9637],[-100.248,18.9589],[-100.2329,18.9391],[-100.2499,18.9209],[-100.2418,18.9013],[-100.2562,18.8748],[-100.252,18.8617],[-100.2726,18.8475],[-100.2971,18.8377],[-100.3151,18.8481],[-100.322,18.861],[-100.3437,18.8709],[-100.3732,18.8749],[-100.3973,18.8505],[-100.394,18.8355],[-100.4152,18.8238],[-100.4447,18.8261],[-100.4724,18.8464],[-100.5155,18.8516],[-100.5386,18.8441],[-100.514,18.8293],[-100.4935,18.8239],[-100.4818,18.7987],[-100.4651,18.7944],[-100.4532,18.7809],[-100.4314,18.7807],[-100.4222,18.7635],[-100.3963,18.7721],[-100.3831,18.7638],[-100.3585,18.7724],[-100.3123,18.7775],[-100.2875,18.8018],[-100.256,18.7958],[-100.2091,18.7937],[-100.2002,18.8],[-100.1639,18.7996],[-100.1493,18.7889],[-100.1378,18.7897],[-100.1188,18.8002],[-100.1096,18.7959],[-100.0793,18.8113],[-100.0553,18.8185],[-100.0331,18.8483],[-100.0241,18.8681],[-100.0087,18.8712],[-100.0089,18.896],[-99.9912,18.9103],[-99.9971,18.9224],[-100.0132,18.9404],[-100.0151,18.9386],[-100.0219,18.9403],[-100.0302,18.9392],[-100.0376,18.9322],[-100.06,18.9305],[-100.0768,18.9161],[-100.1058,18.9221],[-100.1158,18.9366],[-100.1084,18.952],[-100.0848,18.9638],[-100.0756,18.977],[-100.1026,19.0027],[-100.0966,19.013]]]},"properties":{"CVE_ENT":"15","CVE_MUN":"082","CVEGEO":"15082","NOMGEO":"Tejupilco"}},
{"type":"Feature","geometry":{"type":"Polygon","coordinates":[[[-99.0288,19.4846],[-99.0639,19.4988],[-99.068,19.4891],[-99.0509,19.4502],[-99.0465,19.4424],[-99.0558,19.4221],[-99.0581,19.4007],[-99.0203,19.3836],[-98.9919,19.3676],[-98.9659,19.3733],[-98.9886,19.4123],[-98.9905,19.426],[-99.0269,19.4347],[-99.0288,19.4846]]]},"properties":{"CVE_ENT":"15","CVE_MUN":"058","CVEGEO":"15058","NOMGEO":"Nezahualcóyotl"}},
{"type":"Feature","geometry":{"type":"Polygon","coordinates":[[[-100.0911,19.86],[-100.1032,19.8538],[-100.1254,19.8567],[-100.1342,19.8455],[-100.1463,19.8147],[-100.1453,19.7572],[-100.1499,19.7277],[-100.1176,19.7271],[-100.1106,19.7528],[-100.0793,19.7641],[-100.0616,19.7646],[-100.018,19.7563],[-100.0281,19.7386],[-100.0157,19.7347],[-100.0107,19.7626],[-99.9921,19.7708],[-99.9817,19.8155],[-100.0185,19.8131],[-100.0248,19.8069],[-100.0412,19.825],[-100.0855,19.8456],[-100.0911,19.86]]]},"properties":{"CVE_ENT":"15","CVE_MUN":"064","CVEGEO":"15064","NOMGEO":"El Oro"}},
{"type":"Feature","geometry":{"type":"MultiPolygon","coordinates":[[[[-99.1435,19.5723],[-99.1338,19.5862],[-99.1288,19.6018],[-99.1216,19.6495],[-99.1403,19.6458],[-99.1503,19.6495],[-99.1487,19.6604],[-99.1599,19.661],[-99.1697,19.6578],[-99.1744,19.6495],[-99.1777,19.6503],[-99.1779,19.6472],[-99.1793,19.6475],[-99.1799,19.6462],[-99.182,19.645],[-99.1837,19.6439],[-99.1844,19.6435],[-99.1846,19.6434],[-99.1933,19.6294],[-99.1866,19.5913],[-99.1914,19.5857],[-99.1819,19.5752],[-99.1643,19.579],[-99.1435,19.5723]]],[[[-99.0815,19.6854],[-99.1101,19.6887],[-99.1181,19.6672],[-99.0725,19.6571],[-99.0685,19.6711],[-99.0743,19.6831],[-99.0815,19.6854]]]]},"properties":{"CVE_ENT":"15","CVE_MUN":"109","CVEGEO":"15109","NOMGEO":"Tultitlán"}},
{"type":"Feature","geometry":{"type":"Polygon","coordinates":[[[-99.1936,19.812],[-99.2047,19.8086],[-99.2344,19.8231],[-99.2386,19.8061],[-99.2739,19.7986],[-99.2752,19.7698],[-99.2576,19.775],[-99.2282,19.7922],[-99.2214,19.7855],[-99.2081,19.7521],[-99.1796,19.7678],[-99.1804,19.7932],[-99.1936,19.812]]]},"properties":{"CVE_ENT":"15","CVE_MUN":"023","CVEGEO":"15023","NOMGEO":"Coyotepec"}},
{"type":"Feature","geometry":{"type":"Polygon","coordinates":[[[-99.6094,18.8163],[-99.6331,18.8671],[-99.6698,18.903],[-99.7147,18.9112],[-99.7204,18.8993],[-99.7326,18.9033],[-99.7344,18.8805],[-99.7271,18.8675],[-99.734,18.8515],[-99.7483,18.8512],[-99.7614,18.841],[-99.7425,18.8107],[-99.724,18.7976],[-99.7092,18.7688],[-99.697,18.7863],[-99.7122,18.8119],[-99.6922,18.8226],[-99.6707,18.8207],[-99.6486,18.8335],[-99.6377,18.8137],[-99.6201,18.8204],[-99.6106,18.8129],[-99.6094,18.8163]]]},"properties":{"CVE_ENT":"15","CVE_MUN":"040","CVEGEO":"15040","NOMGEO":"Ixtapan de la Sal"}},
{"type":"Feature","geometry":{"type":"Polygon","coordinates":[[[-98.6571,19.3971],[-98.674,19.4042],[-98.713,19.4116],[-98.7256,19.4003],[-98.7469,19.403],[-98.7503,19.3948],[-98.7777,19.4083],[-98.7992,19.405],[-98.834,19.4016],[-98.8531,19.3866],[-98.8749,19.3838],[-98.8997,19.3572],[-98.952,19.3332],[-98.9539,19.3294],[-98.9222,19.2948],[-98.9104,19.2902],[-98.8793,19.2888],[-98.8743,19.304],[-98.8475,19.3014],[-98.8349,19.2888],[-98.8145,19.3078],[-98.8019,19.288],[-98.7655,19.3124],[-98.7221,19.3192],[-98.699,19.3085],[-98.6829,19.2648],[-98.6685,19.2492],[-98.6319,19.2639],[-98.6635,19.3248],[-98.6605,19.3513],[-98.6445,19.352],[-98.6581,19.3827],[-98.6571,19.3971]]]},"properties":{"CVE_ENT":"15","CVE_MUN":"039","CVEGEO":"15039","NOMGEO":"Ixtapaluca"}},
{"type":"Feature","geometry":{"type":"Polygon","coordinates":[[[-99.7244,19.3352],[-99.718,19.3566],[-99.7307,19.3687],[-99.734,19.4051],[-99.7205,19.4072],[-99.7195,19.4216],[-99.706,19.4384],[-99.7184,19.4472],[-99.7094,19.4633],[-99.7195,19.4701],[-99.7279,19.4799],[-99.7332,19.4781],[-99.7332,19.4774],[-99.7326,19.4767],[-99.7326,19.4764],[-99.7367,19.4722],[-99.7746,19.4781],[-99.7921,19.4844],[-99.7935,19.5035],[-99.8091,19.5174],[-99.8322,19.5328],[-99.871,19.5354],[-99.8703,19.5404],[-99.8856,19.5426],[-99.8917,19.5438],[-99.8964,19.5445],[-99.8985,19.5448],[-99.9007,19.5452],[-99.9018,19.5453],[-99.9021,19.5454],[-99.9368,19.5508],[-99.9303,19.5331],[-99.938,19.4885],[-99.9159,19.4821],[-99.9093,19.4682],[-99.8899,19.4527],[-99.8926,19.437],[-99.8611,19.4375],[-99.8533,19.4188],[-99.867,19.4058],[-99.9111,19.3985],[-99.9134,19.3743],[-99.9253,19.3383],[-99.9162,19.3053],[-99.9191,19.2927],[-99.9017,19.2728],[-99.9017,19.2577],[-99.8754,19.2594],[-99.8626,19.2473],[-99.855,19.2775],[-99.8533,19.3102],[-99.8345,19.3084],[-99.8247,19.3202],[-99.8092,19.319],[-99.8149,19.2891],[-99.7683,19.2845],[-99.7593,19.2904],[-99.7597,19.313],[-99.7728,19.3303],[-99.7391,19.3246],[-99.7244,19.3352]]]},"properties":{"CVE_ENT":"15","CVE_MUN":"005","CVEGEO":"15005","NOMGEO":"Almoloya de Juárez"}},
{"type":"Feature","geometry":{"type":"Polygon","coordinates":[[[-99.8299,19.0744],[-99.8498,19.0745],[-99.8356,19.0998],[-99.8341,19.1282],[-99.8425,19.152],[-99.8695,19.1565],[-99.8497,19.1723],[-99.8615,19.1907],[-99.8843,19.2051],[-99.879,19.2272],[-99.8992,19.2239],[-99.9002,19.2412],[-99.909,19.2298],[-99.9146,19.2038],[-99.9285,19.1944],[-99.9707,19.1865],[-99.9593,19.1755],[-99.9751,19.142],[-99.9882,19.1351],[-99.9928,19.1175],[-100.0115,19.1209],[-100.0431,19.1194],[-100.0595,19.1073],[-100.06,19.0814],[-100.082,19.0925],[-100.1145,19.0801],[-100.1351,19.0957],[-100.1635,19.0896],[-100.1894,19.0975],[-100.2148,19.1179],[-100.2255,19.0685],[-100.237,19.0646],[-100.2289,19.0269],[-100.2376,19.0157],[-100.2401,19.0145],[-100.2396,19.0146],[-100.2391,19.0147],[-100.2378,19.0135],[-100.2364,19.0143],[-100.2356,19.0126],[-100.2331,19.0147],[-100.2242,19.0133],[-100.212,19.0016],[-100.182,18.9909],[-100.1736,18.979],[-100.1583,18.9877],[-100.1488,19.0123],[-100.1371,19.0183],[-100.1096,19.0194],[-100.0966,19.013],[-100.0934,19.0174],[-100.087,19.0187],[-100.054,19.018],[-100.0392,19.0335],[-100.0126,19.0345],[-100.0051,19.0331],[-100.0021,19.0321],[-99.9939,19.026],[-99.9737,19.0175],[-99.9606,19.0166],[-99.9482,19.0086],[-99.9589,18.9978],[-99.9327,18.9884],[-99.902,18.9832],[-99.8956,19.0197],[-99.8835,19.0052],[-99.852,18.9955],[-99.8529,19.0301],[-99.8165,19.0415],[-99.8308,19.0536],[-99.8299,19.0744]]]},"properties":{"CVE_ENT":"15","CVE_MUN":"086","CVEGEO":"15086","NOMGEO":"Temascaltepec"}},
{"type":"Feature","geometry":{"type":"Polygon","coordinates":[[[-99.7015,19.6704],[-99.7121,19.6483],[-99.7339,19.6461],[-99.7446,19.6338],[-99.7878,19.6149],[-99.7985,19.6321],[-99.8111,19.6328],[-99.8258,19.6495],[-99.8102,19.6716],[-99.8392,19.6883],[-99.8454,19.7082],[-99.8604,19.7164],[-99.8719,19.7346],[-99.8875,19.7198],[-99.9002,19.7064],[-99.9067,19.6851],[-99.8942,19.6593],[-99.8865,19.661],[-99.8672,19.6303],[-99.9113,19.5859],[-99.9026,19.5739],[-99.9147,19.5623],[-99.9148,19.5518],[-99.8999,19.5493],[-99.9005,19.548],[-99.9009,19.5471],[-99.9018,19.5453],[-99.871,19.5354],[-99.8322,19.5328],[-99.8091,19.5174],[-99.7935,19.5035],[-99.7921,19.4844],[-99.7746,19.4781],[-99.7367,19.4722],[-99.7326,19.4764],[-99.7332,19.4774],[-99.7332,19.4781],[-99.732,19.479],[-99.7311,19.4789],[-99.7293,19.4819],[-99.7194,19.4799],[-99.6979,19.5083],[-99.6945,19.5233],[-99.7025,19.5273],[-99.7143,19.5088],[-99.7299,19.5592],[-99.7409,19.5685],[-99.7226,19.5824],[-99.7324,19.5891],[-99.7214,19.6249],[-99.6788,19.6629],[-99.7015,19.6704]]]},"properties":{"CVE_ENT":"15","CVE_MUN":"042","CVEGEO":"15042","NOMGEO":"Ixtlahuaca"}},
{"type":"Feature","geometry":{"type":"Polygon","coordinates":[[[-99.4938,19.0326],[-99.5035,19.0363],[-99.4821,19.0865],[-99.5132,19.1191],[-99.5302,19.1204],[-99.5363,19.096],[-99.5317,19.0797],[-99.5443,19.0368],[-99.5577,19.023],[-99.5448,19.018],[-99.5353,19.0373],[-99.5083,19.0297],[-99.5032,19.0298],[-99.4985,19.031],[-99.4979,19.0323],[-99.4938,19.0326]]]},"properties":{"CVE_ENT":"15","CVE_MUN":"049","CVEGEO":"15049","NOMGEO":"Joquicingo"}},
{"type":"Feature","geometry":{"type":"Polygon","coordinates":[[[-99.475,19.0177],[-99.4844,19.0333],[-99.4855,19.0326],[-99.4866,19.0324],[-99.4896,19.0315],[-99.4903,19.0314],[-99.4909,19.0312],[-99.491,19.0312],[-99.4916,19.017],[-99.5102,18.9984],[-99.507,18.9732],[-99.5189,18.9432],[-99.5311,18.9505],[-99.5478,18.9439],[-99.5373,18.9258],[-99.5469,18.907],[-99.5497,18.8884],[-99.5525,18.8822],[-99.5424,18.8734],[-99.5328,18.8515],[-99.522,18.8481],[-99.5162,18.8311],[-99.5215,18.8185],[-99.5192,18.8061],[-99.4975,18.8088],[-99.4906,18.7824],[-99.4662,18.7538],[-99.4633,18.7672],[-99.451,18.7725],[-99.4267,18.8247],[-99.4323,18.8578],[-99.4294,18.8776],[-99.4396,18.9265],[-99.4478,18.9197],[-99.4735,18.9176],[-99.479,18.9251],[-99.4788,18.9485],[-99.4628,18.9736],[-99.4752,18.998],[-99.475,19.0177]]]},"properties":{"CVE_ENT":"15","CVE_MUN":"052","CVEGEO":"15052","NOMGEO":"Malinalco"}},
{"type":"Feature","geometry":{"type":"Polygon","coordinates":[[[-98.6275,19.2578],[-98.6319,19.2639],[-98.6685,19.2492],[-98.6829,19.2648],[-98.7008,19.2552],[-98.7765,19.2411],[-98.783,19.2262],[-98.811,19.2104],[-98.8322,19.2124],[-98.8437,19.2058],[-98.8516,19.1829],[-98.8256,19.1679],[-98.8181,19.1692],[-98.7897,19.1764],[-98.7762,19.1491],[-98.7602,19.1661],[-98.7586,19.1778],[-98.7164,19.179],[-98.7001,19.1713],[-98.6716,19.1832],[-98.6392,19.1636],[-98.6403,19.1672],[-98.647,19.1848],[-98.6436,19.2387],[-98.6275,19.2578]]]},"properties":{"CVE_ENT":"15","CVE_MUN":"103","CVEGEO":"15103","NOMGEO":"Tlalmanalco"}},
{"type":"Feature","geometry":{"type":"Polygon","coordinates":[[[-98.9247,19.1585],[-98.9435,19.1611],[-98.9549,19.1741],[-98.9524,19.1686],[-98.9674,19.1644],[-98.9546,19.1495],[-98.9665,19.1439],[-98.9575,19.1224],[-98.9657,19.0859],[-98.979,19.0745],[-98.9578,19.0603],[-98.9443,19.0697],[-98.9171,19.0594],[-98.9034,19.0385],[-98.8882,19.0369],[-98.871,19.0254],[-98.843,19.0403],[-98.8422,19.0725],[-98.8352,19.0725],[-98.8369,19.0909],[-98.8491,19.1248],[-98.8549,19.1143],[-98.8717,19.1269],[-98.9178,19.1431],[-98.9247,19.1585]]]},"properties":{"CVE_ENT":"15","CVE_MUN":"050","CVEGEO":"15050","NOMGEO":"Juchitepec"}},
{"type":"Feature","geometry":{"type":"Polygon","coordinates":[[[-99.3134,19.219],[-99.4084,19.204],[-99.4146,19.238],[-99.449,19.2303],[-99.4297,19.2144],[-99.4291,19.2031],[-99.4536,19.1844],[-99.4765,19.1842],[-99.4832,19.206],[-99.477,19.222],[-99.4891,19.2302],[-99.5145,19.2303],[-99.5135,19.2232],[-99.5157,19.2147],[-99.5369,19.2095],[-99.5366,19.1923],[-99.5148,19.1843],[-99.5104,19.1878],[-99.4754,19.1803],[-99.4802,19.1711],[-99.463,19.1506],[-99.4879,19.1496],[-99.482,19.0878],[-99.4821,19.0865],[-99.4506,19.1073],[-99.435,19.1052],[-99.3351,19.1139],[-99.3066,19.1251],[-99.3694,19.1363],[-99.4093,19.148],[-99.4574,19.1506],[-99.4408,19.1871],[-99.4162,19.1875],[-99.3678,19.1957],[-99.3517,19.2016],[-99.3204,19.2061],[-99.3068,19.2111],[-99.3134,19.219]]]},"properties":{"CVE_ENT":"15","CVE_MUN":"101","CVEGEO":"15101","NOMGEO":"Tianguistenco"}},
{"type":"Feature","geometry":{"type":"Polygon","coordinates":[[[-99.6085,19.1354],[-99.6374,19.1423],[-99.6406,19.1232],[-99.6986,19.1254],[-99.7009,19.1174],[-99.7347,19.1181],[-99.7348,19.1007],[-99.7503,19.085],[-99.737,19.0688],[-99.7703,19.0787],[-99.7692,19.0743],[-99.7735,19.0739],[-99.7841,19.0715],[-99.7856,19.0661],[-99.7717,19.0652],[-99.7327,19.063],[-99.7165,19.0532],[-99.6848,19.0558],[-99.6551,19.053],[-99.6554,19.03],[-99.6382,19.0308],[-99.6362,19.0333],[-99.6292,19.038],[-99.6024,19.0394],[-99.6046,19.0183],[-99.5774,19.0129],[-99.5617,19.0181],[-99.5591,19.0301],[-99.5548,19.0363],[-99.5443,19.0368],[-99.5317,19.0797],[-99.5363,19.096],[-99.5302,19.1204],[-99.5374,19.1204],[-99.5819,19.1224],[-99.6085,19.1354]]]},"properties":{"CVE_ENT":"15","CVE_MUN":"090","CVEGEO":"15090","NOMGEO":"Tenango del Valle"}},
{"type":"Feature","geometry":{"type":"Polygon","coordinates":[[[-99.3819,19.3058],[-99.3946,19.3034],[-99.4064,19.3129],[-99.4604,19.3022],[-99.4933,19.2692],[-99.496,19.2477],[-99.4805,19.2476],[-99.4621,19.2294],[-99.449,19.2303],[-99.4146,19.238],[-99.4084,19.204],[-99.3134,19.219],[-99.3162,19.2215],[-99.3156,19.2274],[-99.3223,19.2326],[-99.3243,19.2326],[-99.3423,19.2411],[-99.3392,19.2677],[-99.3649,19.2778],[-99.35,19.2968],[-99.3564,19.3033],[-99.3819,19.3058]]]},"properties":{"CVE_ENT":"15","CVE_MUN":"062","CVEGEO":"15062","NOMGEO":"Ocoyoacac"}},
{"type":"Feature","geometry":{"type":"Polygon","coordinates":[[[-100.0681,18.5912],[-100.0682,18.6028],[-100.0884,18.6287],[-100.1096,18.6372],[-100.1168,18.6434],[-100.1192,18.6476],[-100.1192,18.6497],[-100.1189,18.6511],[-100.1218,18.6524],[-100.1158,18.6674],[-100.1361,18.6773],[-100.1449,18.6712],[-100.1878,18.6618],[-100.2145,18.6652],[-100.2191,18.6502],[-100.2601,18.648],[-100.2765,18.6378],[-100.2907,18.6534],[-100.307,18.6592],[-100.3335,18.6543],[-100.3379,18.6406],[-100.371,18.6257],[-100.3999,18.6281],[-100.412,18.6229],[-100.4297,18.5993],[-100.4479,18.5607],[-100.4466,18.5457],[-100.4349,18.5288],[-100.4299,18.511],[-100.4114,18.5207],[-100.396,18.5405],[-100.3824,18.5373],[-100.362,18.4968],[-100.3675,18.4754],[-100.3803,18.4557],[-100.3854,18.4265],[-100.3594,18.4235],[-100.3461,18.4003],[-100.3057,18.3681],[-100.292,18.3816],[-100.2679,18.3795],[-100.269,18.3999],[-100.2576,18.4284],[-100.2456,18.4213],[-100.227,18.4309],[-100.2171,18.4459],[-100.1857,18.4551],[-100.1581,18.492],[-100.1422,18.5025],[-100.1273,18.5023],[-100.12,18.5162],[-100.1045,18.524],[-100.09,18.5222],[-100.0768,18.5488],[-100.0689,18.5644],[-100.0681,18.5912]]]},"properties":{"CVE_ENT":"15","CVE_MUN":"105","CVEGEO":"15105","NOMGEO":"Tlatlaya"}},
{"type":"Feature","geometry":{"type":"Polygon","coordinates":[[[-98.8149,19.0818],[-98.8352,19.0725],[-98.842,19.0638],[-98.83,19.0459],[-98.8067,19.0341],[-98.805,19.0231],[-98.8195,19.006],[-98.8267,18.9819],[-98.8449,18.9731],[-98.8407,18.9557],[-98.8359,18.9502],[-98.8242,18.9549],[-98.793,18.9947],[-98.7714,19.0107],[-98.791,19.0216],[-98.7829,19.0375],[-98.788,19.0554],[-98.7957,19.0755],[-98.8149,19.0818]]]},"properties":{"CVE_ENT":"15","CVE_MUN":"068","CVEGEO":"15068","NOMGEO":"Ozumba"}},
{"type":"Feature","geometry":{"type":"Polygon","coordinates":[[[-99.9534,18.8898],[-99.9595,18.8719],[-99.9736,18.8724],[-99.9839,18.8624],[-100.0087,18.8712],[-100.0241,18.8681],[-100.0331,18.8483],[-100.0553,18.8185],[-100.0793,18.8113],[-100.1096,18.7959],[-100.1188,18.8002],[-100.1378,18.7897],[-100.1234,18.7803],[-100.1285,18.7583],[-100.1142,18.7535],[-100.1119,18.717],[-100.116,18.7016],[-100.1031,18.6921],[-100.0806,18.6857],[-100.0733,18.6688],[-100.0455,18.6656],[-100.03,18.6725],[-100.0057,18.6682],[-100.004,18.6553],[-100.0153,18.6319],[-100.0342,18.6155],[-100.0215,18.6037],[-99.9993,18.5836],[-100.0036,18.5675],[-99.9897,18.5697],[-99.9631,18.5546],[-99.9604,18.5666],[-99.9489,18.5788],[-99.9467,18.5867],[-99.9442,18.5879],[-99.9444,18.5892],[-99.9433,18.5899],[-99.943,18.5904],[-99.9449,18.5918],[-99.9486,18.5979],[-99.927,18.6058],[-99.9222,18.6156],[-99.9283,18.63],[-99.909,18.6449],[-99.8905,18.6501],[-99.9057,18.7104],[-99.8919,18.7152],[-99.8742,18.7154],[-99.8687,18.7457],[-99.8699,18.7542],[-99.866,18.7627],[-99.868,18.768],[-99.8645,18.7839],[-99.8761,18.7979],[-99.9078,18.8103],[-99.9255,18.8355],[-99.9544,18.8456],[-99.9353,18.8584],[-99.9324,18.8792],[-99.9534,18.8898]]]},"properties":{"CVE_ENT":"15","CVE_MUN":"080","CVEGEO":"15080","NOMGEO":"Sultepec"}},
{"type":"Feature","geometry":{"type":"Polygon","coordinates":[[[-99.6297,19.4199],[-99.6468,19.4352],[-99.642,19.4743],[-99.6619,19.4758],[-99.6688,19.4676],[-99.6661,19.4456],[-99.6847,19.4506],[-99.6943,19.4278],[-99.7069,19.4209],[-99.7205,19.4072],[-99.734,19.4051],[-99.7307,19.3687],[-99.718,19.3566],[-99.7208,19.3118],[-99.7068,19.3092],[-99.6958,19.2968],[-99.6986,19.2819],[-99.7194,19.2619],[-99.7204,19.2346],[-99.732,19.2118],[-99.7414,19.2133],[-99.7727,19.1613],[-99.7656,19.1506],[-99.7663,19.1262],[-99.7824,19.1122],[-99.7794,19.0964],[-99.7751,19.0933],[-99.7729,19.0921],[-99.7689,19.0899],[-99.7703,19.0787],[-99.737,19.0688],[-99.7503,19.085],[-99.7348,19.1007],[-99.7347,19.1181],[-99.7332,19.1247],[-99.6867,19.1758],[-99.6558,19.1944],[-99.647,19.2211],[-99.6305,19.2454],[-99.6435,19.2594],[-99.6364,19.2707],[-99.607,19.2756],[-99.606,19.2872],[-99.5638,19.286],[-99.5595,19.301],[-99.5616,19.3096],[-99.5287,19.3191],[-99.5332,19.341],[-99.5463,19.3674],[-99.5723,19.395],[-99.5839,19.3754],[-99.6063,19.3947],[-99.63,19.4036],[-99.6297,19.4199]]]},"properties":{"CVE_ENT":"15","CVE_MUN":"106","CVEGEO":"15106","NOMGEO":"Toluca"}},
{"type":"Feature","geometry":{"type":"Polygon","coordinates":[[[-99.7244,19.3352],[-99.7391,19.3246],[-99.7728,19.3303],[-99.7597,19.313],[-99.7593,19.2904],[-99.7683,19.2845],[-99.8149,19.2891],[-99.8092,19.319],[-99.8247,19.3202],[-99.8345,19.3084],[-99.8533,19.3102],[-99.855,19.2775],[-99.8626,19.2473],[-99.8754,19.2594],[-99.9017,19.2577],[-99.9002,19.2412],[-99.8992,19.2239],[-99.879,19.2272],[-99.8843,19.2051],[-99.8615,19.1907],[-99.8497,19.1723],[-99.8695,19.1565],[-99.8425,19.152],[-99.8341,19.1282],[-99.8356,19.0998],[-99.8498,19.0745],[-99.8299,19.0744],[-99.7841,19.0715],[-99.7735,19.0739],[-99.7692,19.0743],[-99.7703,19.0787],[-99.7689,19.0899],[-99.772,19.0916],[-99.7729,19.0921],[-99.774,19.0927],[-99.7751,19.0933],[-99.7794,19.0964],[-99.7824,19.1122],[-99.7663,19.1262],[-99.7656,19.1506],[-99.7727,19.1613],[-99.7414,19.2133],[-99.732,19.2118],[-99.7204,19.2346],[-99.7194,19.2619],[-99.6986,19.2819],[-99.6958,19.2968],[-99.7068,19.3092],[-99.7208,19.3118],[-99.7244,19.3352]]]},"properties":{"CVE_ENT":"15","CVE_MUN":"118","CVEGEO":"15118","NOMGEO":"Zinacantepec"}},
{"type":"Feature","geometry":{"type":"Polygon","coordinates":[[[-98.9611,20.0409],[-98.9926,20.0657],[-99.0056,20.0532],[-99.006,20.0264],[-99.0133,20.0109],[-99.0113,19.9821],[-99.0041,19.965],[-99.0277,19.9646],[-99.0345,19.9718],[-99.0313,20.0149],[-99.0494,20.0077],[-99.0476,19.9952],[-99.0676,19.985],[-99.0638,20.0142],[-99.0709,20.018],[-99.0894,20.0343],[-99.1182,20.0293],[-99.0846,20.0109],[-99.0959,19.9865],[-99.1193,19.9691],[-99.143,19.9586],[-99.1265,19.945],[-99.0869,19.9415],[-99.0586,19.9355],[-99.0686,19.9214],[-99.0885,19.9186],[-99.0887,19.8993],[-99.0722,19.8769],[-99.0737,19.8566],[-99.0582,19.8423],[-99.0341,19.8333],[-99.0285,19.8757],[-98.9921,19.903],[-98.9892,19.8814],[-98.966,19.8917],[-98.9527,19.9067],[-98.9561,19.9282],[-98.9998,19.9418],[-98.9956,19.9569],[-98.9812,19.9547],[-98.9652,19.9739],[-98.9447,19.9751],[-98.9421,20.0006],[-98.9467,20.0275],[-98.9611,20.0409]]]},"properties":{"CVE_ENT":"15","CVE_MUN":"036","CVEGEO":"15036","NOMGEO":"Hueypoxtla"}},
{"type":"Feature","geometry":{"type":"Polygon","coordinates":[[[-99.2476,19.5185],[-99.2248,19.5584],[-99.2125,19.5663],[-99.2175,19.5862],[-99.217,19.6042],[-99.2415,19.6122],[-99.2472,19.6068],[-99.2661,19.6076],[-99.2904,19.5823],[-99.3202,19.5956],[-99.3346,19.5795],[-99.3362,19.5689],[-99.3543,19.5543],[-99.3259,19.5479],[-99.3198,19.5164],[-99.3044,19.52],[-99.295,19.5343],[-99.2667,19.531],[-99.2476,19.5185]]]},"properties":{"CVE_ENT":"15","CVE_MUN":"013","CVEGEO":"15013","NOMGEO":"Atizapán de Zaragoza"}},
{"type":"Feature","geometry":{"type":"Polygon","coordinates":[[[-100.0793,19.7641],[-100.1106,19.7528],[-100.1176,19.7271],[-100.1499,19.7277],[-100.1705,19.7128],[-100.186,19.713],[-100.1922,19.7016],[-100.2295,19.7022],[-100.2422,19.7072],[-100.2585,19.7002],[-100.2675,19.6772],[-100.2651,19.662],[-100.2475,19.6345],[-100.2521,19.6175],[-100.2469,19.5977],[-100.2375,19.5572],[-100.2276,19.5579],[-100.2147,19.5528],[-100.1964,19.5317],[-100.2019,19.5229],[-100.2019,19.4995],[-100.1777,19.4926],[-100.1513,19.4869],[-100.1323,19.4948],[-100.1317,19.5194],[-100.0914,19.5143],[-100.0952,19.4938],[-100.0715,19.4886],[-100.0581,19.5292],[-100.0355,19.5426],[-100.0309,19.5543],[-100.0144,19.555],[-100.0085,19.5814],[-100.0289,19.5856],[-100.0504,19.5838],[-100.0742,19.6029],[-100.0716,19.6358],[-100.0573,19.6508],[-100.0697,19.6595],[-100.0778,19.6783],[-100.0776,19.7053],[-100.0652,19.7117],[-100.0632,19.7254],[-100.0793,19.7641]]]},"properties":{"CVE_ENT":"15","CVE_MUN":"124","CVEGEO":"15124","NOMGEO":"San José del Rincón"}},
{"type":"Feature","geometry":{"type":"Polygon","coordinates":[[[-99.7425,18.8107],[-99.7646,18.8035],[-99.7759,18.806],[-99.7813,18.8111],[-99.7907,18.8122],[-99.7989,18.8195],[-99.8017,18.8246],[-99.8235,18.8078],[-99.8521,18.8294],[-99.8645,18.7839],[-99.8377,18.7762],[-99.8254,18.7528],[-99.8338,18.7287],[-99.8302,18.7047],[-99.8385,18.6976],[-99.8516,18.711],[-99.8593,18.7139],[-99.8919,18.7152],[-99.9057,18.7104],[-99.8905,18.6501],[-99.909,18.6449],[-99.9283,18.63],[-99.9222,18.6156],[-99.927,18.6058],[-99.9486,18.5979],[-99.9449,18.5918],[-99.9445,18.5916],[-99.9435,18.5912],[-99.943,18.5904],[-99.9429,18.5899],[-99.9167,18.5979],[-99.8834,18.6191],[-99.8581,18.6123],[-99.8319,18.6269],[-99.8163,18.6252],[-99.8099,18.6381],[-99.7942,18.6299],[-99.7861,18.6396],[-99.7843,18.6623],[-99.7708,18.6875],[-99.7549,18.6974],[-99.7572,18.7137],[-99.7422,18.7259],[-99.7388,18.7373],[-99.7065,18.7355],[-99.6932,18.7212],[-99.672,18.7135],[-99.6881,18.7432],[-99.7092,18.7688],[-99.724,18.7976],[-99.7425,18.8107]]]},"properties":{"CVE_ENT":"15","CVE_MUN":"117","CVEGEO":"15117","NOMGEO":"Zacualpan"}},
{"type":"Feature","geometry":{"type":"Polygon","coordinates":[[[-99.3198,19.5164],[-99.3259,19.5479],[-99.3543,19.5543],[-99.368,19.5557],[-99.3857,19.5408],[-99.3998,19.5525],[-99.4552,19.5289],[-99.4751,19.5111],[-99.4574,19.5025],[-99.4419,19.4878],[-99.4214,19.4672],[-99.4087,19.4482],[-99.384,19.4383],[-99.3711,19.4486],[-99.3628,19.4774],[-99.3494,19.4947],[-99.3384,19.4929],[-99.3198,19.5164]]]},"properties":{"CVE_ENT":"15","CVE_MUN":"046","CVEGEO":"15046","NOMGEO":"Jilotzingo"}},
{"type":"Feature","geometry":{"type":"Polygon","coordinates":[[[-99.4087,19.4482],[-99.4214,19.4672],[-99.4419,19.4878],[-99.4668,19.4684],[-99.4703,19.453],[-99.5044,19.4249],[-99.5203,19.4228],[-99.5428,19.4065],[-99.5657,19.3954],[-99.5335,19.3962],[-99.474,19.4113],[-99.4689,19.4225],[-99.4141,19.4301],[-99.4087,19.4482]]]},"properties":{"CVE_ENT":"15","CVE_MUN":"115","CVEGEO":"15115","NOMGEO":"Xonacatlán"}},
{"type":"Feature","geometry":{"type":"Polygon","coordinates":[[[-99.5122,20.1751],[-99.5287,20.1636],[-99.5512,20.1705],[-99.5726,20.1643],[-99.5996,20.1697],[-99.6294,20.1459],[-99.641,20.1642],[-99.6551,20.1631],[-99.6597,20.1808],[-99.6741,20.1675],[-99.699,20.1724],[-99.7164,20.1383],[-99.7151,20.1079],[-99.6991,20.0975],[-99.6976,20.0862],[-99.6705,20.0779],[-99.6743,20.0555],[-99.6938,20.0493],[-99.6991,20.0252],[-99.6894,20.0034],[-99.6955,19.9821],[-99.6747,19.9763],[-99.7221,19.9416],[-99.695,19.924],[-99.647,19.9421],[-99.6402,19.9317],[-99.6543,19.9125],[-99.6552,19.8963],[-99.6412,19.8925],[-99.6174,19.8984],[-99.6002,19.8887],[-99.5709,19.8847],[-99.561,19.8684],[-99.5468,19.8908],[-99.5088,19.8916],[-99.4611,19.8769],[-99.4548,19.8551],[-99.4327,19.8753],[-99.484,19.9052],[-99.4736,19.9544],[-99.4445,19.9851],[-99.4587,19.9912],[-99.4909,19.9945],[-99.4897,20.0106],[-99.5065,20.0168],[-99.5225,20.0042],[-99.5443,20.005],[-99.5624,20.0126],[-99.5626,20.0276],[-99.5802,20.0275],[-99.573,20.0454],[-99.5853,20.0729],[-99.5899,20.1044],[-99.5399,20.1024],[-99.5333,20.1202],[-99.5082,20.1189],[-99.4984,20.1055],[-99.4871,20.1052],[-99.5187,20.1483],[-99.5053,20.1605],[-99.5122,20.1751]]]},"properties":{"CVE_ENT":"15","CVE_MUN":"045","CVEGEO":"15045","NOMGEO":"Jilotepec"}},
{"type":"Feature","geometry":{"type":"Polygon","coordinates":[[[-99.4879,19.1496],[-99.463,19.1506],[-99.4802,19.1711],[-99.4993,19.1622],[-99.5158,19.167],[-99.5262,19.1592],[-99.4879,19.1496]]]},"properties":{"CVE_ENT":"15","CVE_MUN":"006","CVEGEO":"15006","NOMGEO":"Almoloya del Río"}},
{"type":"Feature","geometry":{"type":"Polygon","coordinates":[[[-99.4802,19.1711],[-99.4754,19.1803],[-99.5104,19.1878],[-99.5148,19.1843],[-99.5158,19.167],[-99.4993,19.1622],[-99.4802,19.1711]]]},"properties":{"CVE_ENT":"15","CVE_MUN":"012","CVEGEO":"15012","NOMGEO":"Atizapán"}},
{"type":"Feature","geometry":{"type":"Polygon","coordinates":[[[-98.7263,18.9447],[-98.7148,18.9426],[-98.6909,18.9676],[-98.6663,19.0013],[-98.7209,18.9876],[-98.7668,18.9885],[-98.7843,18.9723],[-98.7995,18.9403],[-98.7921,18.9353],[-98.7861,18.9429],[-98.7631,18.9404],[-98.7263,18.9447]]]},"properties":{"CVE_ENT":"15","CVE_MUN":"034","CVEGEO":"15034","NOMGEO":"Ecatzingo"}},
{"type":"Feature","geometry":{"type":"Polygon","coordinates":[[[-100.22,19.2628],[-100.2322,19.2855],[-100.2523,19.2803],[-100.2793,19.3005],[-100.2861,19.3223],[-100.3068,19.3269],[-100.318,19.3181],[-100.3207,19.3068],[-100.3197,19.2618],[-100.3313,19.2305],[-100.3377,19.227],[-100.3305,19.2303],[-100.2776,19.214],[-100.2671,19.2009],[-100.2512,19.1966],[-100.2489,19.199],[-100.2464,19.1982],[-100.2431,19.1974],[-100.242,19.1979],[-100.2389,19.1999],[-100.2371,19.2015],[-100.2315,19.2182],[-100.2314,19.2589],[-100.22,19.2628]]]},"properties":{"CVE_ENT":"15","CVE_MUN":"041","CVEGEO":"15041","NOMGEO":"Ixtapan del Oro"}},
{"type":"Feature","geometry":{"type":"Polygon","coordinates":[[[-98.8181,19.1692],[-98.8256,19.1679],[-98.8491,19.1248],[-98.8369,19.0909],[-98.8352,19.0725],[-98.8149,19.0818],[-98.8034,19.0886],[-98.7752,19.144],[-98.7889,19.1474],[-98.794,19.1602],[-98.8103,19.1575],[-98.8181,19.1692]]]},"properties":{"CVE_ENT":"15","CVE_MUN":"017","CVEGEO":"15017","NOMGEO":"Ayapango"}},
{"type":"Feature","geometry":{"type":"Polygon","coordinates":[[[-99.6552,19.8963],[-99.6543,19.9125],[-99.6402,19.9317],[-99.647,19.9421],[-99.695,19.924],[-99.7221,19.9416],[-99.6747,19.9763],[-99.6955,19.9821],[-99.6894,20.0034],[-99.6991,20.0252],[-99.6938,20.0493],[-99.7232,20.0185],[-99.7069,20.0152],[-99.7222,19.9546],[-99.749,19.9369],[-99.765,19.9367],[-99.7751,19.9062],[-99.7682,19.8899],[-99.7751,19.8779],[-99.7667,19.8574],[-99.7895,19.846],[-99.7729,19.8288],[-99.7797,19.813],[-99.7487,19.7954],[-99.7491,19.8062],[-99.7451,19.8139],[-99.7443,19.827],[-99.729,19.8276],[-99.7186,19.8399],[-99.6831,19.8351],[-99.6704,19.8406],[-99.662,19.8748],[-99.6668,19.8876],[-99.6552,19.8963]]]},"properties":{"CVE_ENT":"15","CVE_MUN":"102","CVEGEO":"15102","NOMGEO":"Timilpan"}},
{"type":"Feature","geometry":{"type":"Polygon","coordinates":[[[-98.8516,19.1829],[-98.8753,19.1839],[-98.8884,19.1733],[-98.8849,19.1554],[-98.9247,19.1585],[-98.9178,19.1431],[-98.8717,19.1269],[-98.8549,19.1143],[-98.8491,19.1248],[-98.8256,19.1679],[-98.8516,19.1829]]]},"properties":{"CVE_ENT":"15","CVE_MUN":"089","CVEGEO":"15089","NOMGEO":"Tenango del Aire"}},
{"type":"Feature","geometry":{"type":"Polygon","coordinates":[[[-98.7992,19.405],[-98.8353,19.4185],[-98.8571,19.4186],[-98.8768,19.4348],[-98.899,19.4254],[-98.9244,19.4278],[-98.9179,19.4062],[-98.8951,19.3977],[-98.898,19.3734],[-98.8997,19.3572],[-98.8749,19.3838],[-98.8531,19.3866],[-98.834,19.4016],[-98.7992,19.405]]]},"properties":{"CVE_ENT":"15","CVE_MUN":"029","CVEGEO":"15029","NOMGEO":"Chicoloapan"}},
{"type":"Feature","geometry":{"type":"Polygon","coordinates":[[[-99.5258,19.5821],[-99.553,19.5722],[-99.5726,19.5256],[-99.5985,19.5181],[-99.6282,19.5005],[-99.6552,19.5082],[-99.6821,19.5063],[-99.6945,19.5233],[-99.6979,19.5083],[-99.7194,19.4799],[-99.7293,19.4819],[-99.7311,19.4789],[-99.7279,19.4799],[-99.7269,19.4799],[-99.7266,19.4797],[-99.7195,19.4701],[-99.7094,19.4633],[-99.7184,19.4472],[-99.706,19.4384],[-99.7069,19.4209],[-99.6943,19.4278],[-99.6847,19.4506],[-99.6661,19.4456],[-99.6688,19.4676],[-99.6619,19.4758],[-99.642,19.4743],[-99.6468,19.4352],[-99.6297,19.4199],[-99.6158,19.4065],[-99.597,19.4089],[-99.5908,19.425],[-99.5689,19.4279],[-99.5654,19.4454],[-99.5703,19.46],[-99.5635,19.4721],[-99.5501,19.4715],[-99.5453,19.4839],[-99.5251,19.4991],[-99.4894,19.5115],[-99.505,19.5259],[-99.5008,19.536],[-99.5224,19.5415],[-99.5244,19.5734],[-99.5165,19.5738],[-99.5258,19.5821]]]},"properties":{"CVE_ENT":"15","CVE_MUN":"087","CVEGEO":"15087","NOMGEO":"Temoaya"}},
{"type":"Feature","geometry":{"type":"Polygon","coordinates":[[[-98.8467,19.5532],[-98.862,19.5656],[-98.8643,19.5547],[-98.8467,19.5532]]]},"properties":{"CVE_ENT":"15","CVE_MUN":"069","CVEGEO":"15069","NOMGEO":"Papalotla"}},
{"type":"Feature","geometry":{"type":"Polygon","coordinates":[[[-98.8148,19.8678],[-98.844,19.882],[-98.8412,19.8924],[-98.8558,19.9043],[-98.8706,19.895],[-98.8832,19.9015],[-98.9139,19.8769],[-98.9052,19.8635],[-98.9079,19.8499],[-98.9276,19.8434],[-98.9455,19.8038],[-98.9513,19.791],[-98.9344,19.7631],[-98.9413,19.7485],[-98.9291,19.743],[-98.9299,19.7419],[-98.9308,19.7409],[-98.9242,19.7359],[-98.9206,19.7327],[-98.9181,19.7315],[-98.9158,19.7294],[-98.9158,19.7293],[-98.9094,19.7272],[-98.8983,19.7522],[-98.9006,19.7553],[-98.8852,19.7521],[-98.8822,19.751],[-98.8815,19.7509],[-98.8807,19.7505],[-98.8763,19.7565],[-98.8719,19.7716],[-98.8707,19.7724],[-98.8693,19.7727],[-98.8559,19.7906],[-98.8387,19.7728],[-98.8182,19.7701],[-98.8141,19.784],[-98.8187,19.8023],[-98.8122,19.8181],[-98.8267,19.8245],[-98.8148,19.8678]]]},"properties":{"CVE_ENT":"15","CVE_MUN":"084","CVEGEO":"15084","NOMGEO":"Temascalapa"}},
{"type":"Feature","geometry":{"type":"Polygon","coordinates":[[[-99.5497,18.8884],[-99.5532,18.902],[-99.5612,18.9091],[-99.5757,18.9068],[-99.5941,18.9222],[-99.6245,18.9185],[-99.6156,18.8919],[-99.615,18.8637],[-99.6081,18.8437],[-99.6094,18.8163],[-99.6106,18.8129],[-99.582,18.7757],[-99.5737,18.7376],[-99.5808,18.7303],[-99.5685,18.7047],[-99.533,18.6945],[-99.5223,18.7074],[-99.4944,18.7205],[-99.4662,18.7538],[-99.4906,18.7824],[-99.4975,18.8088],[-99.5192,18.8061],[-99.5215,18.8185],[-99.5298,18.8207],[-99.5356,18.8365],[-99.5584,18.855],[-99.5588,18.8738],[-99.5525,18.8822],[-99.5497,18.8884]]]},"properties":{"CVE_ENT":"15","CVE_MUN":"119","CVEGEO":"15119","NOMGEO":"Zumpahuacán"}},
{"type":"Feature","geometry":{"type":"Polygon","coordinates":[[[-100.1378,18.7897],[-100.1493,18.7889],[-100.1639,18.7996],[-100.2002,18.8],[-100.2091,18.7937],[-100.256,18.7958],[-100.2875,18.8018],[-100.3123,18.7775],[-100.3585,18.7724],[-100.3831,18.7638],[-100.3963,18.7721],[-100.4222,18.7635],[-100.4371,18.7506],[-100.4545,18.6944],[-100.4734,18.6909],[-100.4884,18.6532],[-100.487,18.6404],[-100.4743,18.6192],[-100.4514,18.6239],[-100.443,18.62],[-100.442,18.619],[-100.4415,18.6185],[-100.4368,18.6137],[-100.4297,18.5993],[-100.412,18.6229],[-100.3999,18.6281],[-100.371,18.6257],[-100.3379,18.6406],[-100.3335,18.6543],[-100.307,18.6592],[-100.2907,18.6534],[-100.2765,18.6378],[-100.2601,18.648],[-100.2191,18.6502],[-100.2145,18.6652],[-100.1878,18.6618],[-100.1449,18.6712],[-100.1361,18.6773],[-100.1158,18.6674],[-100.1218,18.6524],[-100.1189,18.6511],[-100.1192,18.6476],[-100.1168,18.6434],[-100.1096,18.6372],[-100.0884,18.6287],[-100.0682,18.6028],[-100.0644,18.5859],[-100.0376,18.5966],[-100.0357,18.5998],[-100.0336,18.6062],[-100.025,18.6069],[-100.0215,18.6037],[-100.0342,18.6155],[-100.0153,18.6319],[-100.004,18.6553],[-100.0057,18.6682],[-100.03,18.6725],[-100.0455,18.6656],[-100.0733,18.6688],[-100.0806,18.6857],[-100.1031,18.6921],[-100.116,18.7016],[-100.1119,18.717],[-100.1142,18.7535],[-100.1285,18.7583],[-100.1234,18.7803],[-100.1378,18.7897]]]},"properties":{"CVE_ENT":"15","CVE_MUN":"008","CVEGEO":"15008","NOMGEO":"Amatepec"}},
{"type":"Feature","geometry":{"type":"Polygon","coordinates":[[[-98.9726,19.5965],[-98.9802,19.5833],[-98.9972,19.5864],[-98.9855,19.5695],[-98.9912,19.5589],[-99.0134,19.5578],[-99.0145,19.4904],[-98.9536,19.5126],[-98.9155,19.5226],[-98.9103,19.5373],[-98.8928,19.5369],[-98.9104,19.5545],[-98.911,19.5707],[-98.9109,19.5769],[-98.9258,19.5806],[-98.9369,19.5936],[-98.9726,19.5965]]]},"properties":{"CVE_ENT":"15","CVE_MUN":"011","CVEGEO":"15011","NOMGEO":"Atenco"}},
{"type":"Feature","geometry":{"type":"Polygon","coordinates":[[[-99.1846,19.6434],[-99.1845,19.6435],[-99.1843,19.6464],[-99.1829,19.6565],[-99.182,19.6615],[-99.192,19.6767],[-99.1888,19.6947],[-99.1954,19.7147],[-99.2071,19.703],[-99.2196,19.7047],[-99.2574,19.6894],[-99.2709,19.6893],[-99.271,19.6645],[-99.2786,19.6628],[-99.2893,19.6471],[-99.2761,19.625],[-99.2765,19.6145],[-99.2699,19.6083],[-99.2581,19.6086],[-99.2472,19.6068],[-99.2415,19.6122],[-99.217,19.6042],[-99.2157,19.6008],[-99.213,19.5976],[-99.2095,19.5922],[-99.2077,19.5886],[-99.196,19.5901],[-99.1914,19.5857],[-99.1866,19.5913],[-99.1933,19.6294],[-99.1846,19.6434]]]},"properties":{"CVE_ENT":"15","CVE_MUN":"121","CVEGEO":"15121","NOMGEO":"Cuautitlán Izcalli"}},
{"type":"Feature","geometry":{"type":"MultiPolygon","coordinates":[[[[-98.8164,19.6183],[-98.8155,19.62],[-98.8106,19.6246],[-98.8143,19.644],[-98.8266,19.6252],[-98.8164,19.6183]]],[[[-98.7994,19.7391],[-98.8401,19.76],[-98.855,19.7653],[-98.8684,19.7728],[-98.8707,19.7724],[-98.8719,19.7716],[-98.8763,19.7565],[-98.8766,19.7562],[-98.8795,19.7521],[-98.8807,19.7505],[-98.8809,19.7499],[-98.8804,19.7496],[-98.8817,19.7478],[-98.8826,19.7442],[-98.8816,19.7429],[-98.8833,19.7416],[-98.8856,19.7336],[-98.8909,19.7212],[-98.8607,19.7059],[-98.8519,19.7183],[-98.8382,19.6962],[-98.8068,19.6861],[-98.8177,19.6761],[-98.8143,19.6603],[-98.8121,19.6638],[-98.8034,19.6595],[-98.7942,19.6653],[-98.7861,19.6839],[-98.8038,19.6856],[-98.7878,19.7066],[-98.7874,19.7131],[-98.7805,19.7269],[-98.7614,19.7453],[-98.7719,19.7514],[-98.7866,19.7282],[-98.7994,19.7391]]]]},"properties":{"CVE_ENT":"15","CVE_MUN":"075","CVEGEO":"15075","NOMGEO":"San Martín de las Pirámides"}},
{"type":"Feature","geometry":{"type":"Polygon","coordinates":[[[-99.6082,19.2159],[-99.6387,19.2161],[-99.647,19.2211],[-99.6558,19.1944],[-99.6867,19.1758],[-99.7332,19.1247],[-99.7347,19.1181],[-99.7009,19.1174],[-99.6986,19.1254],[-99.6406,19.1232],[-99.6374,19.1423],[-99.6085,19.1354],[-99.5956,19.1572],[-99.5928,19.172],[-99.5608,19.1779],[-99.5366,19.1923],[-99.5369,19.2095],[-99.5458,19.1938],[-99.5657,19.1932],[-99.5709,19.2064],[-99.5911,19.1976],[-99.611,19.199],[-99.6082,19.2159]]]},"properties":{"CVE_ENT":"15","CVE_MUN":"018","CVEGEO":"15018","NOMGEO":"Calimaya"}},
{"type":"Feature","geometry":{"type":"Polygon","coordinates":[[[-99.449,19.2303],[-99.4621,19.2294],[-99.4805,19.2476],[-99.477,19.222],[-99.4832,19.206],[-99.4765,19.1842],[-99.4536,19.1844],[-99.4291,19.2031],[-99.4297,19.2144],[-99.449,19.2303]]]},"properties":{"CVE_ENT":"15","CVE_MUN":"019","CVEGEO":"15019","NOMGEO":"Capulhuac"}},
{"type":"Feature","geometry":{"type":"Polygon","coordinates":[[[-99.0725,19.6571],[-99.106,19.664],[-99.1084,19.6495],[-99.1216,19.6495],[-99.1288,19.6018],[-99.1237,19.5928],[-99.1179,19.5906],[-99.0883,19.5892],[-99.0894,19.6102],[-99.0742,19.6368],[-99.0725,19.6571]]]},"properties":{"CVE_ENT":"15","CVE_MUN":"020","CVEGEO":"15020","NOMGEO":"Coacalco de Berriozábal"}},
{"type":"Feature","geometry":{"type":"Polygon","coordinates":[[[-98.8322,19.2124],[-98.8363,19.2256],[-98.8711,19.2497],[-98.8814,19.2212],[-98.8437,19.2058],[-98.8322,19.2124]]]},"properties":{"CVE_ENT":"15","CVE_MUN":"022","CVEGEO":"15022","NOMGEO":"Cocotitlán"}},
{"type":"Feature","geometry":{"type":"Polygon","coordinates":[[[-99.6352,19.6897],[-99.6426,19.6953],[-99.6594,19.7003],[-99.6613,19.6871],[-99.6829,19.6904],[-99.6964,19.6855],[-99.7015,19.6704],[-99.6788,19.6629],[-99.7214,19.6249],[-99.7324,19.5891],[-99.7226,19.5824],[-99.7409,19.5685],[-99.7299,19.5592],[-99.7143,19.5088],[-99.7025,19.5273],[-99.6945,19.5233],[-99.6821,19.5063],[-99.6552,19.5082],[-99.6282,19.5005],[-99.5985,19.5181],[-99.5726,19.5256],[-99.553,19.5722],[-99.5258,19.5821],[-99.5334,19.6014],[-99.5246,19.6149],[-99.5502,19.6293],[-99.5612,19.6405],[-99.5646,19.6412],[-99.5638,19.6281],[-99.5726,19.6098],[-99.5966,19.6177],[-99.615,19.632],[-99.6327,19.6497],[-99.6427,19.6579],[-99.6421,19.6611],[-99.6352,19.6897]]]},"properties":{"CVE_ENT":"15","CVE_MUN":"047","CVEGEO":"15047","NOMGEO":"Jiquipilco"}},
{"type":"Feature","geometry":{"type":"Polygon","coordinates":[[[-99.9263,20.0643],[-99.9804,20.0609],[-99.9785,20.074],[-100.0004,20.0775],[-100.0057,20.0644],[-100.0316,20.0531],[-100.0438,20.0366],[-100.0575,20.0399],[-100.0769,20.0295],[-100.0641,20.0093],[-100.0126,19.9888],[-99.9743,19.9713],[-99.9679,19.9304],[-99.9506,19.9291],[-99.9322,19.9394],[-99.9223,19.928],[-99.8909,19.9057],[-99.8986,19.8988],[-99.9165,19.906],[-99.9262,19.8906],[-99.8972,19.8836],[-99.8844,19.9016],[-99.8355,19.8627],[-99.8157,19.8542],[-99.7991,19.8405],[-99.7895,19.846],[-99.7667,19.8574],[-99.7751,19.8779],[-99.7682,19.8899],[-99.7751,19.9062],[-99.765,19.9367],[-99.749,19.9369],[-99.7222,19.9546],[-99.7069,20.0152],[-99.7232,20.0185],[-99.7339,20.0168],[-99.7452,20.031],[-99.78,20.0344],[-99.784,20.0452],[-99.8204,20.0547],[-99.8293,20.0418],[-99.8265,20.0162],[-99.8694,19.999],[-99.8864,20.016],[-99.9006,20.0227],[-99.9025,20.04],[-99.9183,20.0446],[-99.9263,20.0643]]]},"properties":{"CVE_ENT":"15","CVE_MUN":"001","CVEGEO":"15001","NOMGEO":"Acambay de Ruíz Castañeda"}},
{"type":"Feature","geometry":{"type":"Polygon","coordinates":[[[-99.9587,19.8154],[-99.9817,19.8155],[-99.9921,19.7708],[-100.0107,19.7626],[-100.0157,19.7347],[-100.0066,19.7514],[-99.9762,19.7394],[-99.8875,19.7198],[-99.8719,19.7346],[-99.8604,19.7164],[-99.8454,19.7082],[-99.8392,19.6883],[-99.8102,19.6716],[-99.8258,19.6495],[-99.8111,19.6328],[-99.7985,19.6321],[-99.7878,19.6149],[-99.7446,19.6338],[-99.7339,19.6461],[-99.7121,19.6483],[-99.7015,19.6704],[-99.6964,19.6855],[-99.6829,19.6904],[-99.6613,19.6871],[-99.6594,19.7003],[-99.6704,19.7146],[-99.6854,19.723],[-99.683,19.7356],[-99.6901,19.7364],[-99.6889,19.7417],[-99.7057,19.7428],[-99.745,19.7296],[-99.7655,19.7441],[-99.796,19.7339],[-99.8435,19.7564],[-99.8809,19.7607],[-99.8839,19.7717],[-99.9292,19.7919],[-99.9493,19.798],[-99.9587,19.8154]]]},"properties":{"CVE_ENT":"15","CVE_MUN":"048","CVEGEO":"15048","NOMGEO":"Jocotitlán"}},
{"type":"Feature","geometry":{"type":"Polygon","coordinates":[[[-98.8719,19.5988],[-98.9012,19.605],[-98.9023,19.5805],[-98.9109,19.5769],[-98.911,19.5707],[-98.8791,19.5659],[-98.8944,19.5505],[-98.8839,19.536],[-98.867,19.5446],[-98.8643,19.5547],[-98.862,19.5656],[-98.8719,19.5988]]]},"properties":{"CVE_ENT":"15","CVE_MUN":"028","CVEGEO":"15028","NOMGEO":"Chiautla"}},
{"type":"Feature","geometry":{"type":"Polygon","coordinates":[[[-99.2953,19.1227],[-99.3066,19.1251],[-99.3351,19.1139],[-99.435,19.1052],[-99.4506,19.1073],[-99.4821,19.0865],[-99.5035,19.0363],[-99.4938,19.0326],[-99.491,19.0312],[-99.4909,19.0312],[-99.4903,19.0314],[-99.4896,19.0315],[-99.4866,19.0324],[-99.4855,19.0326],[-99.4844,19.0333],[-99.475,19.0177],[-99.4752,18.998],[-99.4628,18.9736],[-99.4788,18.9485],[-99.479,18.9251],[-99.4735,18.9176],[-99.4478,18.9197],[-99.4396,18.9265],[-99.4294,18.8776],[-99.411,18.8782],[-99.4067,18.8952],[-99.3648,18.899],[-99.342,18.9225],[-99.3379,18.9324],[-99.313,18.9481],[-99.3111,18.9917],[-99.3197,19.0113],[-99.3118,19.0247],[-99.3189,19.0311],[-99.3183,19.0874],[-99.3137,19.0982],[-99.2953,19.1227]]]},"properties":{"CVE_ENT":"15","CVE_MUN":"063","CVEGEO":"15063","NOMGEO":"Ocuilan"}},
{"type":"Feature","geometry":{"type":"Polygon","coordinates":[[[-99.3959,19.4194],[-99.4141,19.4301],[-99.4689,19.4225],[-99.474,19.4113],[-99.5335,19.3962],[-99.5657,19.3954],[-99.5723,19.395],[-99.5463,19.3674],[-99.5332,19.341],[-99.5287,19.3191],[-99.5616,19.3096],[-99.5595,19.301],[-99.5554,19.286],[-99.5218,19.2861],[-99.5198,19.239],[-99.5145,19.2303],[-99.4891,19.2302],[-99.477,19.222],[-99.4805,19.2476],[-99.496,19.2477],[-99.4933,19.2692],[-99.4604,19.3022],[-99.4064,19.3129],[-99.3946,19.3034],[-99.3819,19.3058],[-99.404,19.3538],[-99.403,19.3833],[-99.3959,19.4194]]]},"properties":{"CVE_ENT":"15","CVE_MUN":"051","CVEGEO":"15051","NOMGEO":"Lerma"}},
{"type":"Feature","geometry":{"type":"Polygon","coordinates":[[[-100.1379,20.0443],[-100.1525,20.0528],[-100.1577,20.0179],[-100.116,20.0061],[-100.1314,19.982],[-100.1301,19.9162],[-100.1192,19.9121],[-100.0911,19.86],[-100.0855,19.8456],[-100.0412,19.825],[-100.0248,19.8069],[-100.0185,19.8131],[-99.9817,19.8155],[-99.9587,19.8154],[-99.9599,19.8342],[-99.9449,19.8313],[-99.9319,19.8469],[-99.9302,19.8589],[-99.9657,19.8542],[-99.9653,19.8785],[-99.9324,19.871],[-99.9262,19.8906],[-99.9165,19.906],[-99.8986,19.8988],[-99.8909,19.9057],[-99.9223,19.928],[-99.9322,19.9394],[-99.9506,19.9291],[-99.9679,19.9304],[-99.9743,19.9713],[-100.0126,19.9888],[-100.0641,20.0093],[-100.0769,20.0295],[-100.0987,20.025],[-100.1379,20.0443]]]},"properties":{"CVE_ENT":"15","CVE_MUN":"085","CVEGEO":"15085","NOMGEO":"Temascalcingo"}},
{"type":"Feature","geometry":{"type":"MultiPolygon","coordinates":[[[[-99.5496,18.8762],[-99.5588,18.8738],[-99.5584,18.855],[-99.5356,18.8365],[-99.5298,18.8207],[-99.5162,18.8311],[-99.522,18.8481],[-99.5328,18.8515],[-99.5496,18.8762]]],[[[-99.5577,19.023],[-99.5617,19.0181],[-99.5603,19.0104],[-99.5696,19.0136],[-99.5749,19.0131],[-99.5774,19.0129],[-99.5848,19.018],[-99.6046,19.0183],[-99.6024,19.0394],[-99.6292,19.038],[-99.6362,19.0333],[-99.6366,19.0312],[-99.6385,19.0301],[-99.638,18.981],[-99.6153,18.9515],[-99.6252,18.9413],[-99.622,18.9213],[-99.5941,18.9222],[-99.5757,18.9068],[-99.5612,18.9091],[-99.5469,18.907],[-99.5373,18.9258],[-99.5478,18.9439],[-99.5311,18.9505],[-99.5189,18.9432],[-99.507,18.9732],[-99.5102,18.9984],[-99.4916,19.017],[-99.4916,19.0227],[-99.4912,19.0279],[-99.4911,19.0304],[-99.491,19.0312],[-99.4909,19.0319],[-99.4938,19.0326],[-99.4979,19.0323],[-99.4985,19.031],[-99.5032,19.0298],[-99.5083,19.0297],[-99.5353,19.0373],[-99.5448,19.018],[-99.5577,19.023]]]]},"properties":{"CVE_ENT":"15","CVE_MUN":"088","CVEGEO":"15088","NOMGEO":"Tenancingo"}},
{"type":"Feature","geometry":{"type":"Polygon","coordinates":[[[-99.5369,19.2095],[-99.5157,19.2147],[-99.5135,19.2232],[-99.5529,19.2218],[-99.5554,19.2055],[-99.5709,19.2064],[-99.5657,19.1932],[-99.5458,19.1938],[-99.5369,19.2095]]]},"properties":{"CVE_ENT":"15","CVE_MUN":"027","CVEGEO":"15027","NOMGEO":"Chapultepec"}},
{"type":"Feature","geometry":{"type":"Polygon","coordinates":[[[-98.952,19.3332],[-98.9743,19.337],[-98.9604,19.3254],[-98.9672,19.306],[-98.9765,19.2531],[-98.966,19.2499],[-98.9686,19.2322],[-98.9458,19.225],[-98.9264,19.2429],[-98.9353,19.2582],[-98.9115,19.2813],[-98.9104,19.2902],[-98.9222,19.2948],[-98.9539,19.3294],[-98.952,19.3332]]]},"properties":{"CVE_ENT":"15","CVE_MUN":"122","CVEGEO":"15122","NOMGEO":"Valle de Chalco Solidaridad"}},
{"type":"Feature","geometry":{"type":"Polygon","coordinates":[[[-98.6532,19.466],[-98.6852,19.4783],[-98.7292,19.5216],[-98.7468,19.5232],[-98.771,19.5349],[-98.7813,19.526],[-98.799,19.5529],[-98.8137,19.551],[-98.8348,19.557],[-98.8467,19.5532],[-98.8643,19.5547],[-98.867,19.5446],[-98.8839,19.536],[-98.8928,19.5369],[-98.9103,19.5373],[-98.9155,19.5226],[-98.9536,19.5126],[-99.0145,19.4904],[-99.0288,19.4846],[-99.0269,19.4347],[-98.9905,19.426],[-98.9792,19.4358],[-98.9783,19.4517],[-98.9402,19.4636],[-98.9255,19.4424],[-98.9244,19.4278],[-98.899,19.4254],[-98.8768,19.4348],[-98.8571,19.4186],[-98.8353,19.4185],[-98.7992,19.405],[-98.7777,19.4083],[-98.7503,19.3948],[-98.7469,19.403],[-98.7256,19.4003],[-98.713,19.4116],[-98.674,19.4042],[-98.6571,19.3971],[-98.6563,19.4221],[-98.6348,19.4312],[-98.6614,19.4581],[-98.6532,19.466]]]},"properties":{"CVE_ENT":"15","CVE_MUN":"099","CVEGEO":"15099","NOMGEO":"Texcoco"}},
{"type":"Feature","geometry":{"type":"MultiPolygon","coordinates":[[[[-99.8463,18.7763],[-99.8567,18.7801],[-99.8659,18.7774],[-99.8668,18.7725],[-99.868,18.768],[-99.866,18.7627],[-99.8699,18.7542],[-99.8687,18.7457],[-99.8742,18.7154],[-99.8593,18.7139],[-99.8516,18.711],[-99.8385,18.6976],[-99.8302,18.7047],[-99.8338,18.7287],[-99.8254,18.7528],[-99.8377,18.7762],[-99.8463,18.7763]]],[[[-99.8716,18.8968],[-99.8782,18.9021],[-99.8951,18.914],[-99.8992,18.9174],[-99.9135,18.9039],[-99.9362,18.9005],[-99.9463,18.8896],[-99.9324,18.8792],[-99.9353,18.8584],[-99.9544,18.8456],[-99.9255,18.8355],[-99.9078,18.8103],[-99.8761,18.7979],[-99.8645,18.7839],[-99.8521,18.8294],[-99.8235,18.8078],[-99.8017,18.8246],[-99.7924,18.8142],[-99.7864,18.821],[-99.7817,18.8254],[-99.7801,18.8309],[-99.7885,18.8552],[-99.8193,18.8698],[-99.8277,18.8897],[-99.8458,18.9006],[-99.8632,18.8883],[-99.8716,18.8968]]]]},"properties":{"CVE_ENT":"15","CVE_MUN":"004","CVEGEO":"15004","NOMGEO":"Almoloya de Alquisiras"}},
{"type":"Feature","geometry":{"type":"Polygon","coordinates":[[[-99.2953,19.1227],[-99.2951,19.1229],[-99.2823,19.1299],[-99.2787,19.1317],[-99.2801,19.1341],[-99.2826,19.1382],[-99.2876,19.1466],[-99.3028,19.1909],[-99.3068,19.2111],[-99.3204,19.2061],[-99.3517,19.2016],[-99.3678,19.1957],[-99.4162,19.1875],[-99.4408,19.1871],[-99.4574,19.1506],[-99.4093,19.148],[-99.3694,19.1363],[-99.3066,19.1251],[-99.2953,19.1227]]]},"properties":{"CVE_ENT":"15","CVE_MUN":"043","CVEGEO":"15043","NOMGEO":"Xalatlaco"}},
{"type":"Feature","geometry":{"type":"Polygon","coordinates":[[[-99.1737,19.8568],[-99.1718,19.8725],[-99.1886,19.8761],[-99.1958,19.8932],[-99.2183,19.8891],[-99.2359,19.8735],[-99.248,19.8598],[-99.271,19.8586],[-99.2787,19.8404],[-99.2969,19.8352],[-99.3216,19.7957],[-99.3355,19.7977],[-99.3435,19.7805],[-99.3395,19.7744],[-99.3415,19.7592],[-99.3244,19.7512],[-99.2949,19.7621],[-99.2773,19.754],[-99.2752,19.7698],[-99.2739,19.7986],[-99.2386,19.8061],[-99.2344,19.8231],[-99.2047,19.8086],[-99.1936,19.812],[-99.1771,19.8236],[-99.1737,19.8568]]]},"properties":{"CVE_ENT":"15","CVE_MUN":"035","CVEGEO":"15035","NOMGEO":"Huehuetoca"}},
{"type":"Feature","geometry":{"type":"Polygon","coordinates":[[[-98.8164,19.6183],[-98.8101,19.6148],[-98.7996,19.6154],[-98.7922,19.6115],[-98.754,19.6182],[-98.7473,19.6278],[-98.7199,19.6025],[-98.6997,19.6114],[-98.6815,19.5989],[-98.6698,19.5987],[-98.6662,19.6058],[-98.6617,19.6101],[-98.6726,19.6314],[-98.6677,19.6446],[-98.6708,19.6533],[-98.6701,19.6587],[-98.6597,19.6695],[-98.6734,19.6738],[-98.6895,19.6898],[-98.7244,19.6996],[-98.7411,19.7104],[-98.762,19.7157],[-98.7711,19.695],[-98.7878,19.7066],[-98.8038,19.6856],[-98.7861,19.6839],[-98.7942,19.6653],[-98.8034,19.6595],[-98.8121,19.6638],[-98.8143,19.6603],[-98.8136,19.6596],[-98.8135,19.658],[-98.8121,19.6586],[-98.8093,19.6565],[-98.8076,19.6558],[-98.8066,19.6532],[-98.8083,19.6511],[-98.8101,19.6491],[-98.8143,19.644],[-98.8106,19.6246],[-98.8155,19.62],[-98.8164,19.6183]]]},"properties":{"CVE_ENT":"15","CVE_MUN":"065","CVEGEO":"15065","NOMGEO":"Otumba"}},
{"type":"Feature","geometry":{"type":"Polygon","coordinates":[[[-99.4871,20.1052],[-99.4984,20.1055],[-99.5082,20.1189],[-99.5333,20.1202],[-99.5399,20.1024],[-99.5899,20.1044],[-99.5853,20.0729],[-99.573,20.0454],[-99.5802,20.0275],[-99.5626,20.0276],[-99.5624,20.0126],[-99.5443,20.005],[-99.5225,20.0042],[-99.5065,20.0168],[-99.4897,20.0106],[-99.4909,19.9945],[-99.4587,19.9912],[-99.4445,19.9851],[-99.4368,19.9998],[-99.4407,20.0134],[-99.4484,20.0422],[-99.4598,20.0655],[-99.481,20.0822],[-99.4871,20.1052]]]},"properties":{"CVE_ENT":"15","CVE_MUN":"079","CVEGEO":"15079","NOMGEO":"Soyaniquilpan de Juárez"}},
{"type":"Feature","geometry":{"type":"Polygon","coordinates":[[[-99.1182,20.0293],[-99.1425,20.027],[-99.1586,20.0272],[-99.1614,20.0124],[-99.1772,19.9931],[-99.1969,19.9848],[-99.2154,19.9546],[-99.1802,19.9534],[-99.1613,19.9318],[-99.1461,19.93],[-99.1401,19.9419],[-99.143,19.9586],[-99.1193,19.9691],[-99.0959,19.9865],[-99.0846,20.0109],[-99.1182,20.0293]]]},"properties":{"CVE_ENT":"15","CVE_MUN":"010","CVEGEO":"15010","NOMGEO":"Apaxco"}},
{"type":"Feature","geometry":{"type":"Polygon","coordinates":[[[-99.2396,19.4122],[-99.244,19.4203],[-99.2801,19.4389],[-99.3053,19.4316],[-99.3333,19.4364],[-99.3625,19.4308],[-99.3834,19.4185],[-99.3959,19.4194],[-99.403,19.3833],[-99.404,19.3538],[-99.3819,19.3058],[-99.3564,19.3033],[-99.3338,19.3306],[-99.3264,19.3537],[-99.3078,19.3716],[-99.2956,19.3691],[-99.2558,19.4036],[-99.2396,19.4122]]]},"properties":{"CVE_ENT":"15","CVE_MUN":"037","CVEGEO":"15037","NOMGEO":"Huixquilucan"}},
{"type":"Feature","geometry":{"type":"Polygon","coordinates":[[[-99.3346,19.5795],[-99.3688,19.5828],[-99.4007,19.5775],[-99.4303,19.5685],[-99.4433,19.5715],[-99.468,19.5651],[-99.4842,19.5754],[-99.5165,19.5738],[-99.5244,19.5734],[-99.5224,19.5415],[-99.5008,19.536],[-99.505,19.5259],[-99.4894,19.5115],[-99.4751,19.5111],[-99.4552,19.5289],[-99.3998,19.5525],[-99.3857,19.5408],[-99.368,19.5557],[-99.3543,19.5543],[-99.3362,19.5689],[-99.3346,19.5795]]]},"properties":{"CVE_ENT":"15","CVE_MUN":"038","CVEGEO":"15038","NOMGEO":"Isidro Fabela"}},
{"type":"Feature","geometry":{"type":"Polygon","coordinates":[[[-99.2081,19.7521],[-99.1876,19.7468],[-99.1848,19.7335],[-99.1648,19.7303],[-99.1497,19.7458],[-99.149,19.7656],[-99.1439,19.7666],[-99.1387,19.7657],[-99.1386,19.7663],[-99.1388,19.7677],[-99.139,19.7687],[-99.1393,19.7706],[-99.1416,19.784],[-99.1436,19.7956],[-99.1723,19.7942],[-99.1804,19.7932],[-99.1796,19.7678],[-99.2081,19.7521]]]},"properties":{"CVE_ENT":"15","CVE_MUN":"091","CVEGEO":"15091","NOMGEO":"Teoloyucan"}},
{"type":"Feature","geometry":{"type":"Polygon","coordinates":[[[-98.9758,19.6439],[-99.0042,19.6518],[-99.0053,19.6481],[-99.0084,19.6479],[-99.013,19.6455],[-99.0176,19.64],[-99.0173,19.6394],[-99.0168,19.6387],[-99.0157,19.6366],[-99.0143,19.6343],[-99.0129,19.6318],[-99.0123,19.6307],[-99.0118,19.6298],[-99.01,19.6266],[-99.0249,19.6154],[-99.04,19.6142],[-99.0522,19.6399],[-99.0539,19.6412],[-99.0626,19.659],[-99.0626,19.6591],[-99.0725,19.6571],[-99.0742,19.6368],[-99.0894,19.6102],[-99.0883,19.5892],[-99.1179,19.5906],[-99.1129,19.5733],[-99.0985,19.5712],[-99.097,19.5572],[-99.0885,19.5375],[-99.0802,19.5295],[-99.0907,19.522],[-99.0904,19.5095],[-99.0639,19.4988],[-99.0288,19.4846],[-99.0145,19.4904],[-99.0134,19.5578],[-98.9912,19.5589],[-98.9855,19.5695],[-98.9972,19.5864],[-98.9838,19.6075],[-98.9758,19.6439]]]},"properties":{"CVE_ENT":"15","CVE_MUN":"033","CVEGEO":"15033","NOMGEO":"Ecatepec de Morelos"}},
{"type":"Feature","geometry":{"type":"Polygon","coordinates":[[[-99.8835,19.0052],[-99.8956,19.0197],[-99.902,18.9832],[-99.9327,18.9884],[-99.9589,18.9978],[-99.9956,18.9543],[-100.0132,18.9404],[-99.9971,18.9224],[-99.9912,18.9103],[-100.0089,18.896],[-100.0087,18.8712],[-99.9839,18.8624],[-99.9736,18.8724],[-99.9595,18.8719],[-99.9534,18.8898],[-99.9463,18.8896],[-99.9362,18.9005],[-99.9135,18.9039],[-99.9034,18.913],[-99.8992,18.9174],[-99.8942,18.9134],[-99.8949,18.9221],[-99.892,18.9302],[-99.8738,18.9282],[-99.8609,18.9547],[-99.8554,18.9756],[-99.8826,18.9801],[-99.8835,19.0052]]]},"properties":{"CVE_ENT":"15","CVE_MUN":"097","CVEGEO":"15097","NOMGEO":"Texcaltitlán"}},
{"type":"Feature","geometry":{"type":"Polygon","coordinates":[[[-99.9303,19.5331],[-99.9489,19.5388],[-99.9395,19.5559],[-99.9548,19.5575],[-99.9576,19.5428],[-99.995,19.5495],[-100.0016,19.5566],[-100.0112,19.5559],[-100.0144,19.555],[-100.0222,19.5575],[-100.0309,19.5543],[-100.0355,19.5426],[-100.0581,19.5292],[-100.0715,19.4886],[-100.0952,19.4938],[-100.0914,19.5143],[-100.1317,19.5194],[-100.1323,19.4948],[-100.1514,19.4807],[-100.1452,19.464],[-100.1145,19.4593],[-100.0993,19.4464],[-100.0639,19.4439],[-100.0577,19.4207],[-100.0366,19.3811],[-100.0364,19.3787],[-100.0362,19.3754],[-100.032,19.3609],[-100.0264,19.3489],[-100.0126,19.3451],[-99.9998,19.3328],[-99.9983,19.3269],[-100.0038,19.3138],[-99.9824,19.3328],[-99.9681,19.3167],[-99.9337,19.3055],[-99.9191,19.2927],[-99.9162,19.3053],[-99.9253,19.3383],[-99.9134,19.3743],[-99.9111,19.3985],[-99.867,19.4058],[-99.8533,19.4188],[-99.8611,19.4375],[-99.8926,19.437],[-99.8899,19.4527],[-99.9093,19.4682],[-99.9159,19.4821],[-99.938,19.4885],[-99.9303,19.5331]]]},"properties":{"CVE_ENT":"15","CVE_MUN":"114","CVEGEO":"15114","NOMGEO":"Villa Victoria"}},
{"type":"Feature","geometry":{"type":"Polygon","coordinates":[[[-99.2001,19.7473],[-99.2082,19.7476],[-99.2214,19.7855],[-99.2282,19.7922],[-99.2576,19.775],[-99.2752,19.7698],[-99.2773,19.754],[-99.2949,19.7621],[-99.3244,19.7512],[-99.3415,19.7592],[-99.3395,19.7744],[-99.3435,19.7805],[-99.3446,19.7795],[-99.3454,19.7793],[-99.346,19.7794],[-99.3503,19.7774],[-99.355,19.778],[-99.3551,19.7793],[-99.3571,19.7812],[-99.3674,19.7801],[-99.3706,19.7818],[-99.3725,19.7797],[-99.3739,19.7759],[-99.383,19.7714],[-99.3858,19.7771],[-99.3878,19.7773],[-99.3884,19.775],[-99.3915,19.7739],[-99.3984,19.7677],[-99.3998,19.7684],[-99.4122,19.7456],[-99.4201,19.7164],[-99.4213,19.7102],[-99.4208,19.7048],[-99.4217,19.7033],[-99.4212,19.7004],[-99.4184,19.6996],[-99.4182,19.6985],[-99.4157,19.6987],[-99.4139,19.6983],[-99.411,19.6974],[-99.379,19.6996],[-99.3586,19.7055],[-99.3247,19.6713],[-99.319,19.6452],[-99.3007,19.6486],[-99.2786,19.6628],[-99.271,19.6645],[-99.2709,19.6893],[-99.2574,19.6894],[-99.2196,19.7047],[-99.2071,19.703],[-99.1954,19.7147],[-99.2001,19.7473]]]},"properties":{"CVE_ENT":"15","CVE_MUN":"095","CVEGEO":"15095","NOMGEO":"Tepotzotlán"}},
{"type":"Feature","geometry":{"type":"Polygon","coordinates":[[[-99.7841,19.0715],[-99.8299,19.0744],[-99.8308,19.0536],[-99.8165,19.0415],[-99.8529,19.0301],[-99.852,18.9955],[-99.8835,19.0052],[-99.8826,18.9801],[-99.8554,18.9756],[-99.8609,18.9547],[-99.8738,18.9282],[-99.892,18.9302],[-99.8949,18.9221],[-99.8942,18.9134],[-99.8874,18.9086],[-99.8782,18.9021],[-99.8721,18.8973],[-99.8672,18.8927],[-99.8632,18.8883],[-99.8458,18.9006],[-99.8277,18.8897],[-99.8193,18.8698],[-99.7885,18.8552],[-99.7801,18.8309],[-99.7817,18.8254],[-99.7901,18.8168],[-99.7907,18.8122],[-99.7813,18.8111],[-99.7759,18.806],[-99.7646,18.8035],[-99.7447,18.8103],[-99.7614,18.841],[-99.7483,18.8512],[-99.734,18.8515],[-99.7271,18.8675],[-99.7344,18.8805],[-99.7326,18.9033],[-99.7217,18.9063],[-99.7328,18.9282],[-99.7399,18.9325],[-99.7399,18.942],[-99.7259,18.9512],[-99.7471,18.9734],[-99.749,18.989],[-99.7629,18.9976],[-99.7728,19.027],[-99.7692,19.0357],[-99.7717,19.0652],[-99.7841,19.0715]]]},"properties":{"CVE_ENT":"15","CVE_MUN":"021","CVEGEO":"15021","NOMGEO":"Coatepec Harinas"}},
{"type":"Feature","geometry":{"type":"Polygon","coordinates":[[[-98.8408,19.6356],[-98.8663,19.6575],[-98.8913,19.6493],[-98.9067,19.6615],[-98.918,19.6854],[-98.9315,19.6902],[-98.9426,19.657],[-98.9603,19.6575],[-98.9758,19.6439],[-98.9838,19.6075],[-98.9972,19.5864],[-98.9802,19.5833],[-98.9726,19.5965],[-98.9695,19.6087],[-98.9226,19.6101],[-98.9012,19.605],[-98.8719,19.5988],[-98.8583,19.623],[-98.8408,19.6356]]]},"properties":{"CVE_ENT":"15","CVE_MUN":"002","CVEGEO":"15002","NOMGEO":"Acolman"}}
]}