{"type":"FeatureCollection", "features": [
{"type":"Feature","geometry":{"type":"Polygon","coordinates":[[[-99.396,26.0949],[-99.4758,26.0993],[-99.5581,26.0972],[-99.5871,26.0922],[-99.6065,26.073],[-99.5859,26.0419],[-99.561,25.9941],[-99.5241,25.9972],[-99.4434,25.9927],[-99.4042,26.0054],[-99.396,26.0949]]]},"properties":{"CVE_ENT":"19","CVE_MUN":"035","CVEGEO":"19035","NOMGEO":"Melchor Ocampo"}},
{"type":"Feature","geometry":{"type":"Polygon","coordinates":[[[-99.9477,23.4972],[-99.9835,23.5124],[-99.9789,23.5368],[-99.992,23.5386],[-100.0198,23.5597],[-100.037,23.5272],[-100.1068,23.5516],[-100.1199,23.5665],[-100.1614,23.5728],[-100.1435,23.542],[-100.1896,23.5542],[-100.2511,23.543],[-100.2513,23.5564],[-100.2879,23.5586],[-100.2962,23.5339],[-100.2995,23.4892],[-100.3214,23.4939],[-100.3262,23.4362],[-100.359,23.3925],[-100.3233,23.378],[-100.3369,23.3597],[-100.3414,23.2915],[-100.3317,23.2591],[-100.3063,23.2609],[-100.2784,23.3104],[-100.2202,23.2979],[-100.2064,23.3071],[-100.2282,23.2505],[-100.1355,23.2376],[-100.1038,23.2315],[-100.078,23.306],[-100.145,23.3395],[-100.1207,23.3578],[-100.0803,23.3957],[-100.0472,23.396],[-99.9825,23.3924],[-99.9213,23.3792],[-99.9477,23.4972]]]},"properties":{"CVE_ENT":"19","CVE_MUN":"036","CVEGEO":"19036","NOMGEO":"Mier y Noriega"}},
{"type":"Feature","geometry":{"type":"Polygon","coordinates":[[[-99.4157,26.4382],[-99.4475,26.446],[-99.4653,26.4409],[-99.4624,26.4033],[-99.4755,26.3886],[-99.5779,26.4136],[-99.6109,26.4087],[-99.6104,26.398],[-99.6534,26.3886],[-99.6432,26.3511],[-99.6886,26.3524],[-99.6887,26.3631],[-99.7217,26.3631],[-99.7354,26.3945],[-99.7267,26.4137],[-99.7493,26.4108],[-99.7675,26.3855],[-99.7848,26.3873],[-99.8142,26.367],[-99.8465,26.3773],[-99.9028,26.3778],[-99.9284,26.3872],[-99.9213,26.3538],[-99.9556,26.2388],[-99.9253,26.2375],[-99.933,26.2019],[-99.9276,26.196],[-99.9203,26.187],[-99.8788,26.174],[-99.86,26.1532],[-99.8289,26.1536],[-99.8148,26.1691],[-99.7972,26.1689],[-99.7801,26.1762],[-99.7387,26.1707],[-99.7271,26.1839],[-99.6362,26.2473],[-99.6183,26.2524],[-99.6076,26.2376],[-99.5895,26.2353],[-99.5452,26.2362],[-99.4902,26.2746],[-99.4626,26.2663],[-99.4651,26.3131],[-99.4097,26.317],[-99.4309,26.3513],[-99.4157,26.4382]]]},"properties":{"CVE_ENT":"19","CVE_MUN":"002","CVEGEO":"19002","NOMGEO":"Agualeguas"}},
{"type":"Feature","geometry":{"type":"Polygon","coordinates":[[[-99.189,25.9053],[-99.1903,25.8963],[-99.2163,25.892],[-99.245,25.8959],[-99.2679,25.9155],[-99.2816,25.9048],[-99.2814,25.842],[-99.2756,25.8381],[-99.3601,25.7828],[-99.4144,25.8454],[-99.4586,25.8388],[-99.4188,25.7894],[-99.4018,25.7716],[-99.4026,25.7617],[-99.4261,25.7537],[-99.4415,25.743],[-99.419,25.7148],[-99.4612,25.6882],[-99.4139,25.6232],[-99.4212,25.6004],[-99.4318,25.5392],[-99.4178,25.5314],[-99.4117,25.4997],[-99.4246,25.5008],[-99.4242,25.4768],[-99.386,25.4949],[-99.3573,25.478],[-99.367,25.4641],[-99.3406,25.4524],[-99.3236,25.4375],[-99.3264,25.4303],[-99.3109,25.4016],[-99.2795,25.401],[-99.278,25.4174],[-99.2586,25.4245],[-99.2233,25.402],[-99.2312,25.3959],[-99.2237,25.3777],[-99.1908,25.3752],[-99.1834,25.3663],[-99.1669,25.3828],[-99.1131,25.3283],[-99.092,25.336],[-99.0817,25.3235],[-99.0569,25.26],[-99.0356,25.2663],[-99.0224,25.2147],[-99.0726,25.214],[-99.0512,25.1946],[-99.052,25.1829],[-99.0695,25.1728],[-99.0336,25.1351],[-99.036,25.1203],[-99.0295,25.0964],[-99.0157,25.0861],[-99.0222,25.0736],[-98.9688,25.0705],[-98.9554,25.076],[-98.9342,25.0728],[-98.8638,25.1271],[-98.6939,25.2512],[-98.4984,25.3937],[-98.4231,25.4475],[-98.4216,25.4894],[-98.4333,25.4894],[-98.5818,25.4894],[-98.5804,25.6373],[-98.5814,25.706],[-98.6308,25.7129],[-98.6688,25.7052],[-98.6736,25.7202],[-98.6911,25.7197],[-98.6905,25.6553],[-98.7299,25.6395],[-98.7337,25.6294],[-98.7781,25.6375],[-98.7812,25.6529],[-98.8164,25.6521],[-98.8376,25.6271],[-98.8712,25.6288],[-98.8899,25.6088],[-98.9243,25.6172],[-98.9363,25.601],[-98.9911,25.6513],[-99.0185,25.6242],[-99.0683,25.6478],[-99.1486,25.6708],[-99.1585,25.6803],[-99.1807,25.7214],[-99.1927,25.7495],[-99.2089,25.773],[-99.2078,25.7881],[-99.1825,25.7983],[-99.1855,25.8684],[-99.189,25.9053]]]},"properties":{"CVE_ENT":"19","CVE_MUN":"013","CVEGEO":"19013","NOMGEO":"China"}},
{"type":"Feature","geometry":{"type":"Polygon","coordinates":[[[-100.187,24.2637],[-100.1877,24.3027],[-100.2008,24.2897],[-100.2572,24.318],[-100.2735,24.2546],[-100.3152,24.3158],[-100.3482,24.3116],[-100.3647,24.3325],[-100.4052,24.3718],[-100.4327,24.4397],[-100.4469,24.4388],[-100.444,24.4217],[-100.4961,24.41],[-100.5042,24.4564],[-100.5219,24.4469],[-100.5517,24.4388],[-100.6035,24.4013],[-100.5999,24.3488],[-100.6331,24.226],[-100.5851,24.2239],[-100.5935,24.1782],[-100.6134,24.1739],[-100.5496,24.1483],[-100.5168,24.1399],[-100.5196,24.1184],[-100.5387,24.1185],[-100.5238,24.0715],[-100.5413,24.0257],[-100.5624,23.9196],[-100.5468,23.9174],[-100.5494,23.8893],[-100.5398,23.8884],[-100.5503,23.8422],[-100.5255,23.8395],[-100.5286,23.8175],[-100.4976,23.7987],[-100.4977,23.7363],[-100.4903,23.7396],[-100.4741,23.7068],[-100.462,23.6946],[-100.4471,23.6965],[-100.4457,23.6773],[-100.4774,23.6338],[-100.4866,23.6041],[-100.4916,23.5686],[-100.4695,23.5668],[-100.4675,23.5436],[-100.4591,23.5332],[-100.4644,23.5121],[-100.4942,23.5284],[-100.4976,23.494],[-100.5172,23.421],[-100.514,23.4156],[-100.4571,23.3664],[-100.4836,23.214],[-100.4798,23.1944],[-100.3503,23.1657],[-100.3318,23.1627],[-100.3235,23.1956],[-100.3638,23.189],[-100.3743,23.2653],[-100.3317,23.2591],[-100.3414,23.2915],[-100.3369,23.3597],[-100.3233,23.378],[-100.359,23.3925],[-100.3262,23.4362],[-100.3214,23.4939],[-100.2995,23.4892],[-100.2962,23.5339],[-100.2879,23.5586],[-100.2513,23.5564],[-100.2511,23.543],[-100.1896,23.5542],[-100.1435,23.542],[-100.1614,23.5728],[-100.1199,23.5665],[-100.1068,23.5516],[-100.037,23.5272],[-100.0198,23.5597],[-99.992,23.5386],[-99.9789,23.5368],[-99.9835,23.5124],[-99.9477,23.4972],[-99.9612,23.5569],[-99.9158,23.6651],[-99.8911,23.7038],[-99.8828,23.7236],[-99.9103,23.7854],[-99.945,23.7879],[-99.9423,23.838],[-99.9722,23.8401],[-99.9648,23.857],[-100.0304,23.8852],[-100.0243,23.8944],[-100.0178,23.9421],[-100.0619,23.9395],[-100.0635,23.9604],[-100.1026,23.9577],[-100.1038,23.9734],[-100.121,23.9722],[-100.1202,24.0313],[-100.1035,24.0354],[-100.101,24.0544],[-100.1131,24.0554],[-100.1708,24.0755],[-100.154,24.0948],[-100.1939,24.1203],[-100.1939,24.133],[-100.1662,24.1598],[-100.2032,24.2123],[-100.2161,24.2492],[-100.1871,24.2472],[-100.187,24.2637]]]},"properties":{"CVE_ENT":"19","CVE_MUN":"014","CVEGEO":"19014","NOMGEO":"Doctor Arroyo"}},
{"type":"Feature","geometry":{"type":"Polygon","coordinates":[[[-100.0026,26.914],[-100.0023,26.924],[-100.0192,26.9562],[-100.0003,26.9856],[-99.96,27.0071],[-100.0131,27.022],[-100.0234,27.0114],[-100.0459,27.0107],[-100.0599,27.0214],[-100.0889,27.0107],[-100.0908,27.0289],[-100.1213,27.0289],[-100.1213,27.065],[-100.101,27.065],[-100.101,27.1011],[-100.1213,27.1011],[-100.1215,27.1372],[-100.1719,27.1372],[-100.1719,27.1823],[-100.1819,27.1823],[-100.182,27.2184],[-100.2528,27.2184],[-100.2528,27.2455],[-100.2831,27.2454],[-100.3199,27.2783],[-100.3298,27.2944],[-100.3502,27.3005],[-100.3789,27.321],[-100.386,27.3353],[-100.3997,27.3401],[-100.3986,27.3558],[-100.3861,27.3715],[-100.4219,27.3927],[-100.4227,27.3925],[-100.678,27.3348],[-100.8341,27.1952],[-100.8306,27.0739],[-100.8149,27.0711],[-100.7994,27.0458],[-100.7842,27.0589],[-100.7627,27.0626],[-100.7409,27.0411],[-100.736,27.0492],[-100.7468,27.0643],[-100.7486,27.0813],[-100.7247,27.0779],[-100.7093,27.0988],[-100.6946,27.1098],[-100.6768,27.1069],[-100.6748,27.0865],[-100.6537,27.0757],[-100.5398,27.0474],[-100.536,27.0254],[-100.5406,27.0149],[-100.5397,26.9867],[-100.545,26.9798],[-100.5382,26.9397],[-100.5449,26.9253],[-100.5384,26.9061],[-100.5407,26.881],[-100.5514,26.8587],[-100.5456,26.8414],[-100.5418,26.806],[-100.5901,26.7595],[-100.6013,26.7371],[-100.608,26.7109],[-100.5239,26.6809],[-100.4909,26.6715],[-100.4876,26.6322],[-100.4671,26.641],[-100.3907,26.6733],[-100.3658,26.675],[-100.336,26.6697],[-100.3446,26.6934],[-100.345,26.717],[-100.3584,26.7438],[-100.366,26.7884],[-100.3052,26.7901],[-100.3048,26.8091],[-100.327,26.8536],[-100.3005,26.8471],[-100.2797,26.8856],[-100.2722,26.9129],[-100.2526,26.9085],[-100.2509,26.8823],[-100.1702,26.872],[-100.1376,26.8106],[-100.1489,26.7974],[-100.0881,26.7992],[-100.0979,26.8187],[-100.0979,26.837],[-100.0834,26.8498],[-100.0674,26.8398],[-100.024,26.8683],[-100.0237,26.8881],[-100.0494,26.9058],[-100.0209,26.9073],[-100.0026,26.914]]]},"properties":{"CVE_ENT":"19","CVE_MUN":"032","CVEGEO":"19032","NOMGEO":"Lampazos de Naranjo"}},
{"type":"Feature","geometry":{"type":"Polygon","coordinates":[[[-100.3713,25.9822],[-100.3998,25.9891],[-100.4225,25.9576],[-100.4511,25.9312],[-100.4335,25.9192],[-100.4276,25.8957],[-100.4258,25.8934],[-100.4065,25.8911],[-100.3805,25.9285],[-100.3713,25.9822]]]},"properties":{"CVE_ENT":"19","CVE_MUN":"001","CVEGEO":"19001","NOMGEO":"Abasolo"}},
{"type":"Feature","geometry":{"type":"Polygon","coordinates":[[[-99.9901,25.6823],[-99.9983,25.6908],[-100.0729,25.7005],[-100.1068,25.7014],[-100.1164,25.7032],[-100.1172,25.6966],[-100.1252,25.6752],[-100.1319,25.6691],[-100.2087,25.6208],[-100.2421,25.6248],[-100.2432,25.617],[-100.2164,25.5812],[-100.1953,25.5462],[-100.1857,25.5387],[-100.1838,25.5367],[-100.1788,25.5303],[-100.1625,25.525],[-100.1353,25.5365],[-100.1019,25.5141],[-100.0806,25.5154],[-100.0773,25.5339],[-100.1107,25.5648],[-100.0979,25.5699],[-100.1044,25.5845],[-100.0837,25.6068],[-100.0628,25.6114],[-100.057,25.6269],[-100.0402,25.6377],[-100.0643,25.6526],[-100.0559,25.6614],[-100.009,25.6522],[-99.9901,25.6823]]]},"properties":{"CVE_ENT":"19","CVE_MUN":"031","CVEGEO":"19031","NOMGEO":"Juárez"}},
{"type":"Feature","geometry":{"type":"Polygon","coordinates":[[[-98.8459,26.0245],[-98.9008,25.9683],[-99.0239,26.1041],[-99.0621,26.091],[-99.0625,26.0801],[-99.0901,26.0698],[-99.1103,26.0783],[-99.129,26.0534],[-99.1605,26.0616],[-99.167,26.0755],[-99.188,26.0754],[-99.1981,26.0244],[-99.1858,25.9857],[-99.1724,25.9798],[-99.1885,25.9586],[-99.1825,25.9346],[-99.189,25.9053],[-99.1855,25.8684],[-99.0073,25.8385],[-98.7916,25.9752],[-98.7924,26.0321],[-98.8459,26.0245]]]},"properties":{"CVE_ENT":"19","CVE_MUN":"015","CVEGEO":"19015","NOMGEO":"Doctor Coss"}},
{"type":"Feature","geometry":{"type":"Polygon","coordinates":[[[-100.1711,25.2238],[-100.2101,25.2695],[-100.2438,25.2697],[-100.2625,25.254],[-100.2344,25.2355],[-100.2296,25.2179],[-100.2614,25.2071],[-100.3053,25.2134],[-100.3256,25.2223],[-100.332,25.1863],[-100.3229,25.1707],[-100.2978,25.1526],[-100.2535,25.1306],[-100.2721,25.1098],[-100.2447,25.0815],[-100.2389,25.0653],[-100.2265,25.0616],[-100.2003,25.0205],[-100.1597,25.0136],[-100.1296,24.9442],[-100.0819,24.911],[-100.0658,24.8899],[-99.9899,24.9041],[-99.9683,24.8804],[-99.9619,24.8945],[-99.9381,24.8977],[-99.9368,24.9138],[-99.9466,24.9198],[-99.9916,25.0601],[-99.9853,25.07],[-100.0005,25.0794],[-100.0238,25.0694],[-100.0412,25.0696],[-100.0525,25.081],[-100.0569,25.0989],[-100.0703,25.1144],[-100.0965,25.0966],[-100.0954,25.1149],[-100.11,25.1279],[-100.1568,25.1905],[-100.156,25.202],[-100.1711,25.2238]]]},"properties":{"CVE_ENT":"19","CVE_MUN":"043","CVEGEO":"19043","NOMGEO":"Rayones"}},
{"type":"Feature","geometry":{"type":"Polygon","coordinates":[[[-100.4416,25.7205],[-100.4766,25.7319],[-100.5069,25.75],[-100.534,25.728],[-100.5495,25.7101],[-100.5672,25.7022],[-100.5757,25.7192],[-100.5919,25.7221],[-100.6025,25.7044],[-100.6473,25.6916],[-100.6695,25.6622],[-100.7091,25.6584],[-100.6999,25.6388],[-100.7234,25.627],[-100.7298,25.6339],[-100.7199,25.6031],[-100.6903,25.5671],[-100.6329,25.5713],[-100.612,25.5514],[-100.5963,25.5445],[-100.5384,25.5319],[-100.5297,25.5144],[-100.5998,25.52],[-100.6086,25.5134],[-100.6191,25.5057],[-100.5795,25.4945],[-100.5849,25.4708],[-100.561,25.4645],[-100.5309,25.4635],[-100.4694,25.4483],[-100.4577,25.4379],[-100.4255,25.4358],[-100.4036,25.469],[-100.3867,25.4558],[-100.345,25.4357],[-100.3246,25.4295],[-100.2961,25.4135],[-100.2387,25.4295],[-100.2499,25.4453],[-100.2576,25.4821],[-100.2781,25.5195],[-100.3183,25.5472],[-100.317,25.5718],[-100.3441,25.5898],[-100.4257,25.6384],[-100.416,25.6913],[-100.4223,25.6952],[-100.4238,25.701],[-100.4275,25.7157],[-100.4416,25.7205]]]},"properties":{"CVE_ENT":"19","CVE_MUN":"048","CVEGEO":"19048","NOMGEO":"Santa Catarina"}},
{"type":"Feature","geometry":{"type":"Polygon","coordinates":[[[-100.3696,25.9821],[-100.3716,26.0062],[-100.3847,26.0253],[-100.4323,26.0653],[-100.4858,26.093],[-100.5174,26.114],[-100.5395,26.1079],[-100.5383,26.0999],[-100.505,26.0687],[-100.4741,26.0478],[-100.4581,26.0323],[-100.475,26.0244],[-100.485,25.9863],[-100.5031,25.9516],[-100.4978,25.9028],[-100.4685,25.8983],[-100.443,25.8924],[-100.4276,25.8957],[-100.4335,25.9192],[-100.4511,25.9312],[-100.4225,25.9576],[-100.3998,25.9891],[-100.3713,25.9822],[-100.3696,25.9821]]]},"properties":{"CVE_ENT":"19","CVE_MUN":"047","CVEGEO":"19047","NOMGEO":"Hidalgo"}},
{"type":"Feature","geometry":{"type":"Polygon","coordinates":[[[-99.4004,26.5501],[-99.3968,26.5966],[-99.5383,26.6646],[-99.6592,26.6704],[-99.663,26.6842],[-99.6511,26.7014],[-99.6181,26.7283],[-99.6161,26.7544],[-99.6226,26.7669],[-99.6107,26.7852],[-99.6035,26.8081],[-99.5912,26.8135],[-99.5809,26.8293],[-99.5899,26.8612],[-99.6252,26.8828],[-99.6454,26.886],[-99.6628,26.9008],[-99.6789,26.8958],[-99.714,26.8423],[-99.6834,26.8246],[-99.7047,26.7934],[-99.7227,26.782],[-99.7496,26.7343],[-99.7783,26.7447],[-99.8015,26.6907],[-99.7342,26.6719],[-99.7079,26.5983],[-99.6903,26.5999],[-99.6886,26.5796],[-99.713,26.5701],[-99.7192,26.542],[-99.7244,26.471],[-99.72,26.4431],[-99.7306,26.4301],[-99.7267,26.4137],[-99.7354,26.3945],[-99.7217,26.3631],[-99.6887,26.3631],[-99.6886,26.3524],[-99.6432,26.3511],[-99.6534,26.3886],[-99.6104,26.398],[-99.6109,26.4087],[-99.5779,26.4136],[-99.4755,26.3886],[-99.4624,26.4033],[-99.4653,26.4409],[-99.4475,26.446],[-99.4157,26.4382],[-99.4098,26.4428],[-99.4004,26.5501]]]},"properties":{"CVE_ENT":"19","CVE_MUN":"040","CVEGEO":"19040","NOMGEO":"Parás"}},
{"type":"Feature","geometry":{"type":"Polygon","coordinates":[[[-100.6961,26.6234],[-100.753,26.7352],[-100.9051,26.6086],[-100.9838,26.5456],[-101.0789,26.4693],[-101.2068,26.3698],[-101.1854,26.3454],[-101.1045,26.2616],[-101.0917,26.2445],[-101.0746,26.199],[-101.0474,26.1698],[-101.0089,26.1538],[-100.9827,26.1395],[-100.9429,26.0868],[-100.9164,26.0756],[-100.9046,26.0087],[-100.9055,25.9569],[-100.8769,25.9472],[-100.8344,25.945],[-100.8162,25.94],[-100.775,25.9502],[-100.7539,25.9604],[-100.7374,25.9835],[-100.7204,25.9447],[-100.6657,25.9519],[-100.6174,25.9671],[-100.612,25.9477],[-100.6117,25.8632],[-100.6005,25.8733],[-100.5812,25.8788],[-100.5236,25.9059],[-100.4978,25.9028],[-100.5031,25.9516],[-100.485,25.9863],[-100.475,26.0244],[-100.4581,26.0323],[-100.4741,26.0478],[-100.505,26.0687],[-100.5383,26.0999],[-100.5395,26.1079],[-100.5649,26.1233],[-100.522,26.2104],[-100.4998,26.2123],[-100.4642,26.2562],[-100.4488,26.2591],[-100.4519,26.2806],[-100.4757,26.3238],[-100.4714,26.3424],[-100.4811,26.3461],[-100.5037,26.3688],[-100.4959,26.3815],[-100.515,26.4133],[-100.5146,26.4333],[-100.6237,26.4319],[-100.6138,26.4567],[-100.619,26.4993],[-100.6098,26.524],[-100.6369,26.5214],[-100.6403,26.5418],[-100.6551,26.5676],[-100.6766,26.5876],[-100.6918,26.61],[-100.6961,26.6234]]]},"properties":{"CVE_ENT":"19","CVE_MUN":"037","CVEGEO":"19037","NOMGEO":"Mina"}},
{"type":"Feature","geometry":{"type":"Polygon","coordinates":[[[-99.3803,26.0939],[-99.396,26.0949],[-99.4042,26.0054],[-99.4434,25.9927],[-99.5241,25.9972],[-99.561,25.9941],[-99.5218,25.9228],[-99.538,25.9128],[-99.5387,25.9016],[-99.5386,25.8589],[-99.5537,25.8492],[-99.5605,25.8312],[-99.5039,25.8469],[-99.4904,25.8164],[-99.4586,25.8388],[-99.4144,25.8454],[-99.3601,25.7828],[-99.2756,25.8381],[-99.2814,25.842],[-99.2816,25.9048],[-99.2982,25.8994],[-99.3088,25.9219],[-99.3323,25.9144],[-99.3359,25.9388],[-99.3343,25.9935],[-99.3803,26.0939]]]},"properties":{"CVE_ENT":"19","CVE_MUN":"027","CVEGEO":"19027","NOMGEO":"Los Herreras"}},
{"type":"Feature","geometry":{"type":"Polygon","coordinates":[[[-98.7364,26.0368],[-98.8232,26.0476],[-98.8459,26.0245],[-98.7924,26.0321],[-98.7916,25.9752],[-99.0073,25.8385],[-99.1855,25.8684],[-99.1825,25.7983],[-99.2078,25.7881],[-99.2089,25.773],[-99.1927,25.7495],[-99.1807,25.7214],[-99.1585,25.6803],[-99.1486,25.6708],[-99.0683,25.6478],[-99.0185,25.6242],[-98.9911,25.6513],[-98.9363,25.601],[-98.9243,25.6172],[-98.8899,25.6088],[-98.8712,25.6288],[-98.8376,25.6271],[-98.8164,25.6521],[-98.7812,25.6529],[-98.7781,25.6375],[-98.7337,25.6294],[-98.7299,25.6395],[-98.6905,25.6553],[-98.6911,25.7197],[-98.6736,25.7202],[-98.6688,25.7052],[-98.6308,25.7129],[-98.5814,25.706],[-98.5851,26.0179],[-98.7364,26.0368]]]},"properties":{"CVE_ENT":"19","CVE_MUN":"020","CVEGEO":"19020","NOMGEO":"General Bravo"}},
{"type":"Feature","geometry":{"type":"Polygon","coordinates":[[[-99.8432,27.7699],[-99.9327,27.6744],[-99.9988,27.6153],[-100.0161,27.6327],[-100.1884,27.7991],[-100.2862,27.7309],[-100.3506,27.6846],[-100.4177,27.3936],[-100.4219,27.3927],[-100.3861,27.3715],[-100.3986,27.3558],[-100.3997,27.3401],[-100.386,27.3353],[-100.3789,27.321],[-100.3502,27.3005],[-100.3298,27.2944],[-100.3199,27.2783],[-100.2831,27.2454],[-100.2528,27.2455],[-100.2528,27.2184],[-100.182,27.2184],[-100.1819,27.1823],[-100.1719,27.1823],[-100.1719,27.1372],[-100.1215,27.1372],[-100.1213,27.1011],[-100.101,27.1011],[-100.101,27.065],[-100.1213,27.065],[-100.1213,27.0289],[-100.0908,27.0289],[-100.0889,27.0107],[-100.0599,27.0214],[-100.0459,27.0107],[-100.0234,27.0114],[-100.0131,27.022],[-99.96,27.0071],[-100.0003,26.9856],[-100.0192,26.9562],[-100.0023,26.924],[-100.0026,26.914],[-99.9687,26.8464],[-99.9361,26.8738],[-99.9292,26.8583],[-99.869,26.8824],[-99.8475,26.8788],[-99.8288,26.8889],[-99.8104,26.8863],[-99.7812,26.8937],[-99.7667,26.8898],[-99.7701,26.9284],[-99.7342,26.9206],[-99.6501,27.0659],[-99.6589,27.0882],[-99.6789,27.1024],[-99.7477,27.2772],[-99.7488,27.289],[-99.7586,27.3896],[-99.7604,27.437],[-99.9192,27.4915],[-99.9264,27.5492],[-99.7281,27.6791],[-99.775,27.7336],[-99.7891,27.731],[-99.8018,27.7424],[-99.8117,27.7722],[-99.8328,27.7627],[-99.8432,27.7699]]]},"properties":{"CVE_ENT":"19","CVE_MUN":"005","CVEGEO":"19005","NOMGEO":"Anáhuac"}},
{"type":"Feature","geometry":{"type":"Polygon","coordinates":[[[-100.3441,25.5898],[-100.3129,25.647],[-100.3635,25.6711],[-100.38,25.6677],[-100.3976,25.6746],[-100.3977,25.6945],[-100.4037,25.7025],[-100.4114,25.7076],[-100.4156,25.7095],[-100.4189,25.7102],[-100.4275,25.7157],[-100.4238,25.701],[-100.4223,25.6952],[-100.416,25.6913],[-100.4257,25.6384],[-100.3441,25.5898]]]},"properties":{"CVE_ENT":"19","CVE_MUN":"019","CVEGEO":"19019","NOMGEO":"San Pedro Garza García"}},
{"type":"Feature","geometry":{"type":"Polygon","coordinates":[[[-100.1042,25.8315],[-100.1147,25.8365],[-100.1319,25.8211],[-100.1012,25.8004],[-100.101,25.7784],[-100.1128,25.7596],[-100.1486,25.7311],[-100.1243,25.7346],[-100.1242,25.717],[-100.115,25.7157],[-100.1068,25.7014],[-100.0729,25.7005],[-99.9983,25.6908],[-99.9901,25.6823],[-99.971,25.6797],[-99.959,25.6914],[-99.9309,25.6948],[-99.9105,25.6866],[-99.8994,25.6919],[-99.8721,25.685],[-99.8495,25.685],[-99.8467,25.6734],[-99.8205,25.6591],[-99.8088,25.6722],[-99.7821,25.6714],[-99.7666,25.6952],[-99.7792,25.711],[-99.7982,25.7248],[-99.8302,25.7395],[-99.8822,25.7479],[-99.8966,25.7524],[-99.9329,25.7522],[-99.9644,25.7656],[-99.9794,25.765],[-99.99,25.7747],[-99.9921,25.798],[-100.0169,25.8029],[-100.0313,25.8168],[-100.0591,25.8156],[-100.1042,25.8315]]]},"properties":{"CVE_ENT":"19","CVE_MUN":"041","CVEGEO":"19041","NOMGEO":"Pesquería"}},
{"type":"Feature","geometry":{"type":"Polygon","coordinates":[[[-100.4671,26.641],[-100.4876,26.6322],[-100.4909,26.6715],[-100.5239,26.6809],[-100.608,26.7109],[-100.6144,26.6856],[-100.6912,26.6138],[-100.6961,26.6234],[-100.6918,26.61],[-100.6766,26.5876],[-100.6551,26.5676],[-100.6403,26.5418],[-100.6369,26.5214],[-100.6098,26.524],[-100.619,26.4993],[-100.6138,26.4567],[-100.6237,26.4319],[-100.5146,26.4333],[-100.5212,26.4432],[-100.5015,26.486],[-100.4392,26.5131],[-100.457,26.5254],[-100.4815,26.5716],[-100.4411,26.5848],[-100.4671,26.641]]]},"properties":{"CVE_ENT":"19","CVE_MUN":"008","CVEGEO":"19008","NOMGEO":"Bustamante"}},
{"type":"Feature","geometry":{"type":"Polygon","coordinates":[[[-100.1172,25.6966],[-100.1231,25.6941],[-100.1315,25.7006],[-100.1739,25.7088],[-100.1846,25.713],[-100.1784,25.7294],[-100.2069,25.7318],[-100.2038,25.7182],[-100.2618,25.7012],[-100.2618,25.6837],[-100.2759,25.6763],[-100.2698,25.661],[-100.2743,25.647],[-100.2695,25.6215],[-100.2421,25.6248],[-100.2087,25.6208],[-100.1319,25.6691],[-100.1252,25.6752],[-100.1172,25.6966]]]},"properties":{"CVE_ENT":"19","CVE_MUN":"026","CVEGEO":"19026","NOMGEO":"Guadalupe"}},
{"type":"Feature","geometry":{"type":"Polygon","coordinates":[[[-100.1877,26.3279],[-100.2001,26.3665],[-100.1978,26.3928],[-100.2183,26.4073],[-100.2271,26.4451],[-100.2428,26.4573],[-100.2243,26.4824],[-100.2287,26.5014],[-100.2496,26.504],[-100.2582,26.5208],[-100.2648,26.5646],[-100.2792,26.6041],[-100.2909,26.6231],[-100.3306,26.6307],[-100.3318,26.6498],[-100.3196,26.6643],[-100.3297,26.694],[-100.3446,26.6934],[-100.336,26.6697],[-100.3658,26.675],[-100.3907,26.6733],[-100.4671,26.641],[-100.4411,26.5848],[-100.4815,26.5716],[-100.457,26.5254],[-100.4392,26.5131],[-100.5015,26.486],[-100.5212,26.4432],[-100.5146,26.4333],[-100.515,26.4133],[-100.4959,26.3815],[-100.5037,26.3688],[-100.4811,26.3461],[-100.454,26.3688],[-100.4493,26.3855],[-100.4339,26.3937],[-100.4059,26.3901],[-100.3932,26.3952],[-100.3883,26.3607],[-100.3566,26.3644],[-100.3485,26.3406],[-100.3321,26.3227],[-100.3094,26.3122],[-100.298,26.2967],[-100.2899,26.2721],[-100.248,26.2719],[-100.2328,26.2624],[-100.2011,26.285],[-100.1903,26.2855],[-100.1849,26.3091],[-100.1877,26.3279]]]},"properties":{"CVE_ENT":"19","CVE_MUN":"051","CVEGEO":"19051","NOMGEO":"Villaldama"}},
{"type":"Feature","geometry":{"type":"Polygon","coordinates":[[[-99.6173,24.464],[-99.6364,24.5067],[-99.7198,24.4837],[-99.7103,24.4421],[-99.743,24.4193],[-99.744,24.3917],[-99.7625,24.3902],[-99.7751,24.4105],[-99.7923,24.4067],[-99.8085,24.4464],[-99.8478,24.4856],[-99.8548,24.501],[-99.8942,24.4702],[-99.8887,24.4541],[-99.9087,24.448],[-99.9161,24.4608],[-99.9574,24.4629],[-99.9743,24.4745],[-99.9939,24.465],[-99.9981,24.4545],[-100.0235,24.4595],[-100.0613,24.4557],[-100.0766,24.4421],[-100.0911,24.4525],[-100.067,24.3538],[-100.0735,24.3098],[-100.1061,24.2993],[-100.1152,24.3103],[-100.1535,24.2988],[-100.1738,24.2828],[-100.1695,24.2633],[-100.187,24.2637],[-100.1871,24.2472],[-100.2161,24.2492],[-100.2032,24.2123],[-100.1662,24.1598],[-100.1939,24.133],[-100.1939,24.1203],[-100.154,24.0948],[-100.1708,24.0755],[-100.1131,24.0554],[-100.101,24.0544],[-100.1035,24.0354],[-100.1202,24.0313],[-100.121,23.9722],[-100.1038,23.9734],[-100.1026,23.9577],[-100.0635,23.9604],[-100.0619,23.9395],[-100.0178,23.9421],[-100.0086,23.9426],[-99.9855,23.9909],[-99.9728,24.0051],[-99.9182,24.0025],[-99.8782,24.0172],[-99.8675,23.9977],[-99.8015,24.0111],[-99.7807,24.0101],[-99.7748,23.9945],[-99.758,23.9889],[-99.7491,23.9971],[-99.755,24.0114],[-99.7429,24.0288],[-99.7208,24.0277],[-99.6759,24.0389],[-99.5808,24.037],[-99.5709,24.0394],[-99.6571,24.118],[-99.6493,24.207],[-99.6202,24.2784],[-99.5943,24.3309],[-99.5893,24.3508],[-99.5899,24.3961],[-99.6173,24.464]]]},"properties":{"CVE_ENT":"19","CVE_MUN":"007","CVEGEO":"19007","NOMGEO":"Aramberri"}},
{"type":"Feature","geometry":{"type":"Polygon","coordinates":[[[-99.6789,26.8958],[-99.6916,26.9086],[-99.7396,26.9075],[-99.7667,26.8898],[-99.7812,26.8937],[-99.8104,26.8863],[-99.8288,26.8889],[-99.8475,26.8788],[-99.869,26.8824],[-99.9292,26.8583],[-99.9361,26.8738],[-99.9687,26.8464],[-100.0026,26.914],[-100.0209,26.9073],[-100.0494,26.9058],[-100.0237,26.8881],[-100.024,26.8683],[-100.0674,26.8398],[-100.0834,26.8498],[-100.0979,26.837],[-100.0979,26.8187],[-100.0881,26.7992],[-100.0777,26.7852],[-100.0875,26.7667],[-100.0784,26.7544],[-100.0589,26.7421],[-100.0578,26.7124],[-100.0373,26.6736],[-100.1014,26.6357],[-100.086,26.6283],[-100.0592,26.5996],[-100.0377,26.5881],[-100.0465,26.5573],[-100.0204,26.5547],[-100.0153,26.5422],[-100.0267,26.4989],[-100.0308,26.4698],[-100.0095,26.4672],[-99.9785,26.4412],[-99.989,26.4182],[-99.9684,26.3932],[-99.9284,26.3872],[-99.9028,26.3778],[-99.8465,26.3773],[-99.8142,26.367],[-99.7848,26.3873],[-99.7675,26.3855],[-99.7493,26.4108],[-99.7267,26.4137],[-99.7306,26.4301],[-99.72,26.4431],[-99.7244,26.471],[-99.7192,26.542],[-99.713,26.5701],[-99.6886,26.5796],[-99.6903,26.5999],[-99.7079,26.5983],[-99.7342,26.6719],[-99.8015,26.6907],[-99.7783,26.7447],[-99.7496,26.7343],[-99.7227,26.782],[-99.7047,26.7934],[-99.6834,26.8246],[-99.714,26.8423],[-99.6789,26.8958]]]},"properties":{"CVE_ENT":"19","CVE_MUN":"050","CVEGEO":"19050","NOMGEO":"Vallecillo"}},
{"type":"Feature","geometry":{"type":"Polygon","coordinates":[[[-100.1674,25.5169],[-100.1832,25.5197],[-100.1916,25.5205],[-100.202,25.5167],[-100.2136,25.5066],[-100.2576,25.4821],[-100.2499,25.4453],[-100.2387,25.4295],[-100.2961,25.4135],[-100.3246,25.4295],[-100.345,25.4357],[-100.3867,25.4558],[-100.4036,25.469],[-100.4255,25.4358],[-100.4577,25.4379],[-100.4694,25.4483],[-100.5309,25.4635],[-100.5227,25.4343],[-100.5017,25.4328],[-100.4693,25.4217],[-100.452,25.4081],[-100.4701,25.3378],[-100.446,25.3319],[-100.3946,25.3279],[-100.3268,25.3404],[-100.2816,25.3197],[-100.264,25.3053],[-100.2541,25.3069],[-100.2438,25.2697],[-100.2101,25.2695],[-100.1711,25.2238],[-100.1329,25.2598],[-100.0872,25.2383],[-100.1397,25.3003],[-100.0763,25.3361],[-100.0582,25.3615],[-100.0624,25.3766],[-100.076,25.3943],[-100.0511,25.41],[-100.0599,25.4177],[-100.0374,25.448],[-100.0696,25.4706],[-100.0969,25.5032],[-100.1314,25.4702],[-100.1674,25.5169]]]},"properties":{"CVE_ENT":"19","CVE_MUN":"049","CVEGEO":"19049","NOMGEO":"Santiago"}},
{"type":"Feature","geometry":{"type":"Polygon","coordinates":[[[-99.8023,25.9957],[-99.8161,26.018],[-99.8507,26.021],[-99.8615,26.0089],[-99.8843,26.0202],[-99.8906,26.0143],[-99.8802,25.9945],[-99.8985,25.9712],[-99.9142,25.9584],[-99.9149,25.9445],[-99.9353,25.9171],[-99.9515,25.9052],[-99.9978,25.92],[-100.0649,25.918],[-100.0609,25.9125],[-100.0688,25.8808],[-100.097,25.8539],[-100.1042,25.8315],[-100.0591,25.8156],[-100.0313,25.8168],[-100.0169,25.8029],[-99.9921,25.798],[-99.99,25.7747],[-99.9794,25.765],[-99.9644,25.7656],[-99.9329,25.7522],[-99.8966,25.7524],[-99.8822,25.7479],[-99.9001,25.7635],[-99.8926,25.7883],[-99.9011,25.8033],[-99.919,25.8054],[-99.9472,25.8325],[-99.9692,25.8383],[-99.979,25.8914],[-99.9498,25.8863],[-99.9442,25.8915],[-99.8023,25.9957]]]},"properties":{"CVE_ENT":"19","CVE_MUN":"034","CVEGEO":"19034","NOMGEO":"Marín"}},
{"type":"Feature","geometry":{"type":"Polygon","coordinates":[[[-100.1877,26.3279],[-100.1849,26.3091],[-100.1903,26.2855],[-100.2011,26.285],[-100.2328,26.2624],[-100.248,26.2719],[-100.2899,26.2721],[-100.298,26.2967],[-100.3094,26.3122],[-100.3321,26.3227],[-100.3485,26.3406],[-100.3566,26.3644],[-100.3883,26.3607],[-100.3932,26.3952],[-100.4059,26.3901],[-100.4339,26.3937],[-100.4493,26.3855],[-100.454,26.3688],[-100.4811,26.3461],[-100.4714,26.3424],[-100.4757,26.3238],[-100.4519,26.2806],[-100.4488,26.2591],[-100.4642,26.2562],[-100.4998,26.2123],[-100.522,26.2104],[-100.5649,26.1233],[-100.5395,26.1079],[-100.5174,26.114],[-100.4858,26.093],[-100.4323,26.0653],[-100.3847,26.0253],[-100.3716,26.0062],[-100.3696,25.9821],[-100.3669,25.9737],[-100.3438,25.976],[-100.3157,25.9471],[-100.3322,25.9275],[-100.2982,25.849],[-100.2728,25.8494],[-100.2717,25.8718],[-100.254,25.8793],[-100.2363,25.9146],[-100.2443,25.9345],[-100.2341,25.9793],[-100.253,26.0032],[-100.2786,26.0103],[-100.2731,26.0217],[-100.2302,26.0019],[-100.2337,26.0207],[-100.2047,26.0304],[-100.1959,26.0184],[-100.1581,26.0439],[-100.1442,26.0142],[-100.1181,26.0381],[-100.0748,26.0626],[-100.1044,26.1172],[-100.0649,26.1319],[-100.023,26.152],[-100.0178,26.1659],[-99.9921,26.1608],[-99.9678,26.1629],[-99.9705,26.1923],[-99.9276,26.196],[-99.933,26.2019],[-99.9253,26.2375],[-99.9556,26.2388],[-100.0227,26.2523],[-100.0454,26.2761],[-100.0644,26.3063],[-100.1029,26.3197],[-100.1877,26.3279]]]},"properties":{"CVE_ENT":"19","CVE_MUN":"045","CVEGEO":"19045","NOMGEO":"Salinas Victoria"}},
{"type":"Feature","geometry":{"type":"Polygon","coordinates":[[[-99.8002,25.3684],[-99.8083,25.3508],[-99.8273,25.3398],[-99.9318,25.4203],[-99.9398,25.4044],[-99.9278,25.3882],[-99.9427,25.3734],[-99.9347,25.3453],[-99.9446,25.3351],[-99.9308,25.3086],[-99.9514,25.3027],[-99.9527,25.2863],[-99.9836,25.264],[-99.9941,25.2656],[-100.0315,25.2517],[-100.0406,25.2328],[-100.0619,25.2243],[-100.0872,25.2383],[-100.1329,25.2598],[-100.1711,25.2238],[-100.156,25.202],[-100.1568,25.1905],[-100.11,25.1279],[-100.0954,25.1149],[-100.0965,25.0966],[-100.0703,25.1144],[-100.0569,25.0989],[-100.0525,25.081],[-100.0412,25.0696],[-100.0238,25.0694],[-100.0005,25.0794],[-99.9853,25.07],[-99.9916,25.0601],[-99.9466,24.9198],[-99.9368,24.9138],[-99.9228,24.9117],[-99.9158,24.9285],[-99.8787,24.9295],[-99.8609,24.9468],[-99.8356,24.9582],[-99.8318,24.9743],[-99.8111,24.9926],[-99.7949,24.9978],[-99.7394,24.9884],[-99.6957,24.9639],[-99.6793,24.9483],[-99.6508,24.9567],[-99.6428,24.9675],[-99.6213,24.9648],[-99.602,24.9724],[-99.5955,24.99],[-99.5489,25.0009],[-99.5403,24.9894],[-99.515,24.9912],[-99.4915,25.0013],[-99.4671,24.9971],[-99.4463,24.9799],[-99.4157,24.9873],[-99.4094,25.0218],[-99.3736,25.0102],[-99.3693,25.0376],[-99.4111,25.046],[-99.4064,25.0819],[-99.3944,25.1038],[-99.4148,25.1075],[-99.4164,25.0938],[-99.4522,25.0994],[-99.4454,25.1417],[-99.4907,25.1491],[-99.5023,25.1327],[-99.5212,25.1206],[-99.5658,25.1112],[-99.5833,25.0907],[-99.6151,25.116],[-99.6279,25.1343],[-99.6414,25.1288],[-99.664,25.1465],[-99.658,25.1533],[-99.6963,25.1833],[-99.723,25.2181],[-99.7509,25.2094],[-99.7546,25.2227],[-99.7406,25.2397],[-99.75,25.2628],[-99.7652,25.2803],[-99.7807,25.2665],[-99.795,25.2833],[-99.7826,25.3397],[-99.8002,25.3684]]]},"properties":{"CVE_ENT":"19","CVE_MUN":"038","CVEGEO":"19038","NOMGEO":"Montemorelos"}},
{"type":"Feature","geometry":{"type":"Polygon","coordinates":[[[-99.1669,25.0466],[-99.1741,25.0408],[-99.202,25.0432],[-99.1967,25.0741],[-99.1831,25.073],[-99.1789,25.0902],[-99.2516,25.0959],[-99.2659,25.1038],[-99.3126,25.1066],[-99.3104,25.1446],[-99.364,25.1521],[-99.3681,25.1305],[-99.4098,25.1339],[-99.4148,25.1075],[-99.3944,25.1038],[-99.4064,25.0819],[-99.4111,25.046],[-99.3693,25.0376],[-99.3736,25.0102],[-99.4094,25.0218],[-99.4157,24.9873],[-99.4463,24.9799],[-99.4671,24.9971],[-99.4915,25.0013],[-99.515,24.9912],[-99.5403,24.9894],[-99.5489,25.0009],[-99.5955,24.99],[-99.602,24.9724],[-99.6213,24.9648],[-99.6428,24.9675],[-99.6508,24.9567],[-99.6793,24.9483],[-99.6957,24.9639],[-99.7394,24.9884],[-99.7949,24.9978],[-99.8111,24.9926],[-99.8318,24.9743],[-99.8356,24.9582],[-99.8609,24.9468],[-99.8787,24.9295],[-99.9158,24.9285],[-99.9228,24.9117],[-99.9368,24.9138],[-99.9381,24.8977],[-99.9619,24.8945],[-99.9589,24.8792],[-99.9408,24.8586],[-99.8843,24.898],[-99.8817,24.8682],[-99.8539,24.8501],[-99.8621,24.8397],[-99.8912,24.8233],[-99.8784,24.8163],[-99.8712,24.7755],[-99.8395,24.742],[-99.8113,24.6741],[-99.8122,24.6493],[-99.779,24.6026],[-99.7723,24.5862],[-99.733,24.554],[-99.7047,24.5759],[-99.6094,24.6225],[-99.579,24.6223],[-99.5494,24.6117],[-99.5443,24.6269],[-99.5128,24.6345],[-99.496,24.6509],[-99.5,24.6811],[-99.4823,24.708],[-99.4505,24.731],[-99.4377,24.7253],[-99.423,24.7367],[-99.4049,24.7351],[-99.3891,24.7399],[-99.3642,24.7718],[-99.3372,24.7742],[-99.3176,24.7899],[-99.2966,24.7948],[-99.2949,24.8041],[-99.2129,24.7717],[-99.1887,24.7807],[-99.2074,24.8614],[-99.2049,24.8642],[-99.1589,24.916],[-99.1799,25.0054],[-99.1777,25.018],[-99.1649,25.0295],[-99.1669,25.0466]],[[-99.734,24.9229],[-99.7325,24.9331],[-99.6162,24.9292],[-99.6184,24.9085],[-99.6137,24.8866],[-99.6189,24.8697],[-99.6162,24.8431],[-99.6379,24.8349],[-99.6651,24.8382],[-99.7414,24.8375],[-99.7417,24.8846],[-99.734,24.9229]]]},"properties":{"CVE_ENT":"19","CVE_MUN":"033","CVEGEO":"19033","NOMGEO":"Linares"}},
{"type":"Feature","geometry":{"type":"Polygon","coordinates":[[[-100.3696,25.9821],[-100.3713,25.9822],[-100.3805,25.9285],[-100.4065,25.8911],[-100.4258,25.8934],[-100.3973,25.8536],[-100.3796,25.8485],[-100.3272,25.8466],[-100.2982,25.849],[-100.3322,25.9275],[-100.3157,25.9471],[-100.3438,25.976],[-100.3669,25.9737],[-100.3696,25.9821]]]},"properties":{"CVE_ENT":"19","CVE_MUN":"010","CVEGEO":"19010","NOMGEO":"El Carmen"}},
{"type":"Feature","geometry":{"type":"Polygon","coordinates":[[[-99.3337,26.3064],[-99.3642,26.3293],[-99.4012,26.3048],[-99.4097,26.317],[-99.4651,26.3131],[-99.4626,26.2663],[-99.4902,26.2746],[-99.5452,26.2362],[-99.5895,26.2353],[-99.5889,26.1841],[-99.5542,26.1845],[-99.5397,26.1672],[-99.5295,26.1658],[-99.5031,26.1254],[-99.4897,26.1227],[-99.4758,26.0993],[-99.396,26.0949],[-99.3803,26.0939],[-99.4013,26.1394],[-99.3324,26.2528],[-99.3337,26.3064]]]},"properties":{"CVE_ENT":"19","CVE_MUN":"023","CVEGEO":"19023","NOMGEO":"General Treviño"}},
{"type":"Feature","geometry":{"type":"Polygon","coordinates":[[[-99.7821,25.6714],[-99.8088,25.6722],[-99.8205,25.6591],[-99.8467,25.6734],[-99.8495,25.685],[-99.8721,25.685],[-99.8994,25.6919],[-99.9105,25.6866],[-99.9309,25.6948],[-99.959,25.6914],[-99.971,25.6797],[-99.9901,25.6823],[-100.009,25.6522],[-100.0559,25.6614],[-100.0643,25.6526],[-100.0402,25.6377],[-100.057,25.6269],[-100.0628,25.6114],[-100.0837,25.6068],[-100.1044,25.5845],[-100.0979,25.5699],[-100.1107,25.5648],[-100.0773,25.5339],[-100.0806,25.5154],[-100.1019,25.5141],[-100.1353,25.5365],[-100.1625,25.525],[-100.1788,25.5303],[-100.1674,25.5169],[-100.1314,25.4702],[-100.0969,25.5032],[-100.0696,25.4706],[-100.0374,25.448],[-100.0599,25.4177],[-100.0511,25.41],[-100.076,25.3943],[-100.0624,25.3766],[-100.0582,25.3615],[-100.044,25.351],[-100.0151,25.3459],[-99.9975,25.3565],[-99.9796,25.3573],[-99.9427,25.3734],[-99.9278,25.3882],[-99.9398,25.4044],[-99.9318,25.4203],[-99.8273,25.3398],[-99.8083,25.3508],[-99.8002,25.3684],[-99.7889,25.4003],[-99.7923,25.4199],[-99.7852,25.43],[-99.7698,25.4331],[-99.7663,25.4459],[-99.7412,25.4735],[-99.7323,25.4711],[-99.7194,25.498],[-99.693,25.4964],[-99.6876,25.5163],[-99.7109,25.5444],[-99.7349,25.5503],[-99.7403,25.5658],[-99.7403,25.62],[-99.7508,25.6293],[-99.7511,25.6515],[-99.7667,25.6664],[-99.7821,25.6714]]]},"properties":{"CVE_ENT":"19","CVE_MUN":"009","CVEGEO":"19009","NOMGEO":"Cadereyta Jiménez"}},
{"type":"Feature","geometry":{"type":"Polygon","coordinates":[[[-99.734,24.9229],[-99.7417,24.8846],[-99.7414,24.8375],[-99.6651,24.8382],[-99.6379,24.8349],[-99.6162,24.8431],[-99.6189,24.8697],[-99.6137,24.8866],[-99.6184,24.9085],[-99.6162,24.9292],[-99.7325,24.9331],[-99.734,24.9229]]]},"properties":{"CVE_ENT":"19","CVE_MUN":"029","CVEGEO":"19029","NOMGEO":"Hualahuises"}},
{"type":"Feature","geometry":{"type":"Polygon","coordinates":[[[-99.733,24.554],[-99.7723,24.5862],[-99.779,24.6026],[-99.8122,24.6493],[-99.8113,24.6741],[-99.8395,24.742],[-99.8712,24.7755],[-99.8784,24.8163],[-99.8912,24.8233],[-99.8621,24.8397],[-99.8539,24.8501],[-99.8817,24.8682],[-99.8843,24.898],[-99.9408,24.8586],[-99.9589,24.8792],[-99.9619,24.8945],[-99.9683,24.8804],[-99.9452,24.8539],[-99.9395,24.8374],[-99.9589,24.819],[-99.9834,24.8257],[-99.9818,24.8131],[-99.9503,24.7691],[-99.9964,24.7306],[-99.9662,24.7],[-99.9398,24.6777],[-99.8992,24.6507],[-99.8667,24.6186],[-99.8415,24.5648],[-99.8754,24.527],[-99.879,24.5092],[-99.8548,24.501],[-99.8478,24.4856],[-99.8085,24.4464],[-99.7923,24.4067],[-99.7751,24.4105],[-99.7625,24.3902],[-99.744,24.3917],[-99.743,24.4193],[-99.7103,24.4421],[-99.7198,24.4837],[-99.733,24.554]]]},"properties":{"CVE_ENT":"19","CVE_MUN":"030","CVEGEO":"19030","NOMGEO":"Iturbide"}},
{"type":"Feature","geometry":{"type":"Polygon","coordinates":[[[-100.1172,25.6966],[-100.115,25.7157],[-100.1243,25.7346],[-100.1486,25.7311],[-100.1128,25.7596],[-100.101,25.7784],[-100.1012,25.8004],[-100.1319,25.8211],[-100.1161,25.8353],[-100.17,25.8624],[-100.2353,25.8632],[-100.254,25.8793],[-100.2717,25.8718],[-100.2717,25.8495],[-100.2613,25.802],[-100.27,25.8009],[-100.267,25.7705],[-100.2376,25.7477],[-100.2069,25.7318],[-100.1784,25.7294],[-100.1846,25.713],[-100.1739,25.7088],[-100.1315,25.7006],[-100.1231,25.6941],[-100.1172,25.6966]]]},"properties":{"CVE_ENT":"19","CVE_MUN":"006","CVEGEO":"19006","NOMGEO":"Apodaca"}},
{"type":"Feature","geometry":{"type":"Polygon","coordinates":[[[-99.9678,26.1629],[-99.9921,26.1608],[-100.0178,26.1659],[-100.023,26.152],[-100.0649,26.1319],[-100.1044,26.1172],[-100.0748,26.0626],[-100.1181,26.0381],[-100.1044,25.9965],[-100.0775,26.0195],[-100.0627,25.9779],[-100.052,25.9644],[-100.0747,25.9492],[-100.0649,25.918],[-99.9978,25.92],[-99.9515,25.9052],[-99.9353,25.9171],[-99.9149,25.9445],[-99.9142,25.9584],[-99.8985,25.9712],[-99.8802,25.9945],[-99.8906,26.0143],[-99.9005,26.036],[-99.9189,26.0495],[-99.9163,26.0816],[-99.9377,26.1205],[-99.952,26.1566],[-99.9678,26.1629]]]},"properties":{"CVE_ENT":"19","CVE_MUN":"028","CVEGEO":"19028","NOMGEO":"Higueras"}},
{"type":"Feature","geometry":{"type":"Polygon","coordinates":[[[-100.0649,25.918],[-100.0747,25.9492],[-100.052,25.9644],[-100.0627,25.9779],[-100.0775,26.0195],[-100.1044,25.9965],[-100.1259,25.9848],[-100.1203,25.9684],[-100.1442,25.9559],[-100.1633,25.9396],[-100.1579,25.9235],[-100.1741,25.91],[-100.1812,25.9211],[-100.1976,25.9172],[-100.2105,25.8987],[-100.2363,25.9146],[-100.254,25.8793],[-100.2353,25.8632],[-100.17,25.8624],[-100.1147,25.8365],[-100.1042,25.8315],[-100.097,25.8539],[-100.0688,25.8808],[-100.0609,25.9125],[-100.0649,25.918]]]},"properties":{"CVE_ENT":"19","CVE_MUN":"025","CVEGEO":"19025","NOMGEO":"General Zuazua"}},
{"type":"Feature","geometry":{"type":"Polygon","coordinates":[[[-100.2069,25.7318],[-100.2376,25.7477],[-100.267,25.7705],[-100.3368,25.7627],[-100.3222,25.7502],[-100.3221,25.7501],[-100.3171,25.7227],[-100.2618,25.7012],[-100.2038,25.7182],[-100.2069,25.7318]]]},"properties":{"CVE_ENT":"19","CVE_MUN":"046","CVEGEO":"19046","NOMGEO":"San Nicolás de los Garza"}},
{"type":"Feature","geometry":{"type":"Polygon","coordinates":[[[-100.4276,25.8957],[-100.443,25.8924],[-100.4685,25.8983],[-100.4581,25.8803],[-100.4184,25.7909],[-100.4154,25.7894],[-100.4035,25.7965],[-100.3872,25.7973],[-100.3559,25.7851],[-100.3405,25.7622],[-100.3368,25.7627],[-100.3154,25.7646],[-100.267,25.7705],[-100.27,25.8009],[-100.2613,25.802],[-100.2728,25.8494],[-100.2982,25.849],[-100.3272,25.8466],[-100.3796,25.8485],[-100.3973,25.8536],[-100.4258,25.8934],[-100.4276,25.8957]]]},"properties":{"CVE_ENT":"19","CVE_MUN":"021","CVEGEO":"19021","NOMGEO":"General Escobedo"}},
{"type":"Feature","geometry":{"type":"Polygon","coordinates":[[[-99.1978,26.2585],[-99.26,26.2528],[-99.3337,26.3064],[-99.3324,26.2528],[-99.4013,26.1394],[-99.3803,26.0939],[-99.3343,25.9935],[-99.3359,25.9388],[-99.3323,25.9144],[-99.3088,25.9219],[-99.2982,25.8994],[-99.2816,25.9048],[-99.2679,25.9155],[-99.245,25.8959],[-99.2163,25.892],[-99.1903,25.8963],[-99.189,25.9053],[-99.1825,25.9346],[-99.1885,25.9586],[-99.1724,25.9798],[-99.1858,25.9857],[-99.1981,26.0244],[-99.188,26.0754],[-99.167,26.0755],[-99.171,26.0945],[-99.1978,26.2585]]]},"properties":{"CVE_ENT":"19","CVE_MUN":"003","CVEGEO":"19003","NOMGEO":"Los Aldamas"}},
{"type":"Feature","geometry":{"type":"Polygon","coordinates":[[[-99.5387,25.9016],[-99.6274,25.8637],[-99.663,25.9015],[-99.6779,25.93],[-99.7068,25.903],[-99.7081,25.888],[-99.6946,25.8702],[-99.6667,25.8472],[-99.6821,25.8246],[-99.6831,25.7939],[-99.6621,25.781],[-99.7176,25.7258],[-99.758,25.7358],[-99.7666,25.6952],[-99.7821,25.6714],[-99.7667,25.6664],[-99.7511,25.6515],[-99.7508,25.6293],[-99.7403,25.62],[-99.7403,25.5658],[-99.7349,25.5503],[-99.7109,25.5444],[-99.6876,25.5163],[-99.693,25.4964],[-99.7194,25.498],[-99.7323,25.4711],[-99.7412,25.4735],[-99.7663,25.4459],[-99.7698,25.4331],[-99.7852,25.43],[-99.6988,25.3789],[-99.7028,25.4234],[-99.6828,25.4241],[-99.6803,25.3949],[-99.6643,25.3962],[-99.6711,25.4751],[-99.6497,25.4768],[-99.6297,25.4712],[-99.632,25.4977],[-99.5948,25.5001],[-99.5847,25.4872],[-99.5709,25.4926],[-99.5498,25.4881],[-99.5213,25.4474],[-99.5144,25.4619],[-99.4967,25.4688],[-99.4889,25.4616],[-99.4581,25.4609],[-99.466,25.4851],[-99.4242,25.4768],[-99.4246,25.5008],[-99.4117,25.4997],[-99.4178,25.5314],[-99.4318,25.5392],[-99.4212,25.6004],[-99.4139,25.6232],[-99.4612,25.6882],[-99.419,25.7148],[-99.4415,25.743],[-99.4261,25.7537],[-99.4026,25.7617],[-99.4018,25.7716],[-99.4188,25.7894],[-99.4586,25.8388],[-99.4904,25.8164],[-99.5039,25.8469],[-99.5605,25.8312],[-99.5537,25.8492],[-99.5386,25.8589],[-99.5387,25.9016]]]},"properties":{"CVE_ENT":"19","CVE_MUN":"042","CVEGEO":"19042","NOMGEO":"Los Ramones"}},
{"type":"Feature","geometry":{"type":"Polygon","coordinates":[[[-100.4978,25.9028],[-100.5236,25.9059],[-100.5812,25.8788],[-100.6005,25.8733],[-100.6117,25.8632],[-100.612,25.9477],[-100.6174,25.9671],[-100.6657,25.9519],[-100.7204,25.9447],[-100.7374,25.9835],[-100.7539,25.9604],[-100.775,25.9502],[-100.8162,25.94],[-100.8344,25.945],[-100.8227,25.9169],[-100.8371,25.8638],[-100.8471,25.8579],[-100.8619,25.8185],[-100.8251,25.7517],[-100.8056,25.7243],[-100.8037,25.7088],[-100.7878,25.6836],[-100.7812,25.6386],[-100.7298,25.6339],[-100.7234,25.627],[-100.6999,25.6388],[-100.7091,25.6584],[-100.6695,25.6622],[-100.6473,25.6916],[-100.6025,25.7044],[-100.5919,25.7221],[-100.5757,25.7192],[-100.5672,25.7022],[-100.5495,25.7101],[-100.534,25.728],[-100.5069,25.75],[-100.4766,25.7319],[-100.4416,25.7205],[-100.4154,25.7894],[-100.4184,25.7909],[-100.4581,25.8803],[-100.4685,25.8983],[-100.4978,25.9028]]]},"properties":{"CVE_ENT":"19","CVE_MUN":"018","CVEGEO":"19018","NOMGEO":"García"}},
{"type":"Feature","geometry":{"type":"Polygon","coordinates":[[[-100.332,25.1863],[-100.4074,25.209],[-100.4436,25.2231],[-100.4985,25.2375],[-100.5296,25.2401],[-100.592,25.2551],[-100.7089,25.2365],[-100.8031,25.1653],[-100.8045,25.1533],[-100.8215,24.9967],[-100.7915,24.9741],[-100.7275,24.9187],[-100.8261,24.835],[-100.8274,24.8242],[-100.797,24.7508],[-100.8055,24.5963],[-100.7999,24.5562],[-100.7423,24.4604],[-100.7112,24.4915],[-100.6035,24.4013],[-100.5517,24.4388],[-100.5219,24.4469],[-100.5042,24.4564],[-100.4961,24.41],[-100.444,24.4217],[-100.4469,24.4388],[-100.4327,24.4397],[-100.4052,24.3718],[-100.3647,24.3325],[-100.3482,24.3116],[-100.3152,24.3158],[-100.2735,24.2546],[-100.2572,24.318],[-100.2008,24.2897],[-100.1877,24.3027],[-100.187,24.2637],[-100.1695,24.2633],[-100.1738,24.2828],[-100.1535,24.2988],[-100.1152,24.3103],[-100.1061,24.2993],[-100.0735,24.3098],[-100.067,24.3538],[-100.0911,24.4525],[-100.0766,24.4421],[-100.0613,24.4557],[-100.0235,24.4595],[-99.9981,24.4545],[-99.9939,24.465],[-99.9743,24.4745],[-99.9574,24.4629],[-99.9161,24.4608],[-99.9087,24.448],[-99.8887,24.4541],[-99.8942,24.4702],[-99.8548,24.501],[-99.879,24.5092],[-99.8754,24.527],[-99.8415,24.5648],[-99.8667,24.6186],[-99.8992,24.6507],[-99.9398,24.6777],[-99.9662,24.7],[-99.9964,24.7306],[-99.9503,24.7691],[-99.9818,24.8131],[-99.9834,24.8257],[-99.9589,24.819],[-99.9395,24.8374],[-99.9452,24.8539],[-99.9683,24.8804],[-99.9899,24.9041],[-100.0658,24.8899],[-100.0819,24.911],[-100.1296,24.9442],[-100.1597,25.0136],[-100.2003,25.0205],[-100.2265,25.0616],[-100.2389,25.0653],[-100.2447,25.0815],[-100.2721,25.1098],[-100.2535,25.1306],[-100.2978,25.1526],[-100.3229,25.1707],[-100.332,25.1863]]]},"properties":{"CVE_ENT":"19","CVE_MUN":"017","CVEGEO":"19017","NOMGEO":"Galeana"}},
{"type":"Feature","geometry":{"type":"Polygon","coordinates":[[[-99.6779,25.93],[-99.7028,25.9492],[-99.7177,25.9505],[-99.7449,25.9755],[-99.789,25.9842],[-99.8023,25.9957],[-99.9442,25.8915],[-99.9498,25.8863],[-99.979,25.8914],[-99.9692,25.8383],[-99.9472,25.8325],[-99.919,25.8054],[-99.9011,25.8033],[-99.8926,25.7883],[-99.9001,25.7635],[-99.8822,25.7479],[-99.8302,25.7395],[-99.7982,25.7248],[-99.7792,25.711],[-99.7666,25.6952],[-99.758,25.7358],[-99.7176,25.7258],[-99.6621,25.781],[-99.6831,25.7939],[-99.6821,25.8246],[-99.6667,25.8472],[-99.6946,25.8702],[-99.7081,25.888],[-99.7068,25.903],[-99.6779,25.93]]]},"properties":{"CVE_ENT":"19","CVE_MUN":"016","CVEGEO":"19016","NOMGEO":"Doctor González"}},
{"type":"Feature","geometry":{"type":"Polygon","coordinates":[[[-99.5895,26.2353],[-99.6076,26.2376],[-99.6183,26.2524],[-99.6362,26.2473],[-99.7271,26.1839],[-99.7387,26.1707],[-99.7801,26.1762],[-99.7972,26.1689],[-99.8148,26.1691],[-99.8289,26.1536],[-99.86,26.1532],[-99.8788,26.174],[-99.9203,26.187],[-99.9276,26.196],[-99.9705,26.1923],[-99.9678,26.1629],[-99.952,26.1566],[-99.9377,26.1205],[-99.9163,26.0816],[-99.9189,26.0495],[-99.9005,26.036],[-99.8906,26.0143],[-99.8843,26.0202],[-99.8615,26.0089],[-99.8507,26.021],[-99.8161,26.018],[-99.8023,25.9957],[-99.789,25.9842],[-99.7449,25.9755],[-99.7177,25.9505],[-99.7028,25.9492],[-99.6779,25.93],[-99.663,25.9015],[-99.6274,25.8637],[-99.5387,25.9016],[-99.538,25.9128],[-99.5218,25.9228],[-99.561,25.9941],[-99.5859,26.0419],[-99.6065,26.073],[-99.5871,26.0922],[-99.5581,26.0972],[-99.4758,26.0993],[-99.4897,26.1227],[-99.5031,26.1254],[-99.5295,26.1658],[-99.5397,26.1672],[-99.5542,26.1845],[-99.5889,26.1841],[-99.5895,26.2353]]]},"properties":{"CVE_ENT":"19","CVE_MUN":"011","CVEGEO":"19011","NOMGEO":"Cerralvo"}},
{"type":"Feature","geometry":{"type":"Polygon","coordinates":[[[-100.0881,26.7992],[-100.1489,26.7974],[-100.1376,26.8106],[-100.1702,26.872],[-100.2509,26.8823],[-100.2526,26.9085],[-100.2722,26.9129],[-100.2797,26.8856],[-100.3005,26.8471],[-100.327,26.8536],[-100.3048,26.8091],[-100.3052,26.7901],[-100.366,26.7884],[-100.3584,26.7438],[-100.345,26.717],[-100.3446,26.6934],[-100.3297,26.694],[-100.3196,26.6643],[-100.3318,26.6498],[-100.3306,26.6307],[-100.2909,26.6231],[-100.2792,26.6041],[-100.2648,26.5646],[-100.2582,26.5208],[-100.2496,26.504],[-100.2287,26.5014],[-100.2243,26.4824],[-100.2428,26.4573],[-100.2271,26.4451],[-100.2183,26.4073],[-100.1978,26.3928],[-100.2001,26.3665],[-100.1877,26.3279],[-100.1029,26.3197],[-100.0644,26.3063],[-100.0454,26.2761],[-100.0227,26.2523],[-99.9556,26.2388],[-99.9213,26.3538],[-99.9284,26.3872],[-99.9684,26.3932],[-99.989,26.4182],[-99.9785,26.4412],[-100.0095,26.4672],[-100.0308,26.4698],[-100.0267,26.4989],[-100.0153,26.5422],[-100.0204,26.5547],[-100.0465,26.5573],[-100.0377,26.5881],[-100.0592,26.5996],[-100.086,26.6283],[-100.1014,26.6357],[-100.0373,26.6736],[-100.0578,26.7124],[-100.0589,26.7421],[-100.0784,26.7544],[-100.0875,26.7667],[-100.0777,26.7852],[-100.0881,26.7992]]]},"properties":{"CVE_ENT":"19","CVE_MUN":"044","CVEGEO":"19044","NOMGEO":"Sabinas Hidalgo"}},
{"type":"Feature","geometry":{"type":"Polygon","coordinates":[[[-100.0872,25.2383],[-100.0619,25.2243],[-100.0406,25.2328],[-100.0315,25.2517],[-99.9941,25.2656],[-99.9836,25.264],[-99.9527,25.2863],[-99.9514,25.3027],[-99.9308,25.3086],[-99.9446,25.3351],[-99.9347,25.3453],[-99.9427,25.3734],[-99.9796,25.3573],[-99.9975,25.3565],[-100.0151,25.3459],[-100.044,25.351],[-100.0582,25.3615],[-100.0763,25.3361],[-100.1397,25.3003],[-100.0872,25.2383]]]},"properties":{"CVE_ENT":"19","CVE_MUN":"004","CVEGEO":"19004","NOMGEO":"Allende"}},
{"type":"Feature","geometry":{"type":"Polygon","coordinates":[[[-99.4242,25.4768],[-99.466,25.4851],[-99.4581,25.4609],[-99.4889,25.4616],[-99.4967,25.4688],[-99.5144,25.4619],[-99.5213,25.4474],[-99.5498,25.4881],[-99.5709,25.4926],[-99.5847,25.4872],[-99.5948,25.5001],[-99.632,25.4977],[-99.6297,25.4712],[-99.6497,25.4768],[-99.6711,25.4751],[-99.6643,25.3962],[-99.6803,25.3949],[-99.6828,25.4241],[-99.7028,25.4234],[-99.6988,25.3789],[-99.7852,25.43],[-99.7923,25.4199],[-99.7889,25.4003],[-99.8002,25.3684],[-99.7826,25.3397],[-99.795,25.2833],[-99.7807,25.2665],[-99.7652,25.2803],[-99.75,25.2628],[-99.7406,25.2397],[-99.7546,25.2227],[-99.7509,25.2094],[-99.723,25.2181],[-99.6963,25.1833],[-99.658,25.1533],[-99.664,25.1465],[-99.6414,25.1288],[-99.6279,25.1343],[-99.6151,25.116],[-99.5833,25.0907],[-99.5658,25.1112],[-99.5212,25.1206],[-99.5023,25.1327],[-99.4907,25.1491],[-99.4454,25.1417],[-99.4522,25.0994],[-99.4164,25.0938],[-99.4148,25.1075],[-99.4098,25.1339],[-99.3681,25.1305],[-99.364,25.1521],[-99.3104,25.1446],[-99.3126,25.1066],[-99.2659,25.1038],[-99.2516,25.0959],[-99.1789,25.0902],[-99.1831,25.073],[-99.1967,25.0741],[-99.202,25.0432],[-99.1741,25.0408],[-99.1669,25.0466],[-99.1573,25.0565],[-99.1379,25.0507],[-99.0974,25.0632],[-99.0983,25.0733],[-99.0789,25.0789],[-99.0669,25.1168],[-99.0542,25.1238],[-99.036,25.1203],[-99.0336,25.1351],[-99.0695,25.1728],[-99.052,25.1829],[-99.0512,25.1946],[-99.0726,25.214],[-99.0224,25.2147],[-99.0356,25.2663],[-99.0569,25.26],[-99.0817,25.3235],[-99.092,25.336],[-99.1131,25.3283],[-99.1669,25.3828],[-99.1834,25.3663],[-99.1908,25.3752],[-99.2237,25.3777],[-99.2312,25.3959],[-99.2233,25.402],[-99.2586,25.4245],[-99.278,25.4174],[-99.2795,25.401],[-99.3109,25.4016],[-99.3264,25.4303],[-99.3236,25.4375],[-99.3406,25.4524],[-99.367,25.4641],[-99.3573,25.478],[-99.386,25.4949],[-99.4242,25.4768]]]},"properties":{"CVE_ENT":"19","CVE_MUN":"022","CVEGEO":"19022","NOMGEO":"General Terán"}},
{"type":"Feature","geometry":{"type":"Polygon","coordinates":[[[-99.4869,23.9605],[-99.52,23.9906],[-99.5409,23.9973],[-99.5419,24.0336],[-99.5709,24.0394],[-99.5808,24.037],[-99.6759,24.0389],[-99.7208,24.0277],[-99.7429,24.0288],[-99.755,24.0114],[-99.7491,23.9971],[-99.758,23.9889],[-99.7748,23.9945],[-99.7807,24.0101],[-99.8015,24.0111],[-99.8675,23.9977],[-99.8782,24.0172],[-99.9182,24.0025],[-99.9728,24.0051],[-99.9855,23.9909],[-100.0086,23.9426],[-100.0178,23.9421],[-100.0243,23.8944],[-100.0304,23.8852],[-99.9648,23.857],[-99.9722,23.8401],[-99.9423,23.838],[-99.945,23.7879],[-99.9103,23.7854],[-99.8828,23.7236],[-99.8607,23.7745],[-99.8055,23.7843],[-99.769,23.7845],[-99.6834,23.7766],[-99.6599,23.7707],[-99.6195,23.7597],[-99.6022,23.7629],[-99.5767,23.7755],[-99.4938,23.8787],[-99.4674,23.8695],[-99.4569,23.8661],[-99.4869,23.9605]]]},"properties":{"CVE_ENT":"19","CVE_MUN":"024","CVEGEO":"19024","NOMGEO":"General Zaragoza"}},
{"type":"Feature","geometry":{"type":"Polygon","coordinates":[[[-100.3368,25.7627],[-100.3559,25.7851],[-100.3872,25.7973],[-100.4151,25.7895],[-100.4416,25.7205],[-100.4275,25.7157],[-100.4189,25.7102],[-100.4114,25.7076],[-100.4037,25.7025],[-100.3977,25.6945],[-100.3976,25.6746],[-100.38,25.6677],[-100.3635,25.6711],[-100.3129,25.647],[-100.3441,25.5898],[-100.317,25.5718],[-100.3183,25.5472],[-100.2781,25.5195],[-100.2576,25.4821],[-100.2136,25.5066],[-100.2068,25.5132],[-100.2061,25.5161],[-100.202,25.5167],[-100.1916,25.5205],[-100.1729,25.5211],[-100.1814,25.5336],[-100.1953,25.5462],[-100.2164,25.5812],[-100.2432,25.617],[-100.2421,25.6248],[-100.2695,25.6215],[-100.2743,25.647],[-100.2698,25.661],[-100.2759,25.6763],[-100.2618,25.6837],[-100.2618,25.7012],[-100.3171,25.7227],[-100.3221,25.7501],[-100.3222,25.7502],[-100.3368,25.7627]]]},"properties":{"CVE_ENT":"19","CVE_MUN":"039","CVEGEO":"19039","NOMGEO":"Monterrey"}},
{"type":"Feature","geometry":{"type":"Polygon","coordinates":[[[-100.1181,26.0381],[-100.1442,26.0142],[-100.1581,26.0439],[-100.1959,26.0184],[-100.2047,26.0304],[-100.2337,26.0207],[-100.2302,26.0019],[-100.2731,26.0217],[-100.2786,26.0103],[-100.253,26.0032],[-100.2341,25.9793],[-100.2443,25.9345],[-100.2363,25.9146],[-100.2105,25.8987],[-100.1976,25.9172],[-100.1812,25.9211],[-100.1741,25.91],[-100.1579,25.9235],[-100.1633,25.9396],[-100.1442,25.9559],[-100.1203,25.9684],[-100.1259,25.9848],[-100.1044,25.9965],[-100.1181,26.0381]]]},"properties":{"CVE_ENT":"19","CVE_MUN":"012","CVEGEO":"19012","NOMGEO":"Ciénega de Flores"}}
]}