{"type":"FeatureCollection", "features": [
{"type":"Feature","geometry":{"type":"Polygon","coordinates":[[[-100.3826,20.5235],[-100.3918,20.5553],[-100.4237,20.5599],[-100.4333,20.5899],[-100.4888,20.5944],[-100.485,20.5538],[-100.5048,20.555],[-100.5098,20.5065],[-100.5003,20.5002],[-100.4884,20.4733],[-100.4885,20.4258],[-100.4783,20.4163],[-100.4762,20.3896],[-100.4695,20.3869],[-100.4444,20.3872],[-100.41,20.376],[-100.4033,20.3608],[-100.4013,20.4072],[-100.3852,20.4162],[-100.3915,20.4258],[-100.3841,20.4567],[-100.3928,20.4834],[-100.3709,20.4884],[-100.3826,20.5235]]]},"properties":{"CVE_ENT":"22","CVE_MUN":"006","CVEGEO":"22006","NOMGEO":"Corregidora"}},
{"type":"Feature","geometry":{"type":"Polygon","coordinates":[[[-100.1878,20.9325],[-100.2009,20.937],[-100.2136,20.9441],[-100.2393,20.9608],[-100.2593,20.9682],[-100.2636,20.971],[-100.2655,20.9292],[-100.2992,20.9313],[-100.2984,20.9153],[-100.3336,20.8907],[-100.3322,20.8825],[-100.3481,20.8475],[-100.3701,20.8385],[-100.3843,20.8174],[-100.4004,20.8067],[-100.4025,20.7801],[-100.3825,20.7728],[-100.3888,20.7541],[-100.3838,20.7456],[-100.3877,20.6961],[-100.3602,20.6907],[-100.3593,20.6817],[-100.3428,20.6671],[-100.3443,20.6409],[-100.3354,20.6181],[-100.343,20.6013],[-100.3457,20.5792],[-100.3317,20.5697],[-100.3373,20.5646],[-100.3505,20.5609],[-100.3499,20.5603],[-100.3493,20.5596],[-100.3488,20.5589],[-100.3487,20.5587],[-100.3486,20.5587],[-100.3486,20.5585],[-100.3484,20.5585],[-100.3459,20.5564],[-100.3452,20.553],[-100.3221,20.5009],[-100.3026,20.5065],[-100.3008,20.5197],[-100.2323,20.5324],[-100.218,20.5371],[-100.1919,20.5334],[-100.1771,20.5254],[-100.1992,20.5724],[-100.196,20.5744],[-100.184,20.6118],[-100.1898,20.636],[-100.1971,20.6431],[-100.1777,20.6953],[-100.1694,20.7043],[-100.1626,20.7301],[-100.1825,20.7334],[-100.2063,20.7915],[-100.2146,20.8389],[-100.2276,20.8657],[-100.2716,20.8554],[-100.2378,20.9129],[-100.2041,20.9323],[-100.1958,20.9312],[-100.1878,20.9325]]]},"properties":{"CVE_ENT":"22","CVE_MUN":"011","CVEGEO":"22011","NOMGEO":"El Marqués"}},
{"type":"Feature","geometry":{"type":"Polygon","coordinates":[[[-100.0752,20.5773],[-100.0951,20.5793],[-100.1056,20.5688],[-100.1548,20.5678],[-100.1901,20.562],[-100.196,20.5744],[-100.1992,20.5724],[-100.1771,20.5254],[-100.1919,20.5334],[-100.218,20.5371],[-100.2323,20.5324],[-100.2195,20.5192],[-100.2401,20.5037],[-100.2528,20.478],[-100.2475,20.4588],[-100.2728,20.4504],[-100.2967,20.4504],[-100.2779,20.4174],[-100.2812,20.4062],[-100.2705,20.3934],[-100.2531,20.3977],[-100.2582,20.3707],[-100.253,20.3585],[-100.1975,20.3604],[-100.196,20.3666],[-100.1875,20.374],[-100.157,20.417],[-100.1414,20.4148],[-100.1343,20.4377],[-100.1016,20.4397],[-100.0925,20.4552],[-100.0931,20.4733],[-100.0753,20.4685],[-100.0617,20.502],[-100.0667,20.5264],[-100.085,20.5387],[-100.0791,20.5491],[-100.0752,20.5773]]]},"properties":{"CVE_ENT":"22","CVE_MUN":"012","CVEGEO":"22012","NOMGEO":"Pedro Escobedo"}},
{"type":"Feature","geometry":{"type":"Polygon","coordinates":[[[-99.9777,20.2391],[-99.978,20.2379],[-99.9786,20.2361],[-99.9806,20.2346],[-99.9883,20.2349],[-100.0212,20.2074],[-100.0407,20.2188],[-100.0688,20.2272],[-100.0574,20.2437],[-100.0763,20.2482],[-100.0949,20.2612],[-100.0763,20.2862],[-100.0791,20.3054],[-100.0954,20.3143],[-100.1127,20.3144],[-100.1486,20.3219],[-100.1756,20.3413],[-100.1834,20.3594],[-100.1953,20.3294],[-100.2172,20.3189],[-100.2477,20.3219],[-100.2589,20.2902],[-100.3075,20.2855],[-100.2602,20.2673],[-100.2451,20.2504],[-100.1965,20.2223],[-100.1816,20.2031],[-100.1919,20.176],[-100.2356,20.1435],[-100.1976,20.1299],[-100.2016,20.0759],[-100.1762,20.072],[-100.1471,20.0577],[-100.1379,20.0443],[-100.0987,20.025],[-100.0769,20.0295],[-100.0575,20.0399],[-100.0438,20.0366],[-100.0316,20.0531],[-100.0057,20.0644],[-100.0004,20.0775],[-99.9785,20.074],[-99.9804,20.0609],[-99.9263,20.0643],[-99.9235,20.0817],[-99.9361,20.0991],[-99.9422,20.1201],[-99.9311,20.1424],[-99.9358,20.1693],[-99.9486,20.1913],[-99.9668,20.2075],[-99.9645,20.2161],[-99.9777,20.2391]]]},"properties":{"CVE_ENT":"22","CVE_MUN":"001","CVEGEO":"22001","NOMGEO":"Amealco de Bonfil"}},
{"type":"Feature","geometry":{"type":"Polygon","coordinates":[[[-100.0923,20.9317],[-100.1178,20.9222],[-100.1353,20.9373],[-100.1784,20.9387],[-100.1815,20.9304],[-100.1878,20.9325],[-100.1958,20.9312],[-100.2041,20.9323],[-100.2378,20.9129],[-100.2716,20.8554],[-100.2276,20.8657],[-100.2146,20.8389],[-100.2063,20.7915],[-100.1825,20.7334],[-100.1626,20.7301],[-100.1694,20.7043],[-100.1777,20.6953],[-100.1971,20.6431],[-100.1898,20.636],[-100.184,20.6118],[-100.196,20.5744],[-100.1901,20.562],[-100.1548,20.5678],[-100.1056,20.5688],[-100.0951,20.5793],[-100.0752,20.5773],[-100.0656,20.59],[-100.0633,20.6213],[-100.0775,20.6252],[-100.0798,20.6421],[-100.0629,20.6491],[-100.0131,20.6504],[-100.0125,20.638],[-99.9916,20.636],[-99.9892,20.6522],[-99.9689,20.6497],[-99.9535,20.6596],[-99.9519,20.6868],[-99.9362,20.6861],[-99.9421,20.7168],[-99.9685,20.7258],[-99.9662,20.7574],[-99.9642,20.779],[-99.9523,20.7944],[-99.9475,20.8142],[-100.0159,20.8278],[-100.0068,20.8456],[-100.0248,20.8484],[-100.0365,20.8709],[-100.061,20.8915],[-100.0815,20.8886],[-100.09,20.9055],[-100.0923,20.9317]]]},"properties":{"CVE_ENT":"22","CVE_MUN":"005","CVEGEO":"22005","NOMGEO":"Colón"}},
{"type":"Feature","geometry":{"type":"Polygon","coordinates":[[[-99.7353,20.5649],[-99.7279,20.5754],[-99.6854,20.579],[-99.658,20.6018],[-99.6341,20.6055],[-99.6129,20.595],[-99.6076,20.6062],[-99.5781,20.6209],[-99.5737,20.6348],[-99.5569,20.6436],[-99.5412,20.6434],[-99.531,20.6549],[-99.5019,20.659],[-99.5057,20.6849],[-99.5355,20.7114],[-99.547,20.7277],[-99.5428,20.7462],[-99.523,20.7546],[-99.4965,20.7813],[-99.5028,20.7886],[-99.4852,20.8181],[-99.4826,20.8392],[-99.4559,20.8495],[-99.4486,20.8577],[-99.4324,20.901],[-99.413,20.905],[-99.415,20.9191],[-99.4075,20.9366],[-99.3904,20.9536],[-99.3885,20.9666],[-99.3963,20.981],[-99.3896,21.0045],[-99.384,21.0097],[-99.3999,21.0142],[-99.4415,21.0161],[-99.4584,21.0119],[-99.4717,20.9872],[-99.4668,20.9751],[-99.475,20.9333],[-99.5074,20.9351],[-99.5276,20.9215],[-99.5217,20.903],[-99.5429,20.9023],[-99.5585,20.882],[-99.5853,20.885],[-99.5849,20.9032],[-99.6398,20.9104],[-99.6487,20.9071],[-99.6708,20.9409],[-99.6813,20.9413],[-99.6858,20.9685],[-99.6518,20.9792],[-99.6669,21.0026],[-99.6811,20.985],[-99.6922,20.9903],[-99.6987,20.9668],[-99.7117,20.9662],[-99.7221,20.9443],[-99.7891,20.9547],[-99.8059,20.9498],[-99.7903,20.9177],[-99.8321,20.925],[-99.8739,20.9237],[-99.8817,20.905],[-99.8437,20.8721],[-99.8246,20.8744],[-99.8062,20.8649],[-99.8224,20.8416],[-99.8076,20.8317],[-99.799,20.8108],[-99.8332,20.7882],[-99.8589,20.7883],[-99.874,20.7641],[-99.8463,20.7622],[-99.8452,20.751],[-99.8657,20.742],[-99.8671,20.7258],[-99.8496,20.7183],[-99.8625,20.7074],[-99.8581,20.6821],[-99.8466,20.6527],[-99.8287,20.6701],[-99.8083,20.6573],[-99.787,20.6605],[-99.7888,20.6386],[-99.7645,20.6392],[-99.7484,20.6017],[-99.7663,20.5928],[-99.7612,20.573],[-99.7463,20.5705],[-99.7353,20.5649]]]},"properties":{"CVE_ENT":"22","CVE_MUN":"004","CVEGEO":"22004","NOMGEO":"Cadereyta de Montes"}},
{"type":"Feature","geometry":{"type":"Polygon","coordinates":[[[-99.9916,20.636],[-100.0125,20.638],[-100.0131,20.6504],[-100.0629,20.6491],[-100.0798,20.6421],[-100.0775,20.6252],[-100.0633,20.6213],[-100.0656,20.59],[-100.0752,20.5773],[-100.0791,20.5491],[-100.085,20.5387],[-100.0667,20.5264],[-100.067,20.5408],[-100.0365,20.5472],[-100.0311,20.5259],[-100.007,20.5364],[-99.9953,20.5149],[-99.9981,20.4952],[-99.9702,20.491],[-99.9648,20.465],[-99.9391,20.4316],[-99.9132,20.4445],[-99.9115,20.4643],[-99.8867,20.4616],[-99.8777,20.4666],[-99.8584,20.459],[-99.8354,20.4778],[-99.8351,20.481],[-99.8281,20.5425],[-99.8706,20.5568],[-99.8526,20.5737],[-99.857,20.5895],[-99.8743,20.5901],[-99.8971,20.5834],[-99.9016,20.6049],[-99.9187,20.6323],[-99.9389,20.6192],[-99.9544,20.6351],[-99.9916,20.636]]]},"properties":{"CVE_ENT":"22","CVE_MUN":"017","CVEGEO":"22017","NOMGEO":"Tequisquiapan"}},
{"type":"Feature","geometry":{"type":"Polygon","coordinates":[[[-99.7056,21.5707],[-99.7467,21.5784],[-99.7528,21.5439],[-99.7493,21.5232],[-99.7699,21.5077],[-99.7773,21.495],[-99.7722,21.4673],[-99.7797,21.4393],[-99.7791,21.3949],[-99.7755,21.375],[-99.7945,21.3574],[-99.784,21.3201],[-99.7579,21.2921],[-99.7342,21.3014],[-99.7373,21.3129],[-99.7076,21.3145],[-99.6856,21.3083],[-99.6736,21.2969],[-99.662,21.2927],[-99.6403,21.3076],[-99.633,21.3285],[-99.6411,21.3379],[-99.5993,21.3581],[-99.5845,21.3448],[-99.6006,21.3306],[-99.5796,21.3049],[-99.5754,21.2867],[-99.5524,21.2914],[-99.5365,21.2867],[-99.5183,21.2861],[-99.4857,21.3074],[-99.4956,21.3271],[-99.4584,21.3214],[-99.4613,21.3321],[-99.4228,21.3405],[-99.4112,21.3472],[-99.4202,21.3879],[-99.4374,21.387],[-99.4594,21.425],[-99.4718,21.436],[-99.5013,21.4185],[-99.5373,21.4315],[-99.551,21.4282],[-99.5498,21.4473],[-99.5644,21.4537],[-99.6258,21.5073],[-99.6304,21.5198],[-99.6602,21.5672],[-99.6858,21.572],[-99.7056,21.5707]]]},"properties":{"CVE_ENT":"22","CVE_MUN":"003","CVEGEO":"22003","NOMGEO":"Arroyo Seco"}},
{"type":"Feature","geometry":{"type":"Polygon","coordinates":[[[-99.6669,21.0026],[-99.6568,21.0152],[-99.6937,21.0221],[-99.6853,21.0691],[-99.692,21.0806],[-99.6877,21.1171],[-99.7012,21.1186],[-99.6941,21.138],[-99.7158,21.1828],[-99.686,21.1982],[-99.6835,21.2219],[-99.6934,21.2359],[-99.6955,21.2282],[-99.7385,21.2358],[-99.7465,21.2253],[-99.7754,21.2049],[-99.777,21.1959],[-99.8291,21.1579],[-99.8716,21.1697],[-99.8882,21.1696],[-99.9042,21.1853],[-99.9409,21.1938],[-99.9479,21.2124],[-99.9864,21.2183],[-100.0111,21.1895],[-99.9964,21.1826],[-100.0171,21.1224],[-100.0275,21.1003],[-100.0219,21.093],[-100.0263,21.074],[-100.0147,21.051],[-100.0113,21.0408],[-99.9767,21.044],[-99.9566,21.0558],[-99.9417,21.0706],[-99.9353,21.0467],[-99.9203,21.0619],[-99.8905,21.0461],[-99.8719,21.03],[-99.8643,21.035],[-99.8339,21.0008],[-99.818,21.0236],[-99.7891,20.9547],[-99.7221,20.9443],[-99.7117,20.9662],[-99.6987,20.9668],[-99.6922,20.9903],[-99.6811,20.985],[-99.6669,21.0026]]]},"properties":{"CVE_ENT":"22","CVE_MUN":"013","CVEGEO":"22013","NOMGEO":"Peñamiller"}},
{"type":"Feature","geometry":{"type":"Polygon","coordinates":[[[-99.874,20.7641],[-99.8977,20.7531],[-99.9141,20.7585],[-99.9409,20.7547],[-99.9662,20.7574],[-99.9685,20.7258],[-99.9421,20.7168],[-99.9362,20.6861],[-99.9519,20.6868],[-99.9535,20.6596],[-99.9689,20.6497],[-99.9892,20.6522],[-99.9916,20.636],[-99.9544,20.6351],[-99.9389,20.6192],[-99.9187,20.6323],[-99.9016,20.6049],[-99.8971,20.5834],[-99.8743,20.5901],[-99.857,20.5895],[-99.8526,20.5737],[-99.8706,20.5568],[-99.8281,20.5425],[-99.8281,20.543],[-99.8246,20.5422],[-99.8223,20.5408],[-99.803,20.5455],[-99.7793,20.5593],[-99.7459,20.5593],[-99.7353,20.5649],[-99.7463,20.5705],[-99.7612,20.573],[-99.7663,20.5928],[-99.7484,20.6017],[-99.7645,20.6392],[-99.7888,20.6386],[-99.787,20.6605],[-99.8083,20.6573],[-99.8287,20.6701],[-99.8466,20.6527],[-99.8581,20.6821],[-99.8625,20.7074],[-99.8496,20.7183],[-99.8671,20.7258],[-99.8657,20.742],[-99.8452,20.751],[-99.8463,20.7622],[-99.874,20.7641]]]},"properties":{"CVE_ENT":"22","CVE_MUN":"007","CVEGEO":"22007","NOMGEO":"Ezequiel Montes"}},
{"type":"Feature","geometry":{"type":"Polygon","coordinates":[[[-99.3899,21.1024],[-99.4027,21.1164],[-99.4192,21.1031],[-99.4302,21.1032],[-99.4356,21.0817],[-99.4479,21.0648],[-99.4749,21.0556],[-99.4771,21.0461],[-99.5039,21.0341],[-99.5159,20.9994],[-99.5298,20.9872],[-99.5596,20.9772],[-99.5894,20.9829],[-99.6091,20.9797],[-99.6497,20.9849],[-99.6518,20.9792],[-99.6858,20.9685],[-99.6813,20.9413],[-99.6708,20.9409],[-99.6487,20.9071],[-99.6398,20.9104],[-99.5849,20.9032],[-99.5853,20.885],[-99.5585,20.882],[-99.5429,20.9023],[-99.5217,20.903],[-99.5276,20.9215],[-99.5074,20.9351],[-99.475,20.9333],[-99.4668,20.9751],[-99.4717,20.9872],[-99.4584,21.0119],[-99.4415,21.0161],[-99.3999,21.0142],[-99.3972,21.0133],[-99.384,21.0097],[-99.3681,21.0256],[-99.3639,21.0485],[-99.3719,21.0558],[-99.3727,21.0734],[-99.3896,21.0718],[-99.3995,21.0941],[-99.3899,21.1024]]]},"properties":{"CVE_ENT":"22","CVE_MUN":"015","CVEGEO":"22015","NOMGEO":"San Joaquín"}},
{"type":"Feature","geometry":{"type":"Polygon","coordinates":[[[-99.7891,20.9547],[-99.818,21.0236],[-99.8339,21.0008],[-99.8643,21.035],[-99.8719,21.03],[-99.8905,21.0461],[-99.9203,21.0619],[-99.9353,21.0467],[-99.9417,21.0706],[-99.9566,21.0558],[-99.9767,21.044],[-100.0113,21.0408],[-100.0111,21.0285],[-100.0226,21.0146],[-100.0612,21.0285],[-100.0607,21.0058],[-100.0739,20.9897],[-100.078,20.9727],[-100.0688,20.9579],[-100.0807,20.9499],[-100.0642,20.9363],[-100.0923,20.9317],[-100.09,20.9055],[-100.0815,20.8886],[-100.061,20.8915],[-100.0365,20.8709],[-100.0248,20.8484],[-100.0068,20.8456],[-100.0159,20.8278],[-99.9475,20.8142],[-99.9523,20.7944],[-99.9642,20.779],[-99.9662,20.7574],[-99.9409,20.7547],[-99.9141,20.7585],[-99.8977,20.7531],[-99.874,20.7641],[-99.8589,20.7883],[-99.8332,20.7882],[-99.799,20.8108],[-99.8076,20.8317],[-99.8224,20.8416],[-99.8062,20.8649],[-99.8246,20.8744],[-99.8437,20.8721],[-99.8817,20.905],[-99.8739,20.9237],[-99.8321,20.925],[-99.7903,20.9177],[-99.8059,20.9498],[-99.7891,20.9547]]]},"properties":{"CVE_ENT":"22","CVE_MUN":"018","CVEGEO":"22018","NOMGEO":"Tolimán"}},
{"type":"Feature","geometry":{"type":"Polygon","coordinates":[[[-99.5365,21.2867],[-99.5524,21.2914],[-99.5754,21.2867],[-99.5796,21.3049],[-99.6006,21.3306],[-99.5845,21.3448],[-99.5993,21.3581],[-99.6411,21.3379],[-99.633,21.3285],[-99.6403,21.3076],[-99.662,21.2927],[-99.6736,21.2969],[-99.6982,21.2682],[-99.6987,21.2408],[-99.6934,21.2359],[-99.6835,21.2219],[-99.686,21.1982],[-99.7158,21.1828],[-99.6941,21.138],[-99.7012,21.1186],[-99.6877,21.1171],[-99.692,21.0806],[-99.6853,21.0691],[-99.6937,21.0221],[-99.6568,21.0152],[-99.6669,21.0026],[-99.6497,20.9849],[-99.6091,20.9797],[-99.5894,20.9829],[-99.5596,20.9772],[-99.5298,20.9872],[-99.5159,20.9994],[-99.5039,21.0341],[-99.4771,21.0461],[-99.4749,21.0556],[-99.4479,21.0648],[-99.4356,21.0817],[-99.4302,21.1032],[-99.4403,21.1147],[-99.4531,21.106],[-99.4806,21.1269],[-99.4964,21.1459],[-99.4974,21.1582],[-99.5337,21.161],[-99.5327,21.1771],[-99.5133,21.1884],[-99.5079,21.2152],[-99.5233,21.2228],[-99.5299,21.251],[-99.5201,21.2539],[-99.5365,21.2867]]]},"properties":{"CVE_ENT":"22","CVE_MUN":"002","CVEGEO":"22002","NOMGEO":"Pinal de Amoles"}},
{"type":"Feature","geometry":{"type":"Polygon","coordinates":[[[-100.3452,20.553],[-100.3477,20.5525],[-100.3594,20.5505],[-100.3581,20.5305],[-100.3814,20.5225],[-100.3709,20.4884],[-100.3928,20.4834],[-100.3841,20.4567],[-100.3915,20.4258],[-100.3852,20.4162],[-100.4013,20.4072],[-100.4005,20.3617],[-100.394,20.3502],[-100.3908,20.3364],[-100.392,20.3143],[-100.3792,20.3019],[-100.3698,20.3026],[-100.3507,20.2884],[-100.3458,20.298],[-100.3075,20.2856],[-100.2589,20.2902],[-100.2477,20.3219],[-100.2172,20.3189],[-100.1953,20.3294],[-100.1834,20.3594],[-100.196,20.3666],[-100.1975,20.3604],[-100.253,20.3585],[-100.2582,20.3707],[-100.2531,20.3977],[-100.2705,20.3934],[-100.2812,20.4062],[-100.2779,20.4174],[-100.2967,20.4504],[-100.2728,20.4504],[-100.2475,20.4588],[-100.2528,20.478],[-100.2401,20.5037],[-100.2195,20.5192],[-100.2323,20.5324],[-100.3008,20.5197],[-100.3026,20.5065],[-100.3221,20.5009],[-100.3452,20.553]]]},"properties":{"CVE_ENT":"22","CVE_MUN":"008","CVEGEO":"22008","NOMGEO":"Huimilpan"}},
{"type":"Feature","geometry":{"type":"Polygon","coordinates":[[[-99.8354,20.4778],[-99.8584,20.459],[-99.8777,20.4666],[-99.8867,20.4616],[-99.9115,20.4643],[-99.9132,20.4445],[-99.9391,20.4316],[-99.9648,20.465],[-99.9702,20.491],[-99.9981,20.4952],[-99.9953,20.5149],[-100.007,20.5364],[-100.0311,20.5259],[-100.0365,20.5472],[-100.067,20.5408],[-100.0667,20.5264],[-100.0617,20.502],[-100.0753,20.4685],[-100.0931,20.4733],[-100.0925,20.4552],[-100.1016,20.4397],[-100.1343,20.4377],[-100.1414,20.4148],[-100.157,20.417],[-100.1875,20.374],[-100.196,20.3666],[-100.1834,20.3594],[-100.1756,20.3413],[-100.1486,20.3219],[-100.1127,20.3144],[-100.0954,20.3143],[-100.0791,20.3054],[-100.0763,20.2862],[-100.0949,20.2612],[-100.0763,20.2482],[-100.0574,20.2437],[-100.0688,20.2272],[-100.0407,20.2188],[-100.0212,20.2074],[-99.9883,20.2349],[-99.9806,20.2346],[-99.978,20.2379],[-99.9788,20.2403],[-99.9812,20.2439],[-99.9795,20.2471],[-99.9809,20.2531],[-99.9849,20.2648],[-99.9607,20.2545],[-99.9527,20.24],[-99.9509,20.2159],[-99.9184,20.2118],[-99.934,20.2504],[-99.9304,20.2649],[-99.9133,20.2859],[-99.8774,20.2714],[-99.8591,20.2685],[-99.8354,20.4778]]]},"properties":{"CVE_ENT":"22","CVE_MUN":"016","CVEGEO":"22016","NOMGEO":"San Juan del Río"}},
{"type":"Feature","geometry":{"type":"Polygon","coordinates":[[[-100.3336,20.8907],[-100.3944,20.8922],[-100.4128,20.8878],[-100.454,20.9002],[-100.4532,20.9232],[-100.4722,20.9284],[-100.47,20.907],[-100.485,20.9008],[-100.5073,20.8695],[-100.502,20.8529],[-100.5593,20.8299],[-100.5755,20.8184],[-100.5583,20.8046],[-100.5641,20.7747],[-100.5481,20.7496],[-100.5489,20.7364],[-100.5829,20.7295],[-100.5965,20.7173],[-100.5813,20.6929],[-100.5823,20.6768],[-100.5619,20.6714],[-100.5511,20.6338],[-100.5295,20.6387],[-100.5184,20.6258],[-100.4961,20.6157],[-100.4888,20.5944],[-100.4333,20.5899],[-100.4237,20.5599],[-100.3918,20.5553],[-100.3826,20.5235],[-100.3581,20.5305],[-100.3594,20.5505],[-100.3477,20.5525],[-100.3454,20.5532],[-100.3459,20.5564],[-100.3484,20.5585],[-100.3486,20.5585],[-100.3486,20.5587],[-100.3487,20.5587],[-100.3488,20.5589],[-100.3493,20.5596],[-100.3505,20.5609],[-100.3373,20.5646],[-100.3297,20.5609],[-100.3317,20.5697],[-100.3457,20.5792],[-100.343,20.6013],[-100.3354,20.6181],[-100.3443,20.6409],[-100.3428,20.6671],[-100.3593,20.6817],[-100.3602,20.6907],[-100.3877,20.6961],[-100.3838,20.7456],[-100.3888,20.7541],[-100.3825,20.7728],[-100.4025,20.7801],[-100.4004,20.8067],[-100.3843,20.8174],[-100.3701,20.8385],[-100.3481,20.8475],[-100.3322,20.8825],[-100.3336,20.8907]]]},"properties":{"CVE_ENT":"22","CVE_MUN":"014","CVEGEO":"22014","NOMGEO":"Querétaro"}},
{"type":"Feature","geometry":{"type":"Polygon","coordinates":[[[-99.1881,21.6699],[-99.2172,21.6669],[-99.2251,21.6333],[-99.2339,21.6288],[-99.2435,21.6151],[-99.2794,21.6082],[-99.2815,21.5838],[-99.274,21.5678],[-99.3074,21.532],[-99.3331,21.5379],[-99.3458,21.5506],[-99.3759,21.5479],[-99.3779,21.5278],[-99.372,21.5071],[-99.3873,21.4941],[-99.3823,21.4815],[-99.4046,21.4289],[-99.4155,21.4291],[-99.4351,21.4496],[-99.447,21.4436],[-99.4691,21.4468],[-99.4718,21.436],[-99.4594,21.425],[-99.4374,21.387],[-99.4202,21.3879],[-99.4112,21.3472],[-99.4228,21.3405],[-99.4613,21.3321],[-99.4584,21.3214],[-99.4956,21.3271],[-99.4857,21.3074],[-99.5183,21.2861],[-99.5365,21.2867],[-99.5201,21.2539],[-99.5299,21.251],[-99.5233,21.2228],[-99.5079,21.2152],[-99.5133,21.1884],[-99.5327,21.1771],[-99.5337,21.161],[-99.4974,21.1582],[-99.4964,21.1459],[-99.4806,21.1269],[-99.4531,21.106],[-99.4403,21.1147],[-99.4302,21.1032],[-99.4192,21.1031],[-99.4027,21.1164],[-99.3899,21.1024],[-99.3459,21.1012],[-99.336,21.1301],[-99.3513,21.1402],[-99.35,21.1537],[-99.3611,21.1628],[-99.3472,21.1738],[-99.3684,21.1981],[-99.341,21.1967],[-99.3476,21.2318],[-99.3329,21.2406],[-99.3163,21.2199],[-99.3,21.2343],[-99.3043,21.258],[-99.2925,21.2732],[-99.2714,21.284],[-99.2667,21.3107],[-99.2392,21.3393],[-99.2475,21.35],[-99.2448,21.3648],[-99.2187,21.4011],[-99.2247,21.4172],[-99.2253,21.4497],[-99.197,21.4541],[-99.1784,21.4377],[-99.1589,21.4303],[-99.1367,21.4628],[-99.1224,21.4534],[-99.1293,21.4868],[-99.1295,21.5004],[-99.1423,21.5354],[-99.1281,21.5834],[-99.1306,21.5966],[-99.1719,21.627],[-99.1817,21.6614],[-99.1881,21.6699]]]},"properties":{"CVE_ENT":"22","CVE_MUN":"009","CVEGEO":"22009","NOMGEO":"Jalpan de Serra"}},
{"type":"Feature","geometry":{"type":"Polygon","coordinates":[[[-99.1224,21.4534],[-99.1367,21.4628],[-99.1589,21.4303],[-99.1784,21.4377],[-99.197,21.4541],[-99.2253,21.4497],[-99.2247,21.4172],[-99.2187,21.4011],[-99.2448,21.3648],[-99.2475,21.35],[-99.2392,21.3393],[-99.2667,21.3107],[-99.2714,21.284],[-99.2925,21.2732],[-99.3043,21.258],[-99.3,21.2343],[-99.3163,21.2199],[-99.3329,21.2406],[-99.3476,21.2318],[-99.341,21.1967],[-99.3684,21.1981],[-99.3472,21.1738],[-99.3611,21.1628],[-99.35,21.1537],[-99.3513,21.1402],[-99.336,21.1301],[-99.3086,21.1473],[-99.2826,21.1306],[-99.2823,21.1221],[-99.2572,21.1049],[-99.2436,21.1039],[-99.2154,21.1062],[-99.2055,21.119],[-99.1809,21.1266],[-99.1749,21.1385],[-99.1326,21.153],[-99.0913,21.153],[-99.0548,21.1594],[-99.0431,21.1787],[-99.0524,21.2195],[-99.0735,21.2304],[-99.0699,21.2431],[-99.0512,21.2534],[-99.0551,21.2825],[-99.083,21.2963],[-99.1043,21.2896],[-99.1058,21.302],[-99.1217,21.3102],[-99.1378,21.3298],[-99.1295,21.362],[-99.0926,21.3634],[-99.0981,21.4084],[-99.1224,21.4534]]]},"properties":{"CVE_ENT":"22","CVE_MUN":"010","CVEGEO":"22010","NOMGEO":"Landa de Matamoros"}}
]}