{"type":"FeatureCollection", "features": [
{"type":"Feature","geometry":{"type":"MultiPolygon","coordinates":[[[[-87.1058,21.5253],[-87.1106,21.4772],[-87.1318,21.4597],[-87.1584,21.4633],[-87.1666,21.4497],[-87.1884,21.4397],[-87.2141,21.4439],[-87.2282,21.4305],[-87.2441,21.4263],[-87.2585,21.4378],[-87.2721,21.4323],[-87.2905,21.4392],[-87.3158,21.4414],[-87.3388,21.4324],[-87.3546,21.4463],[-87.3788,21.4546],[-87.4028,21.4572],[-87.4376,21.4689],[-87.4625,21.4577],[-87.4777,21.4584],[-87.4872,21.4681],[-87.4883,21.4852],[-87.5349,21.4902],[-87.534,21.242],[-87.5331,20.9996],[-87.6757,20.7663],[-87.7437,20.6548],[-87.6113,20.6527],[-87.6136,20.5999],[-87.522,20.5928],[-87.5238,20.6606],[-87.3788,20.6585],[-87.2524,20.6582],[-87.2684,20.6687],[-87.2383,20.7002],[-87.2458,20.7059],[-87.1919,20.7628],[-87.192,20.871],[-87.3234,20.872],[-87.3204,21.1012],[-87.1569,21.0981],[-87.0972,21.0987],[-87.0972,21.212],[-87.0972,21.362],[-87.1058,21.3625],[-87.1058,21.5253]]],[[[-87.1058,21.578],[-87.1288,21.5539],[-87.1058,21.547],[-87.1058,21.578]]],[[[-87.1058,21.5996],[-87.1058,21.6014],[-87.1058,21.6049],[-87.1471,21.5714],[-87.2088,21.5468],[-87.2496,21.5402],[-87.2703,21.5403],[-87.308,21.5481],[-87.3349,21.5662],[-87.3601,21.5401],[-87.3972,21.5123],[-87.3863,21.5043],[-87.3757,21.5192],[-87.3608,21.5224],[-87.3574,21.5347],[-87.3366,21.5414],[-87.3152,21.534],[-87.2929,21.5198],[-87.2718,21.5253],[-87.2074,21.525],[-87.1665,21.5563],[-87.1388,21.5624],[-87.1263,21.5713],[-87.1205,21.5892],[-87.1058,21.5979],[-87.1058,21.5996]]]]},"properties":{"CVE_ENT":"23","CVE_MUN":"007","CVEGEO":"23007","NOMGEO":"Lázaro Cárdenas"}},
{"type":"Feature","geometry":{"type":"Polygon","coordinates":[[[-87.3036,20.4106],[-87.3296,20.4123],[-87.3483,20.442],[-87.3637,20.4384],[-87.3816,20.4467],[-87.4081,20.4045],[-87.3648,20.3815],[-87.3778,20.3569],[-87.4484,20.3941],[-87.5253,20.3741],[-87.581,20.442],[-87.5895,20.4692],[-87.6356,20.5158],[-87.7705,20.5161],[-87.8463,20.4413],[-87.8793,20.4447],[-87.9627,20.4467],[-87.9951,20.4473],[-87.9827,20.3107],[-87.9735,20.2096],[-87.628,20.2065],[-87.628,20.1346],[-87.5,20.1345],[-87.5,19.8071],[-87.473,19.8569],[-87.4619,19.8611],[-87.4553,19.8835],[-87.4641,19.8955],[-87.4574,19.9282],[-87.468,19.9804],[-87.4643,19.9945],[-87.4765,20.0002],[-87.478,20.076],[-87.4728,20.1023],[-87.4579,20.1498],[-87.4225,20.2273],[-87.3812,20.2788],[-87.3647,20.294],[-87.3559,20.3115],[-87.3579,20.3247],[-87.3406,20.3432],[-87.3191,20.3914],[-87.3036,20.4106]]]},"properties":{"CVE_ENT":"23","CVE_MUN":"009","CVEGEO":"23009","NOMGEO":"Tulum"}},
{"type":"Feature","geometry":{"type":"Polygon","coordinates":[[[-88.7175,19.2182],[-88.7174,19.2311],[-89.027,19.228],[-89.147,19.2266],[-89.147,19.1332],[-89.1358,19.1324],[-89.1471,18.995],[-89.1486,18.8773],[-89.0663,18.8876],[-89.0618,18.8574],[-89.0065,18.8653],[-89.0067,18.8169],[-88.9651,18.8168],[-88.9662,18.7976],[-88.9237,18.7956],[-88.923,18.8186],[-88.8268,18.8199],[-88.8249,18.7592],[-88.7538,18.7595],[-88.753,18.6602],[-88.7531,18.6432],[-88.7532,18.6261],[-88.587,18.6274],[-88.5853,18.6582],[-88.5604,18.6491],[-88.4138,18.6277],[-88.4115,18.6427],[-88.3886,18.6625],[-88.3799,18.6819],[-88.3804,18.6982],[-88.3644,18.7154],[-88.3459,18.7223],[-88.3062,18.7566],[-88.2975,18.7846],[-88.2755,18.8009],[-88.2494,18.8489],[-88.2231,18.8777],[-88.2055,18.8679],[-88.1854,18.8691],[-88.1711,18.9006],[-88.144,18.9003],[-88.1389,18.9276],[-88.0849,18.9278],[-88.0873,18.9771],[-88.0487,18.9805],[-87.6483,18.9765],[-87.6178,18.9626],[-87.6142,18.9625],[-87.6125,18.9667],[-87.6095,18.9716],[-87.5854,19.0181],[-87.562,19.0686],[-87.5497,19.0847],[-87.55,19.1186],[-88.017,19.1166],[-88.0792,19.1264],[-88.1447,19.1404],[-88.1681,19.1424],[-88.173,19.1502],[-88.2084,19.1566],[-88.2245,19.1012],[-88.2425,19.0518],[-88.3879,19.094],[-88.4236,19.0969],[-88.3989,19.1727],[-88.3852,19.1982],[-88.4147,19.1981],[-88.4738,19.1939],[-88.4849,19.2025],[-88.5555,19.2016],[-88.5553,19.1895],[-88.5899,19.1895],[-88.5899,19.2123],[-88.5984,19.2182],[-88.67,19.2176],[-88.7175,19.2182]]]},"properties":{"CVE_ENT":"23","CVE_MUN":"010","CVEGEO":"23010","NOMGEO":"Bacalar"}},
{"type":"Feature","geometry":{"type":"Polygon","coordinates":[[[-87.3036,20.4106],[-87.2765,20.4513],[-87.2669,20.4572],[-87.2469,20.4833],[-87.2313,20.4974],[-87.169,20.5358],[-87.1393,20.5645],[-87.1417,20.5818],[-87.1575,20.5697],[-87.1924,20.5851],[-87.1793,20.5979],[-87.1389,20.5886],[-87.1182,20.5778],[-87.0981,20.5947],[-87.0589,20.6366],[-87.0553,20.6448],[-87.0218,20.6743],[-87.0081,20.7042],[-86.9624,20.7305],[-86.9642,20.7478],[-86.9464,20.7683],[-86.9207,20.8121],[-87.0797,20.8114],[-87.1919,20.7628],[-87.2458,20.7059],[-87.2383,20.7002],[-87.2684,20.6687],[-87.2524,20.6582],[-87.3788,20.6585],[-87.5238,20.6606],[-87.522,20.5928],[-87.6136,20.5999],[-87.6113,20.6527],[-87.7437,20.6548],[-87.7443,20.6538],[-87.9627,20.4467],[-87.8793,20.4447],[-87.8463,20.4413],[-87.7705,20.5161],[-87.6356,20.5158],[-87.5895,20.4692],[-87.581,20.442],[-87.5253,20.3741],[-87.4484,20.3941],[-87.3778,20.3569],[-87.3648,20.3815],[-87.4081,20.4045],[-87.3816,20.4467],[-87.3637,20.4384],[-87.3483,20.442],[-87.3296,20.4123],[-87.3036,20.4106]]]},"properties":{"CVE_ENT":"23","CVE_MUN":"008","CVEGEO":"23008","NOMGEO":"Playa del Carmen"}},
{"type":"Feature","geometry":{"type":"Polygon","coordinates":[[[-87.9827,20.3107],[-87.993,20.418],[-88.1365,20.2814],[-88.1672,20.2854],[-88.2327,20.287],[-88.2646,20.2903],[-88.273,20.2699],[-88.3088,20.2535],[-88.3519,20.259],[-88.4091,20.2521],[-88.4151,20.233],[-88.4434,20.2381],[-88.5199,20.1923],[-88.5023,20.1901],[-88.4471,20.182],[-88.4225,20.1541],[-88.4369,20.0523],[-88.4971,20.0586],[-88.4983,20.0382],[-88.4753,20.0377],[-88.4756,20.0184],[-88.4842,20.0099],[-88.4432,20.0068],[-88.4406,20.0226],[-88.3914,20.0161],[-88.3934,19.9577],[-88.4685,19.957],[-88.4684,19.8914],[-88.484,19.8918],[-88.5129,19.7826],[-88.5284,19.7454],[-88.5489,19.7493],[-88.5759,19.6382],[-88.5906,19.6341],[-88.6331,19.6434],[-88.6533,19.6286],[-88.6306,19.5975],[-88.6186,19.5963],[-88.6227,19.4487],[-88.6452,19.4572],[-88.6926,19.4622],[-88.6994,19.4039],[-88.6747,19.4032],[-88.6689,19.3947],[-88.6752,19.3386],[-88.6251,19.338],[-88.6245,19.3024],[-88.6359,19.303],[-88.636,19.2819],[-88.6494,19.282],[-88.6503,19.236],[-88.6552,19.2177],[-88.5984,19.2182],[-88.5899,19.2123],[-88.5899,19.1895],[-88.5553,19.1895],[-88.5555,19.2016],[-88.4849,19.2025],[-88.4738,19.1939],[-88.4147,19.1981],[-88.3852,19.1982],[-88.3989,19.1727],[-88.4236,19.0969],[-88.3879,19.094],[-88.2425,19.0518],[-88.2245,19.1012],[-88.2084,19.1566],[-88.173,19.1502],[-88.1681,19.1424],[-88.1447,19.1404],[-88.0792,19.1264],[-88.017,19.1166],[-87.55,19.1186],[-87.5483,19.1455],[-87.5411,19.1537],[-87.5396,19.1998],[-87.5263,19.23],[-87.5123,19.2396],[-87.4487,19.3091],[-87.4612,19.3199],[-87.4893,19.3264],[-87.5056,19.3224],[-87.5146,19.3093],[-87.5376,19.307],[-87.5623,19.2904],[-87.5934,19.2369],[-87.607,19.23],[-87.6244,19.1917],[-87.6379,19.1819],[-87.6552,19.1811],[-87.6708,19.1899],[-87.6827,19.2126],[-87.6737,19.2239],[-87.6869,19.2348],[-87.6612,19.2607],[-87.6579,19.2821],[-87.6684,19.2914],[-87.6563,19.3028],[-87.6502,19.3393],[-87.636,19.3734],[-87.6189,19.3818],[-87.6053,19.3967],[-87.5887,19.4037],[-87.5539,19.427],[-87.538,19.4131],[-87.5445,19.3914],[-87.5251,19.3956],[-87.4889,19.4386],[-87.4703,19.4455],[-87.4444,19.4689],[-87.4327,19.4861],[-87.4313,19.51],[-87.4143,19.5641],[-87.4101,19.5982],[-87.4264,19.6172],[-87.4451,19.6228],[-87.4562,19.6158],[-87.4517,19.596],[-87.4819,19.5879],[-87.5072,19.5867],[-87.515,19.5631],[-87.5353,19.5574],[-87.5539,19.5641],[-87.5825,19.5565],[-87.6145,19.5528],[-87.6329,19.5383],[-87.6504,19.5052],[-87.6717,19.5075],[-87.6641,19.5211],[-87.6779,19.5377],[-87.6694,19.55],[-87.6764,19.5638],[-87.702,19.5502],[-87.7124,19.5577],[-87.7093,19.5743],[-87.7285,19.5764],[-87.7437,19.5902],[-87.7396,19.6432],[-87.7422,19.6637],[-87.7322,19.6691],[-87.6818,19.6822],[-87.6457,19.68],[-87.6293,19.7096],[-87.6155,19.7248],[-87.5787,19.7903],[-87.5627,19.8039],[-87.5452,19.7957],[-87.5147,19.7991],[-87.5,19.8071],[-87.5,20.1345],[-87.628,20.1346],[-87.628,20.2065],[-87.9735,20.2096],[-87.9827,20.3107]]]},"properties":{"CVE_ENT":"23","CVE_MUN":"002","CVEGEO":"23002","NOMGEO":"Felipe Carrillo Puerto"}},
{"type":"Feature","geometry":{"type":"Polygon","coordinates":[[[-89.147,19.2266],[-89.027,19.228],[-88.7174,19.2311],[-88.7175,19.2182],[-88.6552,19.2177],[-88.6503,19.236],[-88.6494,19.282],[-88.636,19.2819],[-88.6359,19.303],[-88.6245,19.3024],[-88.6251,19.338],[-88.6752,19.3386],[-88.6689,19.3947],[-88.6747,19.4032],[-88.6994,19.4039],[-88.6926,19.4622],[-88.6452,19.4572],[-88.6227,19.4487],[-88.6207,19.5336],[-88.6192,19.5784],[-88.6186,19.5963],[-88.6306,19.5975],[-88.6533,19.6286],[-88.6331,19.6434],[-88.5906,19.6341],[-88.5759,19.6382],[-88.5489,19.7493],[-88.5284,19.7454],[-88.5129,19.7826],[-88.484,19.8918],[-88.4684,19.8914],[-88.4685,19.957],[-88.3934,19.9577],[-88.3914,20.0161],[-88.4406,20.0226],[-88.4432,20.0068],[-88.4842,20.0099],[-88.4756,20.0184],[-88.4753,20.0377],[-88.4983,20.0382],[-88.4971,20.0586],[-88.4369,20.0523],[-88.4225,20.1541],[-88.4471,20.182],[-88.5023,20.1901],[-88.5041,20.1747],[-88.5041,20.1743],[-88.5076,20.1434],[-88.5767,20.1481],[-88.588,20.1315],[-88.6127,20.1331],[-88.6192,20.1172],[-88.6399,20.1204],[-88.6906,20.0899],[-88.6849,20.0774],[-88.6918,20.0292],[-88.7002,20.0104],[-88.7425,20.0151],[-88.7715,20.0135],[-88.7835,20.0082],[-88.798,19.9749],[-88.7984,19.9525],[-88.8102,19.9449],[-88.8097,19.926],[-88.8273,19.9105],[-88.8204,19.8905],[-88.833,19.8782],[-88.8802,19.8781],[-88.8791,19.8624],[-88.9005,19.8611],[-88.8976,19.8369],[-88.9295,19.7909],[-88.9454,19.7919],[-88.9439,19.8134],[-88.9564,19.8168],[-88.9745,19.8181],[-88.9995,19.798],[-89.0041,19.772],[-89.0252,19.7767],[-89.0488,19.7215],[-88.9947,19.7274],[-88.9975,19.7049],[-89.0305,19.7088],[-89.0362,19.678],[-89.076,19.6854],[-89.0742,19.6942],[-89.1234,19.7034],[-89.1336,19.6146],[-89.1084,19.6123],[-89.109,19.5823],[-89.1495,19.5812],[-89.1449,19.6374],[-89.1892,19.644],[-89.1902,19.6333],[-89.2229,19.6367],[-89.2196,19.608],[-89.2966,19.5512],[-89.1467,19.4239],[-89.147,19.2266]]]},"properties":{"CVE_ENT":"23","CVE_MUN":"006","CVEGEO":"23006","NOMGEO":"José María Morelos"}},
{"type":"Feature","geometry":{"type":"Polygon","coordinates":[[[-87.0972,21.212],[-86.8018,21.212],[-86.801,21.2387],[-86.8159,21.2833],[-86.8116,21.303],[-86.7904,21.3456],[-86.7898,21.3887],[-86.8039,21.4],[-86.8222,21.4047],[-86.7949,21.3655],[-86.7925,21.3424],[-86.8021,21.3258],[-86.8205,21.3171],[-86.8315,21.2818],[-86.8297,21.265],[-86.837,21.2475],[-86.8485,21.2519],[-86.8535,21.2763],[-86.8614,21.2872],[-86.8618,21.3231],[-86.8745,21.3445],[-86.8858,21.3882],[-86.8867,21.4035],[-86.9193,21.4407],[-86.9388,21.4738],[-86.9525,21.4886],[-86.9523,21.5147],[-86.984,21.5542],[-86.9974,21.5483],[-86.9696,21.5291],[-86.9821,21.5194],[-86.9994,21.5359],[-87.0087,21.5546],[-87.0273,21.5578],[-87.0686,21.5716],[-87.0857,21.5894],[-87.1058,21.578],[-87.1058,21.547],[-87.1058,21.5253],[-87.1058,21.3625],[-87.0972,21.362],[-87.0972,21.212]]]},"properties":{"CVE_ENT":"23","CVE_MUN":"003","CVEGEO":"23003","NOMGEO":"Isla Mujeres"}},
{"type":"Feature","geometry":{"type":"Polygon","coordinates":[[[-86.8378,20.9355],[-86.8597,20.9321],[-87.0797,20.9315],[-87.0787,21.0988],[-87.0972,21.0987],[-87.1569,21.0981],[-87.3204,21.1012],[-87.3234,20.872],[-87.192,20.871],[-87.1919,20.7628],[-87.0797,20.8114],[-86.9047,20.8124],[-86.8748,20.8473],[-86.8597,20.8925],[-86.8463,20.9055],[-86.8378,20.9355]]]},"properties":{"CVE_ENT":"23","CVE_MUN":"011","CVEGEO":"23011","NOMGEO":"Puerto Morelos"}},
{"type":"Feature","geometry":{"type":"Polygon","coordinates":[[[-86.8378,20.9355],[-86.835,20.9545],[-86.8219,21.0013],[-86.8098,21.0292],[-86.7877,21.0298],[-86.7788,21.0602],[-86.7587,21.1116],[-86.7469,21.1314],[-86.8,21.1576],[-86.8071,21.1809],[-86.8018,21.212],[-87.0972,21.212],[-87.0972,21.0987],[-87.0787,21.0988],[-87.0797,20.9315],[-86.8597,20.9321],[-86.8378,20.9355]]]},"properties":{"CVE_ENT":"23","CVE_MUN":"005","CVEGEO":"23005","NOMGEO":"Benito Juárez"}},
{"type":"Feature","geometry":{"type":"MultiPolygon","coordinates":[[[[-87.1793,20.5979],[-87.1924,20.5851],[-87.1575,20.5697],[-87.1389,20.5886],[-87.1793,20.5979]]],[[[-86.7299,20.5695],[-86.7232,20.5904],[-86.7899,20.5563],[-86.8543,20.5499],[-86.8702,20.5375],[-86.8816,20.5577],[-86.8992,20.562],[-86.9275,20.5508],[-86.9463,20.5159],[-86.9605,20.5018],[-86.9848,20.4631],[-86.9904,20.4487],[-87.0061,20.4328],[-87.017,20.4116],[-87.0253,20.367],[-87.021,20.3387],[-86.9944,20.2745],[-86.9876,20.2719],[-86.9578,20.2922],[-86.929,20.3159],[-86.9139,20.3369],[-86.898,20.3458],[-86.8769,20.3811],[-86.8306,20.4381],[-86.8181,20.4383],[-86.7956,20.4625],[-86.7634,20.5071],[-86.7299,20.5695]]]]},"properties":{"CVE_ENT":"23","CVE_MUN":"001","CVEGEO":"23001","NOMGEO":"Cozumel"}},
{"type":"Feature","geometry":{"type":"MultiPolygon","coordinates":[[[[-87.3619,18.3851],[-87.3296,18.4389],[-87.3229,18.4566],[-87.32,18.4926],[-87.3309,18.5244],[-87.337,18.523],[-87.328,18.472],[-87.3322,18.4438],[-87.361,18.4064],[-87.3619,18.3851]]],[[[-87.2738,18.7394],[-87.2789,18.7379],[-87.2665,18.7004],[-87.2535,18.673],[-87.2571,18.6429],[-87.2474,18.6453],[-87.2458,18.6851],[-87.2521,18.6904],[-87.2669,18.7322],[-87.2738,18.7394]]],[[[-87.6483,18.9765],[-88.0487,18.9805],[-88.0873,18.9771],[-88.0849,18.9278],[-88.1389,18.9276],[-88.144,18.9003],[-88.1711,18.9006],[-88.1854,18.8691],[-88.2055,18.8679],[-88.2231,18.8777],[-88.2494,18.8489],[-88.2755,18.8009],[-88.2975,18.7846],[-88.3062,18.7566],[-88.3459,18.7223],[-88.3644,18.7154],[-88.3804,18.6982],[-88.3799,18.6819],[-88.3886,18.6625],[-88.4115,18.6427],[-88.4138,18.6277],[-88.5604,18.6491],[-88.5853,18.6582],[-88.587,18.6274],[-88.6812,18.6267],[-88.7532,18.6261],[-88.7538,18.7595],[-88.8249,18.7592],[-88.8268,18.8199],[-88.923,18.8186],[-88.9237,18.7956],[-88.9662,18.7976],[-88.9651,18.8168],[-89.0067,18.8169],[-89.0065,18.8653],[-89.0618,18.8574],[-89.0663,18.8876],[-89.1486,18.8773],[-89.1444,18.7559],[-89.1557,18.7531],[-89.1521,18.7357],[-89.1496,18.5496],[-89.1502,18.4511],[-89.1255,18.4506],[-89.1212,18.3858],[-89.1382,18.3855],[-89.1324,18.2934],[-89.1517,18.2936],[-89.1581,18.2213],[-89.1429,18.2242],[-89.1431,18.1458],[-89.2002,18.1446],[-89.2025,18.0833],[-89.1444,18.0824],[-89.1448,18.0577],[-89.1634,18.0579],[-89.163,18.0185],[-89.2067,18.0211],[-89.2059,17.9541],[-89.1362,17.9554],[-89.1242,17.9753],[-89.1116,17.9698],[-89.1013,17.9813],[-89.0764,17.9938],[-89.0586,17.9903],[-89.0375,18.0051],[-89.0216,17.9927],[-89.001,17.9847],[-88.993,17.9597],[-88.9598,17.9517],[-88.9453,17.9527],[-88.9305,17.9414],[-88.9205,17.9158],[-88.8829,17.8962],[-88.8598,17.8945],[-88.8542,17.9101],[-88.8577,17.9246],[-88.8443,17.9403],[-88.8164,17.9494],[-88.7848,17.9862],[-88.7831,18.0002],[-88.7669,18.016],[-88.7708,18.0292],[-88.7315,18.0496],[-88.7167,18.0605],[-88.7196,18.0839],[-88.705,18.1327],[-88.6892,18.1558],[-88.6804,18.1595],[-88.6867,18.1947],[-88.6735,18.1942],[-88.641,18.2167],[-88.6155,18.2233],[-88.6047,18.241],[-88.6065,18.2638],[-88.5973,18.2889],[-88.6058,18.2917],[-88.5798,18.318],[-88.5472,18.3556],[-88.5519,18.3752],[-88.5319,18.4082],[-88.5279,18.4354],[-88.5176,18.4635],[-88.4783,18.4939],[-88.4425,18.4814],[-88.4024,18.4967],[-88.3864,18.4813],[-88.3276,18.4901],[-88.289,18.4753],[-88.2501,18.4731],[-88.2496,18.4156],[-88.0304,18.4148],[-88.0303,18.1604],[-87.9255,18.1602],[-87.9024,18.1427],[-87.8675,18.1882],[-87.8572,18.1825],[-87.8443,18.1909],[-87.8416,18.2293],[-87.8367,18.2478],[-87.8322,18.2962],[-87.8197,18.3313],[-87.804,18.3493],[-87.7885,18.3837],[-87.7713,18.4016],[-87.7614,18.4415],[-87.7643,18.4604],[-87.7623,18.4944],[-87.7571,18.5151],[-87.7448,18.529],[-87.7398,18.5456],[-87.7376,18.5933],[-87.7278,18.6396],[-87.7252,18.6685],[-87.7118,18.7101],[-87.6988,18.7282],[-87.6847,18.7379],[-87.6693,18.7634],[-87.6714,18.7759],[-87.6626,18.8278],[-87.6433,18.8574],[-87.642,18.8843],[-87.6313,18.9057],[-87.6315,18.9264],[-87.6179,18.9494],[-87.6142,18.9625],[-87.6178,18.9626],[-87.6483,18.9765]]]]},"properties":{"CVE_ENT":"23","CVE_MUN":"004","CVEGEO":"23004","NOMGEO":"Othón P. Blanco"}}
]}