{"type":"FeatureCollection", "features": [
{"type":"Feature","geometry":{"type":"Polygon","coordinates":[[[-106.1525,24.3388],[-106.17,24.3337],[-106.1944,24.3518],[-106.2689,24.3748],[-106.3278,24.3611],[-106.3461,24.3449],[-106.3526,24.3165],[-106.363,24.3042],[-106.4295,24.2851],[-106.4697,24.2779],[-106.5083,24.2909],[-106.4629,24.2697],[-106.4631,24.238],[-106.4852,24.24],[-106.5237,24.2272],[-106.5663,24.225],[-106.6049,24.2381],[-106.6131,24.2285],[-106.6059,24.2164],[-106.6058,24.2052],[-106.6207,24.1999],[-106.6216,24.1821],[-106.6426,24.1597],[-106.6739,24.1322],[-106.6781,24.1145],[-106.6748,24.0904],[-106.6587,24.0822],[-106.655,24.0471],[-106.6779,24.0307],[-106.6883,23.9861],[-106.6904,23.9491],[-106.6706,23.9196],[-106.6855,23.8936],[-106.7356,23.8533],[-106.7429,23.8026],[-106.7401,23.7893],[-106.8619,23.7743],[-106.8431,23.7509],[-106.8412,23.7355],[-106.8017,23.6936],[-106.7951,23.6717],[-106.8027,23.6483],[-106.7688,23.6215],[-106.7642,23.6132],[-106.7292,23.5952],[-106.6955,23.5697],[-106.6771,23.5389],[-106.6297,23.4991],[-106.6266,23.4778],[-106.6182,23.4762],[-106.6045,23.5508],[-106.5974,23.6162],[-106.5187,23.6242],[-106.5296,23.6681],[-106.5212,23.691],[-106.4773,23.6895],[-106.4667,23.6988],[-106.4165,23.6927],[-106.386,23.6777],[-106.3691,23.6382],[-106.3585,23.6405],[-106.3419,23.6304],[-106.332,23.6153],[-106.3102,23.6143],[-106.303,23.6011],[-106.2776,23.6017],[-106.2647,23.6198],[-106.2384,23.6359],[-106.2268,23.6544],[-106.2088,23.6599],[-106.2033,23.6776],[-106.1792,23.6632],[-106.1731,23.7074],[-106.1154,23.7285],[-106.1597,23.7702],[-106.0683,23.8912],[-105.9519,23.8196],[-105.9613,23.8407],[-105.9537,23.9086],[-105.8852,23.8796],[-105.8672,23.8752],[-105.8585,23.9017],[-105.8816,23.9328],[-105.8999,23.9439],[-105.9454,23.948],[-105.9085,23.9834],[-105.9415,24.0132],[-105.9604,24.0179],[-105.9663,24.0313],[-106.0001,24.0465],[-106.0079,24.0718],[-105.9891,24.108],[-106.0041,24.1215],[-106.0032,24.1468],[-106.0286,24.1803],[-106.0439,24.2209],[-106.0699,24.2202],[-106.0745,24.2694],[-106.0889,24.2844],[-106.1525,24.3388]]]},"properties":{"CVE_ENT":"25","CVE_MUN":"016","CVEGEO":"25016","NOMGEO":"San Ignacio"}},
{"type":"Feature","geometry":{"type":"Polygon","coordinates":[[[-108.0483,25.5918],[-108.0937,25.5941],[-108.1177,25.5858],[-108.1186,25.6053],[-108.1673,25.604],[-108.1805,25.6137],[-108.2135,25.5897],[-108.1895,25.5506],[-108.1907,25.5368],[-108.2018,25.5261],[-108.1889,25.4871],[-108.196,25.4829],[-108.2202,25.4905],[-108.2526,25.4868],[-108.2768,25.4708],[-108.2903,25.396],[-108.3071,25.3935],[-108.307,25.3921],[-108.3071,25.3786],[-108.307,25.3768],[-108.3071,25.3737],[-108.2988,25.371],[-108.2935,25.3592],[-108.26,25.3614],[-108.2332,25.3716],[-108.2335,25.3796],[-108.169,25.4179],[-108.1606,25.3998],[-108.1439,25.4107],[-108.1368,25.4299],[-108.1213,25.4334],[-108.1028,25.4505],[-108.0834,25.4313],[-108.0972,25.4224],[-108.0509,25.391],[-108.0309,25.3888],[-108.0292,25.3595],[-108.0455,25.3434],[-108.0345,25.3242],[-108.034,25.3006],[-108.0044,25.2629],[-108.0007,25.2534],[-108.0312,25.2415],[-108.0332,25.2326],[-108.0151,25.2201],[-107.9884,25.2213],[-107.9695,25.1808],[-107.9688,25.1647],[-107.9397,25.1479],[-107.9328,25.2041],[-107.8701,25.2036],[-107.8686,25.2288],[-107.8847,25.2402],[-107.8987,25.2391],[-107.9062,25.2625],[-107.9448,25.3332],[-107.9155,25.3602],[-107.9142,25.3725],[-107.951,25.3807],[-107.9497,25.4081],[-107.9753,25.409],[-107.9963,25.4179],[-107.9984,25.4438],[-108.0069,25.4681],[-108.0016,25.4811],[-108.0103,25.5031],[-108.0092,25.5181],[-108.0177,25.5425],[-108.0191,25.5631],[-108.0048,25.5959],[-108.0483,25.5918]]]},"properties":{"CVE_ENT":"25","CVE_MUN":"015","CVEGEO":"25015","NOMGEO":"Salvador Alvarado"}},
{"type":"Feature","geometry":{"type":"Polygon","coordinates":[[[-107.4225,24.2512],[-107.4086,24.2492],[-107.3764,24.2311],[-107.3448,24.2293],[-107.3299,24.2414],[-107.3109,24.2211],[-107.2978,24.2238],[-107.2965,24.2392],[-107.26,24.2737],[-107.256,24.2932],[-107.2388,24.2829],[-107.2276,24.2898],[-107.2279,24.3079],[-107.2149,24.3333],[-107.2437,24.3701],[-107.2979,24.339],[-107.3245,24.3508],[-107.3147,24.3759],[-107.3256,24.3826],[-107.2816,24.4074],[-107.3352,24.4587],[-107.3346,24.4782],[-107.3581,24.4849],[-107.4115,24.4657],[-107.4198,24.4519],[-107.4486,24.446],[-107.4641,24.4278],[-107.4797,24.418],[-107.4782,24.3897],[-107.4883,24.3766],[-107.4962,24.3424],[-107.5109,24.3274],[-107.5393,24.3658],[-107.5697,24.3678],[-107.5782,24.3892],[-107.6071,24.4004],[-107.6235,24.3992],[-107.6456,24.4276],[-107.66,24.4279],[-107.682,24.4406],[-107.7053,24.4601],[-107.7253,24.4648],[-107.7352,24.478],[-107.7684,24.4891],[-107.7859,24.5123],[-107.8046,24.51],[-107.8171,24.5165],[-107.8246,24.5038],[-107.7586,24.4712],[-107.7023,24.4392],[-107.6191,24.3876],[-107.475,24.2922],[-107.4225,24.2512]]]},"properties":{"CVE_ENT":"25","CVE_MUN":"019","CVEGEO":"25019","NOMGEO":"Eldorado"}},
{"type":"Feature","geometry":{"type":"Polygon","coordinates":[[[-108.6643,25.8946],[-108.7204,25.9491],[-108.7227,25.9329],[-108.7346,25.905],[-108.7509,25.8854],[-108.7709,25.8887],[-108.7965,25.8631],[-108.8537,25.8391],[-108.8666,25.8202],[-108.8784,25.7998],[-108.8717,25.782],[-108.8954,25.7883],[-108.8856,25.8061],[-108.9004,25.8185],[-108.9091,25.8035],[-108.9061,25.7901],[-108.9361,25.7464],[-108.9324,25.7339],[-108.8983,25.7162],[-108.8918,25.7041],[-108.9135,25.6942],[-108.9256,25.6965],[-108.9373,25.6738],[-108.9224,25.6321],[-108.923,25.6191],[-108.9408,25.6071],[-108.9684,25.6122],[-108.9786,25.5863],[-108.9699,25.5703],[-108.9761,25.5495],[-108.9884,25.5392],[-108.9985,25.5519],[-109.0384,25.5779],[-109.0539,25.5797],[-109.0468,25.5491],[-109.0606,25.5356],[-109.0925,25.5385],[-109.1192,25.545],[-109.087,25.5113],[-109.0796,25.496],[-109.0423,25.4621],[-109.0364,25.4622],[-109.0528,25.4803],[-109.0279,25.4853],[-109.0171,25.5044],[-109,25.5009],[-108.9787,25.5096],[-108.9432,25.4911],[-108.9365,25.4644],[-108.926,25.4569],[-108.9158,25.4723],[-108.8869,25.5034],[-108.898,25.5164],[-108.9078,25.559],[-108.8878,25.5689],[-108.8749,25.5611],[-108.8408,25.5663],[-108.8348,25.5459],[-108.823,25.5309],[-108.7958,25.5458],[-108.8131,25.5645],[-108.8065,25.581],[-108.7941,25.5874],[-108.7942,25.6003],[-108.8083,25.6107],[-108.8228,25.6058],[-108.8411,25.613],[-108.8152,25.6532],[-108.7924,25.6536],[-108.7727,25.6657],[-108.7576,25.689],[-108.7664,25.6937],[-108.753,25.7143],[-108.7373,25.7202],[-108.7297,25.7319],[-108.7122,25.7229],[-108.7033,25.7362],[-108.7064,25.7421],[-108.7045,25.7819],[-108.737,25.8002],[-108.7232,25.8501],[-108.7049,25.846],[-108.6675,25.8508],[-108.6709,25.8732],[-108.6499,25.8806],[-108.6643,25.8946]]]},"properties":{"CVE_ENT":"25","CVE_MUN":"020","CVEGEO":"25020","NOMGEO":"Juan José Ríos"}},
{"type":"Feature","geometry":{"type":"Polygon","coordinates":[[[-108.0949,25.444],[-108.1028,25.4505],[-108.1213,25.4334],[-108.1368,25.4299],[-108.1439,25.4107],[-108.1606,25.3998],[-108.169,25.4179],[-108.2335,25.3796],[-108.2332,25.3716],[-108.26,25.3614],[-108.2935,25.3592],[-108.2988,25.371],[-108.3071,25.3737],[-108.352,25.3575],[-108.3729,25.3328],[-108.3789,25.297],[-108.3726,25.2862],[-108.3568,25.2836],[-108.3575,25.2706],[-108.372,25.2598],[-108.3715,25.2466],[-108.3847,25.2395],[-108.3722,25.2182],[-108.3755,25.2004],[-108.3803,25.1951],[-108.3809,25.1911],[-108.3821,25.1902],[-108.3833,25.188],[-108.3837,25.1867],[-108.3575,25.1692],[-108.3344,25.1248],[-108.3438,25.115],[-108.3269,25.0996],[-108.2881,25.0771],[-108.2415,25.0352],[-108.2124,24.9954],[-108.1365,24.8721],[-108.12,24.8322],[-108.1066,24.8203],[-108.0908,24.8161],[-108.0699,24.7851],[-108.0346,24.8079],[-108.0219,24.8424],[-108.0042,24.8499],[-108.008,24.8654],[-108.025,24.8934],[-108.0244,24.9138],[-108.0095,24.9226],[-107.9885,24.9673],[-107.9802,24.9754],[-107.9095,24.9789],[-107.8956,25.035],[-107.9098,25.0547],[-107.9297,25.0758],[-107.9396,25.0911],[-107.9397,25.1146],[-107.9497,25.1145],[-107.9594,25.1318],[-107.9955,25.1317],[-107.9856,25.1583],[-107.9678,25.1561],[-107.972,25.1775],[-107.9884,25.2213],[-108.0151,25.2201],[-108.0332,25.2326],[-108.0312,25.2415],[-108.0007,25.2534],[-108.0044,25.2629],[-108.034,25.3006],[-108.0345,25.3242],[-108.0455,25.3434],[-108.0292,25.3595],[-108.0309,25.3888],[-108.0509,25.391],[-108.0972,25.4224],[-108.0834,25.4313],[-108.0949,25.444]]]},"properties":{"CVE_ENT":"25","CVE_MUN":"002","CVEGEO":"25002","NOMGEO":"Angostura"}},
{"type":"Feature","geometry":{"type":"Polygon","coordinates":[[[-107.723,24.916],[-107.7446,24.9354],[-107.7602,24.9359],[-107.7658,24.9462],[-107.7907,24.9495],[-107.7937,24.9622],[-107.8085,24.9796],[-107.8173,25.0045],[-107.8272,25.0076],[-107.8407,25.0321],[-107.8889,25.0206],[-107.8951,25.0316],[-107.9095,24.9789],[-107.9802,24.9754],[-107.9885,24.9673],[-108.0095,24.9226],[-108.0244,24.9138],[-108.025,24.8934],[-108.008,24.8654],[-108.0042,24.8499],[-108.0219,24.8424],[-108.0346,24.8079],[-108.0699,24.7851],[-108.0667,24.7769],[-108.0373,24.7511],[-108.0215,24.7285],[-108.0189,24.6816],[-108.0029,24.6574],[-107.9607,24.6226],[-107.85,24.5571],[-107.8309,24.5399],[-107.8285,24.5215],[-107.8005,24.526],[-107.6173,24.4173],[-107.5365,24.456],[-107.5397,24.5156],[-107.5336,24.5398],[-107.5335,24.5723],[-107.5237,24.5726],[-107.5138,24.5901],[-107.5126,24.6195],[-107.5037,24.6718],[-107.4663,24.6721],[-107.4612,24.6976],[-107.453,24.7102],[-107.474,24.7137],[-107.474,24.7446],[-107.4904,24.7618],[-107.5174,24.7723],[-107.54,24.7703],[-107.5535,24.8016],[-107.5856,24.8012],[-107.5853,24.8225],[-107.6125,24.8316],[-107.6099,24.8556],[-107.6485,24.8716],[-107.6826,24.8897],[-107.723,24.916]]]},"properties":{"CVE_ENT":"25","CVE_MUN":"018","CVEGEO":"25018","NOMGEO":"Navolato"}},
{"type":"Feature","geometry":{"type":"Polygon","coordinates":[[[-108.2722,26.3664],[-108.301,26.3737],[-108.3043,26.4126],[-108.3103,26.4407],[-108.2972,26.4523],[-108.3151,26.4873],[-108.3267,26.491],[-108.3384,26.4783],[-108.3744,26.4757],[-108.3924,26.4836],[-108.404,26.5067],[-108.4189,26.5125],[-108.4245,26.5335],[-108.4565,26.5342],[-108.4561,26.5481],[-108.4422,26.5531],[-108.4271,26.5859],[-108.4122,26.6015],[-108.4031,26.5986],[-108.3879,26.6178],[-108.4035,26.6436],[-108.4355,26.6445],[-108.447,26.6166],[-108.4691,26.6108],[-108.4726,26.5991],[-108.5117,26.6036],[-108.5195,26.5808],[-108.5703,26.5597],[-108.5874,26.5596],[-108.5991,26.5695],[-108.6014,26.5838],[-108.6187,26.5916],[-108.6196,26.6032],[-108.6342,26.6089],[-108.6228,26.6385],[-108.6332,26.6498],[-108.6636,26.658],[-108.679,26.6429],[-108.6788,26.587],[-108.7106,26.5871],[-108.7343,26.5936],[-108.7766,26.5801],[-108.7877,26.5653],[-108.8064,26.5706],[-108.8732,26.5511],[-108.8914,26.4899],[-108.8378,26.4769],[-108.8761,26.4476],[-108.8603,26.4328],[-108.8814,26.4063],[-108.9092,26.4166],[-108.9365,26.3902],[-108.9498,26.3922],[-108.9431,26.3885],[-108.9326,26.3767],[-108.933,26.2972],[-108.9632,26.2862],[-108.9931,26.2932],[-109.0267,26.2751],[-109.0382,26.2465],[-108.9923,26.2212],[-109.0164,26.1361],[-108.987,26.1235],[-108.9581,26.0938],[-109.0179,26.0347],[-108.9878,26.0046],[-108.9965,25.9965],[-108.9946,25.9706],[-109.0092,25.9445],[-108.984,25.9184],[-108.9763,25.8735],[-108.9644,25.8582],[-108.9511,25.8775],[-108.9224,25.8726],[-108.9151,25.8941],[-108.8551,25.8404],[-108.8666,25.8202],[-108.8537,25.8391],[-108.7965,25.8631],[-108.7709,25.8887],[-108.7509,25.8854],[-108.7346,25.905],[-108.7227,25.9329],[-108.7204,25.9491],[-108.6643,25.8946],[-108.6571,25.9178],[-108.615,25.927],[-108.614,25.9752],[-108.6478,25.9758],[-108.6451,25.991],[-108.616,26.0559],[-108.5998,26.0847],[-108.6143,26.1063],[-108.5859,26.1059],[-108.5158,26.0989],[-108.5135,26.1138],[-108.4974,26.1158],[-108.5041,26.1423],[-108.4848,26.1426],[-108.4655,26.1562],[-108.4478,26.1445],[-108.4305,26.1162],[-108.4152,26.117],[-108.4082,26.1311],[-108.4153,26.145],[-108.3978,26.1659],[-108.3813,26.1623],[-108.3544,26.2028],[-108.3577,26.2189],[-108.3199,26.2222],[-108.2756,26.2481],[-108.2853,26.2642],[-108.2732,26.278],[-108.286,26.2951],[-108.2791,26.3234],[-108.2846,26.3429],[-108.2722,26.3664]]]},"properties":{"CVE_ENT":"25","CVE_MUN":"010","CVEGEO":"25010","NOMGEO":"El Fuerte"}},
{"type":"Feature","geometry":{"type":"Polygon","coordinates":[[[-105.4949,22.8106],[-105.5228,22.8187],[-105.5341,22.8306],[-105.5317,22.8473],[-105.5509,22.8732],[-105.5782,22.8707],[-105.5954,22.8968],[-105.595,22.9149],[-105.6193,22.9081],[-105.618,22.8973],[-105.6582,22.9017],[-105.6561,22.8817],[-105.6787,22.8941],[-105.7524,22.9605],[-105.7598,22.9625],[-105.804,22.9396],[-105.8264,22.9096],[-105.8252,22.8935],[-105.8562,22.8846],[-105.8311,22.8504],[-105.8171,22.8368],[-105.845,22.8248],[-105.8745,22.8313],[-105.8901,22.8476],[-105.9069,22.8517],[-105.9353,22.8401],[-105.9436,22.8495],[-105.9731,22.8228],[-105.9858,22.8258],[-105.998,22.8131],[-105.9582,22.7861],[-105.9045,22.7402],[-105.8461,22.6822],[-105.8019,22.626],[-105.7735,22.5765],[-105.7596,22.5376],[-105.7502,22.5393],[-105.7277,22.4924],[-105.7141,22.4749],[-105.7012,22.4677],[-105.677,22.4681],[-105.6711,22.4816],[-105.6772,22.5129],[-105.7004,22.5585],[-105.6822,22.5721],[-105.6601,22.5859],[-105.6506,22.5795],[-105.6314,22.5888],[-105.622,22.5714],[-105.6005,22.5589],[-105.5983,22.5367],[-105.5736,22.5393],[-105.5399,22.5356],[-105.5336,22.515],[-105.5027,22.5256],[-105.4608,22.5086],[-105.4417,22.5243],[-105.4346,22.55],[-105.4391,22.5879],[-105.456,22.5987],[-105.4481,22.6101],[-105.4523,22.6271],[-105.4742,22.6328],[-105.464,22.6592],[-105.4981,22.6514],[-105.5115,22.6852],[-105.5229,22.7243],[-105.5153,22.7395],[-105.5141,22.7593],[-105.5232,22.7731],[-105.4949,22.8106]]]},"properties":{"CVE_ENT":"25","CVE_MUN":"009","CVEGEO":"25009","NOMGEO":"Escuinapa"}},
{"type":"Feature","geometry":{"type":"Polygon","coordinates":[[[-107.5249,25.1204],[-107.512,25.139],[-107.5229,25.1617],[-107.5384,25.1812],[-107.5386,25.193],[-107.5561,25.2158],[-107.5804,25.2132],[-107.6037,25.2284],[-107.6306,25.215],[-107.6651,25.2154],[-107.6848,25.2195],[-107.69,25.2389],[-107.7061,25.2562],[-107.7125,25.272],[-107.7459,25.272],[-107.7465,25.3077],[-107.7776,25.2981],[-107.793,25.2978],[-107.7562,25.3413],[-107.7204,25.3721],[-107.696,25.381],[-107.6896,25.401],[-107.6798,25.4092],[-107.6944,25.4279],[-107.6861,25.4462],[-107.6465,25.4521],[-107.6632,25.4875],[-107.6495,25.4847],[-107.6397,25.4951],[-107.6363,25.5309],[-107.6401,25.554],[-107.6096,25.5755],[-107.5839,25.598],[-107.5891,25.6191],[-107.5758,25.6415],[-107.5857,25.6637],[-107.5712,25.6795],[-107.6298,25.6829],[-107.6518,25.7711],[-107.6465,25.8123],[-107.699,25.7952],[-107.6773,25.7818],[-107.6862,25.7747],[-107.7131,25.7725],[-107.7202,25.7595],[-107.7562,25.7502],[-107.7866,25.7568],[-107.8016,25.746],[-107.7993,25.7262],[-107.8258,25.7368],[-107.8378,25.723],[-107.8575,25.7144],[-107.8537,25.6991],[-107.8661,25.6887],[-107.8845,25.6867],[-107.9147,25.6671],[-107.9538,25.6917],[-107.95,25.6659],[-107.9626,25.654],[-107.9844,25.6495],[-108.0038,25.6393],[-108.0272,25.6506],[-108.0467,25.609],[-108.0483,25.5918],[-108.0048,25.5959],[-108.0191,25.5631],[-108.0177,25.5425],[-108.0092,25.5181],[-108.0103,25.5031],[-108.0016,25.4811],[-108.0069,25.4681],[-107.9984,25.4438],[-107.9963,25.4179],[-107.9753,25.409],[-107.9497,25.4081],[-107.951,25.3807],[-107.9142,25.3725],[-107.9155,25.3602],[-107.9448,25.3332],[-107.9062,25.2625],[-107.8987,25.2391],[-107.8847,25.2402],[-107.8686,25.2288],[-107.8701,25.2036],[-107.9328,25.2041],[-107.9397,25.1479],[-107.9688,25.1647],[-107.9678,25.1561],[-107.97,25.1543],[-107.9856,25.1583],[-107.9955,25.1317],[-107.9594,25.1318],[-107.9497,25.1145],[-107.9397,25.1146],[-107.9396,25.0911],[-107.9098,25.0547],[-107.8956,25.035],[-107.8951,25.0316],[-107.8889,25.0206],[-107.8407,25.0321],[-107.8272,25.0076],[-107.8173,25.0045],[-107.8085,24.9796],[-107.7937,24.9622],[-107.7907,24.9495],[-107.7658,24.9462],[-107.7602,24.9359],[-107.7446,24.9354],[-107.723,24.916],[-107.723,24.9276],[-107.6964,24.9267],[-107.6645,24.9314],[-107.6558,24.9285],[-107.6424,24.9456],[-107.6419,24.9577],[-107.6155,24.9707],[-107.5889,24.978],[-107.5881,25.0175],[-107.5915,25.0385],[-107.5578,25.0703],[-107.5275,25.0791],[-107.5237,25.0906],[-107.53,25.1157],[-107.5249,25.1204]]]},"properties":{"CVE_ENT":"25","CVE_MUN":"013","CVEGEO":"25013","NOMGEO":"Mocorito"}},
{"type":"Feature","geometry":{"type":"Polygon","coordinates":[[[-108.1805,25.6137],[-108.1943,25.6333],[-108.2512,25.6438],[-108.2622,25.6538],[-108.2985,25.6605],[-108.3119,25.6828],[-108.2987,25.6983],[-108.292,25.7171],[-108.3055,25.7319],[-108.3356,25.7532],[-108.342,25.7424],[-108.3596,25.7422],[-108.3665,25.7644],[-108.4184,25.7684],[-108.4187,25.7834],[-108.4373,25.7906],[-108.4468,25.7436],[-108.4579,25.7368],[-108.4916,25.7329],[-108.5305,25.7398],[-108.5627,25.7054],[-108.6551,25.7058],[-108.675,25.6979],[-108.6893,25.7051],[-108.6867,25.7269],[-108.7033,25.7362],[-108.7122,25.7229],[-108.7297,25.7319],[-108.7373,25.7202],[-108.753,25.7143],[-108.7664,25.6937],[-108.7576,25.689],[-108.7727,25.6657],[-108.7924,25.6536],[-108.8152,25.6532],[-108.8411,25.613],[-108.8228,25.6058],[-108.8083,25.6107],[-108.7942,25.6003],[-108.7941,25.5874],[-108.8065,25.581],[-108.8131,25.5645],[-108.7958,25.5458],[-108.823,25.5309],[-108.8348,25.5459],[-108.8408,25.5663],[-108.8749,25.5611],[-108.8878,25.5689],[-108.9078,25.559],[-108.898,25.5164],[-108.8869,25.5034],[-108.9158,25.4723],[-108.926,25.4569],[-108.9365,25.4644],[-108.9432,25.4911],[-108.9787,25.5096],[-109,25.5009],[-109.0171,25.5044],[-109.0279,25.4853],[-109.0528,25.4803],[-109.0364,25.4622],[-109.021,25.4383],[-108.9627,25.4317],[-108.9088,25.4198],[-108.8749,25.4074],[-108.8292,25.3851],[-108.7858,25.3693],[-108.7515,25.3685],[-108.7301,25.3615],[-108.6868,25.3533],[-108.6226,25.334],[-108.5445,25.3049],[-108.4717,25.2702],[-108.4351,25.2436],[-108.4038,25.2069],[-108.3902,25.1867],[-108.3874,25.1852],[-108.3833,25.188],[-108.3821,25.1902],[-108.3809,25.1911],[-108.3755,25.2004],[-108.3722,25.2182],[-108.3847,25.2395],[-108.3715,25.2466],[-108.372,25.2598],[-108.3575,25.2706],[-108.3568,25.2836],[-108.3726,25.2862],[-108.3789,25.297],[-108.3729,25.3328],[-108.352,25.3575],[-108.3145,25.3696],[-108.307,25.3665],[-108.3071,25.3737],[-108.307,25.3768],[-108.3071,25.3786],[-108.3071,25.3935],[-108.2903,25.396],[-108.2768,25.4708],[-108.2526,25.4868],[-108.2202,25.4905],[-108.196,25.4829],[-108.1889,25.4871],[-108.2018,25.5261],[-108.1907,25.5368],[-108.1895,25.5506],[-108.2135,25.5897],[-108.1805,25.6137]]]},"properties":{"CVE_ENT":"25","CVE_MUN":"011","CVEGEO":"25011","NOMGEO":"Guasave"}},
{"type":"Feature","geometry":{"type":"Polygon","coordinates":[[[-108.9498,26.3922],[-109.0062,26.4025],[-109.0109,26.3992],[-109.0143,26.3967],[-109.0567,26.3666],[-109.0699,26.3573],[-109.0871,26.3262],[-109.1001,26.3129],[-109.1309,26.2974],[-109.1717,26.3116],[-109.1926,26.3404],[-109.2156,26.3345],[-109.2476,26.316],[-109.2884,26.2773],[-109.299,26.2264],[-109.3312,26.1673],[-109.3714,26.1058],[-109.3887,26.0877],[-109.421,26.0296],[-109.4338,25.9986],[-109.4439,25.9594],[-109.4437,25.9419],[-109.4245,25.8946],[-109.4219,25.8527],[-109.4325,25.8071],[-109.4122,25.7609],[-109.4063,25.7389],[-109.3987,25.6826],[-109.3905,25.6696],[-109.3924,25.6376],[-109.3225,25.6468],[-109.2797,25.6426],[-109.2281,25.6268],[-109.1925,25.6038],[-109.1745,25.5851],[-109.1617,25.5618],[-109.1192,25.545],[-109.0925,25.5385],[-109.0606,25.5356],[-109.0468,25.5491],[-109.0539,25.5797],[-109.0384,25.5779],[-108.9985,25.5519],[-108.9884,25.5392],[-108.9761,25.5495],[-108.9699,25.5703],[-108.9786,25.5863],[-108.9684,25.6122],[-108.9408,25.6071],[-108.923,25.6191],[-108.9224,25.6321],[-108.9373,25.6738],[-108.9256,25.6965],[-108.9135,25.6942],[-108.8918,25.7041],[-108.8983,25.7162],[-108.9324,25.7339],[-108.9361,25.7464],[-108.9061,25.7901],[-108.9091,25.8035],[-108.9004,25.8185],[-108.8856,25.8061],[-108.8954,25.7883],[-108.8717,25.782],[-108.8784,25.7998],[-108.8666,25.8202],[-108.8551,25.8404],[-108.9151,25.8941],[-108.9224,25.8726],[-108.9511,25.8775],[-108.9644,25.8582],[-108.9763,25.8735],[-108.984,25.9184],[-109.0092,25.9445],[-108.9946,25.9706],[-108.9965,25.9965],[-108.9878,26.0046],[-109.0179,26.0347],[-108.9581,26.0938],[-108.987,26.1235],[-109.0164,26.1361],[-108.9923,26.2212],[-109.0382,26.2465],[-109.0267,26.2751],[-108.9931,26.2932],[-108.9632,26.2862],[-108.933,26.2972],[-108.9326,26.3767],[-108.9431,26.3885],[-108.9498,26.3922]]]},"properties":{"CVE_ENT":"25","CVE_MUN":"001","CVEGEO":"25001","NOMGEO":"Ahome"}},
{"type":"Feature","geometry":{"type":"Polygon","coordinates":[[[-108.4701,27.0347],[-108.4854,27.0376],[-108.4842,27.0174],[-108.5046,27.0046],[-108.5025,26.9874],[-108.4243,26.9762],[-108.467,26.9707],[-108.5177,26.8815],[-108.5331,26.8444],[-108.558,26.8192],[-108.5369,26.7984],[-108.5518,26.781],[-108.576,26.7778],[-108.582,26.759],[-108.5942,26.7592],[-108.601,26.7272],[-108.6284,26.7184],[-108.636,26.6905],[-108.6304,26.6766],[-108.6577,26.6691],[-108.6636,26.658],[-108.6332,26.6498],[-108.6228,26.6385],[-108.6342,26.6089],[-108.6196,26.6032],[-108.6187,26.5916],[-108.6014,26.5838],[-108.5991,26.5695],[-108.5874,26.5596],[-108.5703,26.5597],[-108.5195,26.5808],[-108.5117,26.6036],[-108.4726,26.5991],[-108.4691,26.6108],[-108.447,26.6166],[-108.4355,26.6445],[-108.4035,26.6436],[-108.3879,26.6178],[-108.4031,26.5986],[-108.4122,26.6015],[-108.4271,26.5859],[-108.4422,26.5531],[-108.4561,26.5481],[-108.4565,26.5342],[-108.4245,26.5335],[-108.4189,26.5125],[-108.404,26.5067],[-108.3924,26.4836],[-108.3744,26.4757],[-108.3384,26.4783],[-108.3267,26.491],[-108.3151,26.4873],[-108.2972,26.4523],[-108.3103,26.4407],[-108.3043,26.4126],[-108.301,26.3737],[-108.2862,26.3709],[-108.2832,26.3699],[-108.276,26.3676],[-108.2722,26.3664],[-108.2626,26.3633],[-108.2626,26.3848],[-108.2049,26.374],[-108.1867,26.3737],[-108.1988,26.3485],[-108.2058,26.3225],[-108.2171,26.3069],[-108.1657,26.2838],[-108.1465,26.3004],[-108.1115,26.2983],[-108.0977,26.3119],[-108.0854,26.3088],[-108.0531,26.3136],[-108.0309,26.3389],[-108.0366,26.3689],[-108.0139,26.3904],[-108.0194,26.4495],[-107.9994,26.4484],[-107.9696,26.4702],[-107.9726,26.4873],[-107.9573,26.4937],[-107.9558,26.5074],[-107.9636,26.5273],[-107.988,26.5461],[-107.9923,26.5626],[-108.0125,26.5796],[-108.0145,26.5934],[-108.0271,26.5985],[-108.0363,26.6191],[-108.0609,26.627],[-108.0813,26.6423],[-108.0646,26.6474],[-108.0329,26.6677],[-108.0146,26.6857],[-108.0068,26.7055],[-108.0088,26.7233],[-108.0187,26.7298],[-108.0057,26.761],[-108.0143,26.7732],[-108.0376,26.7698],[-108.0268,26.7985],[-108.0368,26.8101],[-108.0941,26.8705],[-108.1442,26.8676],[-108.1396,26.8955],[-108.1901,26.8959],[-108.2123,26.8862],[-108.2302,26.9057],[-108.2251,26.9221],[-108.2321,26.9611],[-108.2184,26.9648],[-108.2109,26.9804],[-108.1946,26.9836],[-108.1815,27.0032],[-108.1948,27.0255],[-108.2095,27.0323],[-108.2259,27.0272],[-108.2429,27.042],[-108.2816,27.0132],[-108.3034,27.0366],[-108.3175,27.0341],[-108.335,27.0052],[-108.3501,27.0226],[-108.3716,27.023],[-108.4096,27.0134],[-108.4212,27.0212],[-108.4701,27.0347]]]},"properties":{"CVE_ENT":"25","CVE_MUN":"007","CVEGEO":"25007","NOMGEO":"Choix"}},
{"type":"Feature","geometry":{"type":"Polygon","coordinates":[[[-106.6059,24.2164],[-106.6744,24.2258],[-106.7081,24.2331],[-106.7232,24.2197],[-106.7413,24.2245],[-106.747,24.2454],[-106.7776,24.2652],[-106.7791,24.2819],[-106.7939,24.2872],[-106.8466,24.2687],[-106.8865,24.2811],[-106.9132,24.2762],[-106.9189,24.2671],[-106.9251,24.232],[-106.9341,24.2234],[-106.9264,24.1999],[-106.9377,24.1902],[-106.9371,24.1718],[-106.9498,24.1641],[-106.9865,24.1583],[-107.0457,24.1586],[-107.0492,24.1467],[-107.0354,24.1284],[-107.0503,24.1164],[-107.0162,24.0673],[-107.0428,24.0672],[-107.0562,24.0623],[-107.0662,24.0424],[-107.092,24.0675],[-107.1249,24.0817],[-107.1282,24.0947],[-107.1475,24.0943],[-107.135,24.077],[-107.11,24.0604],[-107.1042,24.0439],[-107.1118,24.0347],[-107.0116,23.9528],[-106.9483,23.8945],[-106.8909,23.8388],[-106.882,23.7958],[-106.8619,23.7743],[-106.7401,23.7893],[-106.7429,23.8026],[-106.7356,23.8533],[-106.6855,23.8936],[-106.6706,23.9196],[-106.6904,23.9491],[-106.6883,23.9861],[-106.6779,24.0307],[-106.655,24.0471],[-106.6587,24.0822],[-106.6748,24.0904],[-106.6781,24.1145],[-106.6739,24.1322],[-106.6426,24.1597],[-106.6216,24.1821],[-106.6207,24.1999],[-106.6058,24.2052],[-106.6059,24.2164]]]},"properties":{"CVE_ENT":"25","CVE_MUN":"008","CVEGEO":"25008","NOMGEO":"Elota"}},
{"type":"Feature","geometry":{"type":"Polygon","coordinates":[[[-105.9519,23.8196],[-106.0683,23.8912],[-106.1597,23.7702],[-106.1154,23.7285],[-106.1731,23.7074],[-106.1792,23.6632],[-106.2033,23.6776],[-106.2088,23.6599],[-106.2268,23.6544],[-106.2384,23.6359],[-106.2647,23.6198],[-106.2776,23.6017],[-106.303,23.6011],[-106.3102,23.6143],[-106.332,23.6153],[-106.3419,23.6304],[-106.3585,23.6405],[-106.3691,23.6382],[-106.386,23.6777],[-106.4165,23.6927],[-106.4667,23.6988],[-106.4773,23.6895],[-106.5212,23.691],[-106.5296,23.6681],[-106.5187,23.6242],[-106.5974,23.6162],[-106.6045,23.5508],[-106.6184,23.4735],[-106.5697,23.4313],[-106.5245,23.3857],[-106.4807,23.3254],[-106.4839,23.309],[-106.4666,23.2606],[-106.4535,23.2415],[-106.4252,23.2226],[-106.431,23.2027],[-106.4236,23.1795],[-106.4061,23.1869],[-106.3943,23.1819],[-106.3617,23.1573],[-106.3198,23.1216],[-106.2922,23.0927],[-106.2579,23.0684],[-106.2481,23.0802],[-106.2205,23.0953],[-106.204,23.0909],[-106.1773,23.1129],[-106.1532,23.0891],[-106.1396,23.0865],[-106.1199,23.1147],[-106.1101,23.1323],[-106.1068,23.143],[-106.0961,23.156],[-106.1331,23.1657],[-106.1396,23.1852],[-106.1485,23.1905],[-106.1961,23.1896],[-106.1994,23.1982],[-106.1851,23.2131],[-106.1595,23.2138],[-106.1746,23.3039],[-106.1851,23.3104],[-106.1878,23.3266],[-106.2167,23.3326],[-106.2319,23.3472],[-106.2294,23.3705],[-106.2088,23.3719],[-106.2209,23.3945],[-106.2068,23.405],[-106.2172,23.4328],[-106.2336,23.4379],[-106.2336,23.451],[-106.2156,23.4514],[-106.2004,23.4716],[-106.1984,23.5139],[-106.185,23.5305],[-106.1912,23.5524],[-106.1748,23.5663],[-106.1501,23.5554],[-106.1546,23.5737],[-106.1464,23.5838],[-106.1208,23.5745],[-106.1109,23.6001],[-106.0931,23.5988],[-106.0726,23.6162],[-106.0619,23.6364],[-106.034,23.6654],[-106.0324,23.6813],[-106.0155,23.6972],[-106.025,23.7078],[-106.0051,23.7189],[-106.0001,23.751],[-105.9892,23.7476],[-105.9751,23.7663],[-105.9588,23.7577],[-105.9332,23.7559],[-105.9249,23.7738],[-105.9393,23.7914],[-105.9519,23.8196]]]},"properties":{"CVE_ENT":"25","CVE_MUN":"012","CVEGEO":"25012","NOMGEO":"Mazatlán"}},
{"type":"Feature","geometry":{"type":"Polygon","coordinates":[[[-107.4225,24.2512],[-107.4052,24.232],[-107.3155,24.1795],[-107.2373,24.1297],[-107.219,24.1214],[-107.2013,24.0984],[-107.1161,24.0374],[-107.1042,24.0439],[-107.11,24.0604],[-107.135,24.077],[-107.1475,24.0943],[-107.1282,24.0947],[-107.1249,24.0817],[-107.092,24.0675],[-107.0662,24.0424],[-107.0562,24.0623],[-107.0428,24.0672],[-107.0162,24.0673],[-107.0503,24.1164],[-107.0354,24.1284],[-107.0492,24.1467],[-107.0457,24.1586],[-106.9865,24.1583],[-106.9498,24.1641],[-106.9371,24.1718],[-106.9377,24.1902],[-106.9264,24.1999],[-106.9341,24.2234],[-106.9251,24.232],[-106.9189,24.2671],[-106.9132,24.2762],[-106.9489,24.3005],[-106.9399,24.325],[-106.959,24.3577],[-106.9926,24.3677],[-107.0185,24.3968],[-107.0329,24.4332],[-107.033,24.4331],[-107.0462,24.4282],[-107.051,24.452],[-107.0529,24.4829],[-107.0215,24.486],[-107.0218,24.4927],[-106.9648,24.5074],[-106.9743,24.543],[-107.0227,24.554],[-107.0144,24.5743],[-107.0237,24.6],[-107.0335,24.6106],[-107.0414,24.6386],[-107.0257,24.6584],[-107.0406,24.6818],[-107.0128,24.715],[-106.9985,24.7269],[-106.9753,24.723],[-106.9697,24.7337],[-106.9455,24.7428],[-106.9459,24.7645],[-106.9067,24.7679],[-106.8738,24.797],[-106.8712,24.8094],[-106.886,24.8264],[-106.9029,24.8284],[-106.9193,24.814],[-106.9307,24.8209],[-106.9464,24.8585],[-106.9271,24.8666],[-106.9345,24.8805],[-106.951,24.888],[-106.9732,24.9096],[-107.0006,24.9282],[-107.0183,24.9336],[-107.0573,24.9987],[-107.0674,25.0302],[-107.1299,25.0531],[-107.1249,25.1866],[-107.1488,25.2245],[-107.1354,25.2253],[-107.1215,25.2435],[-107.1481,25.2589],[-107.1692,25.2583],[-107.2041,25.276],[-107.2758,25.276],[-107.2557,25.2301],[-107.234,25.1531],[-107.3181,25.1667],[-107.3116,25.175],[-107.3312,25.2144],[-107.3698,25.2121],[-107.3865,25.1971],[-107.359,25.1659],[-107.3461,25.165],[-107.3493,25.1442],[-107.3433,25.126],[-107.3264,25.1138],[-107.3335,25.0989],[-107.3539,25.1023],[-107.3576,25.067],[-107.4068,25.0841],[-107.467,25.1223],[-107.5249,25.1204],[-107.53,25.1157],[-107.5237,25.0906],[-107.5275,25.0791],[-107.5578,25.0703],[-107.5915,25.0385],[-107.5881,25.0175],[-107.5889,24.978],[-107.6155,24.9707],[-107.6419,24.9577],[-107.6424,24.9456],[-107.6558,24.9285],[-107.6645,24.9314],[-107.6964,24.9267],[-107.723,24.9276],[-107.723,24.916],[-107.6826,24.8897],[-107.6485,24.8716],[-107.6099,24.8556],[-107.6125,24.8316],[-107.5853,24.8225],[-107.5856,24.8012],[-107.5535,24.8016],[-107.54,24.7703],[-107.5174,24.7723],[-107.4904,24.7618],[-107.474,24.7446],[-107.474,24.7137],[-107.453,24.7102],[-107.4612,24.6976],[-107.4663,24.6721],[-107.5037,24.6718],[-107.5126,24.6195],[-107.5138,24.5901],[-107.5237,24.5726],[-107.5335,24.5723],[-107.5336,24.5398],[-107.5397,24.5156],[-107.5365,24.456],[-107.6173,24.4173],[-107.8005,24.526],[-107.8171,24.5165],[-107.8046,24.51],[-107.7859,24.5123],[-107.7684,24.4891],[-107.7352,24.478],[-107.7253,24.4648],[-107.7053,24.4601],[-107.682,24.4406],[-107.66,24.4279],[-107.6456,24.4276],[-107.6235,24.3992],[-107.6071,24.4004],[-107.5782,24.3892],[-107.5697,24.3678],[-107.5393,24.3658],[-107.5109,24.3274],[-107.4962,24.3424],[-107.4883,24.3766],[-107.4782,24.3897],[-107.4797,24.418],[-107.4641,24.4278],[-107.4486,24.446],[-107.4198,24.4519],[-107.4115,24.4657],[-107.3581,24.4849],[-107.3346,24.4782],[-107.3352,24.4587],[-107.2816,24.4074],[-107.3256,24.3826],[-107.3147,24.3759],[-107.3245,24.3508],[-107.2979,24.339],[-107.2437,24.3701],[-107.2149,24.3333],[-107.2279,24.3079],[-107.2276,24.2898],[-107.2388,24.2829],[-107.256,24.2932],[-107.26,24.2737],[-107.2965,24.2392],[-107.2978,24.2238],[-107.3109,24.2211],[-107.3299,24.2414],[-107.3448,24.2293],[-107.3764,24.2311],[-107.4086,24.2492],[-107.4225,24.2512]]]},"properties":{"CVE_ENT":"25","CVE_MUN":"006","CVEGEO":"25006","NOMGEO":"Culiacán"}},
{"type":"Feature","geometry":{"type":"Polygon","coordinates":[[[-106.5083,24.2909],[-106.528,24.2951],[-106.5341,24.3095],[-106.586,24.379],[-106.5835,24.3903],[-106.6016,24.4146],[-106.5693,24.437],[-106.56,24.4727],[-106.5871,24.4926],[-106.6248,24.5002],[-106.6226,24.5249],[-106.6455,24.529],[-106.6836,24.5985],[-106.6891,24.6238],[-106.7059,24.6653],[-106.7151,24.6721],[-106.861,24.8184],[-106.886,24.8264],[-106.8712,24.8094],[-106.8738,24.797],[-106.9067,24.7679],[-106.9459,24.7645],[-106.9455,24.7428],[-106.9697,24.7337],[-106.9753,24.723],[-106.9985,24.7269],[-107.0128,24.715],[-107.0406,24.6818],[-107.0257,24.6584],[-107.0414,24.6386],[-107.0335,24.6106],[-107.0237,24.6],[-107.0144,24.5743],[-107.0227,24.554],[-106.9743,24.543],[-106.9648,24.5074],[-107.0218,24.4927],[-107.0215,24.486],[-107.0529,24.4829],[-107.051,24.452],[-107.0485,24.4406],[-107.0471,24.4336],[-107.0468,24.4318],[-107.0462,24.4282],[-107.0329,24.4332],[-107.0185,24.3968],[-106.9926,24.3677],[-106.959,24.3577],[-106.9399,24.325],[-106.9489,24.3005],[-106.9132,24.2762],[-106.8865,24.2811],[-106.8466,24.2687],[-106.7939,24.2872],[-106.7791,24.2819],[-106.7776,24.2652],[-106.747,24.2454],[-106.7413,24.2245],[-106.7232,24.2197],[-106.7081,24.2331],[-106.6744,24.2258],[-106.6059,24.2164],[-106.6131,24.2285],[-106.6049,24.2381],[-106.5663,24.225],[-106.5237,24.2272],[-106.4852,24.24],[-106.4631,24.238],[-106.4629,24.2697],[-106.5083,24.2909]]]},"properties":{"CVE_ENT":"25","CVE_MUN":"005","CVEGEO":"25005","NOMGEO":"Cosalá"}},
{"type":"Feature","geometry":{"type":"Polygon","coordinates":[[[-105.3922,23.0841],[-105.4159,23.1169],[-105.4341,23.1205],[-105.4553,23.1173],[-105.502,23.128],[-105.5312,23.1181],[-105.5371,23.1045],[-105.5551,23.099],[-105.5657,23.1083],[-105.5976,23.1091],[-105.6235,23.1223],[-105.6453,23.1437],[-105.6297,23.2023],[-105.6357,23.2141],[-105.6303,23.2356],[-105.6477,23.2603],[-105.6432,23.2765],[-105.6611,23.2843],[-105.6848,23.2857],[-105.694,23.3013],[-105.6946,23.3216],[-105.7052,23.3487],[-105.718,23.3685],[-105.7386,23.3386],[-105.849,23.33],[-105.8388,23.3077],[-105.9173,23.3317],[-105.9305,23.3215],[-105.9399,23.2677],[-105.9361,23.2489],[-105.9492,23.2345],[-105.9434,23.2008],[-105.9227,23.19],[-105.9264,23.1782],[-105.9099,23.1389],[-105.909,23.1193],[-105.9306,23.118],[-105.963,23.0846],[-105.9764,23.1115],[-106.0131,23.0965],[-106.0385,23.1155],[-106.0457,23.1053],[-106.0656,23.1147],[-106.0791,23.1026],[-106.0927,23.1108],[-106.1023,23.0955],[-106.1058,23.076],[-106.1308,23.0989],[-106.1396,23.0865],[-106.1532,23.0891],[-106.1773,23.1129],[-106.204,23.0909],[-106.2205,23.0953],[-106.2481,23.0802],[-106.2579,23.0684],[-106.182,22.9986],[-106.1083,22.9194],[-106.0567,22.8594],[-106.0342,22.8303],[-106.0277,22.8317],[-105.998,22.8131],[-105.9858,22.8258],[-105.9731,22.8228],[-105.9436,22.8495],[-105.9353,22.8401],[-105.9069,22.8517],[-105.8901,22.8476],[-105.8745,22.8313],[-105.845,22.8248],[-105.8171,22.8368],[-105.8311,22.8504],[-105.8562,22.8846],[-105.8252,22.8935],[-105.8264,22.9096],[-105.804,22.9396],[-105.7598,22.9625],[-105.7524,22.9605],[-105.6787,22.8941],[-105.6561,22.8817],[-105.6582,22.9017],[-105.618,22.8973],[-105.6193,22.9081],[-105.595,22.9149],[-105.5954,22.8968],[-105.5782,22.8707],[-105.5509,22.8732],[-105.5317,22.8473],[-105.5341,22.8306],[-105.5228,22.8187],[-105.4949,22.8106],[-105.4842,22.8587],[-105.4712,22.8833],[-105.4982,22.9335],[-105.5013,22.9586],[-105.4533,22.9774],[-105.4326,23.024],[-105.4117,23.0304],[-105.413,23.0741],[-105.3922,23.0841]]]},"properties":{"CVE_ENT":"25","CVE_MUN":"014","CVEGEO":"25014","NOMGEO":"Rosario"}},
{"type":"Feature","geometry":{"type":"Polygon","coordinates":[[[-105.9267,23.7615],[-105.9332,23.7559],[-105.9378,23.7596],[-105.9429,23.7613],[-105.9588,23.7577],[-105.9751,23.7663],[-105.9892,23.7476],[-106.0001,23.751],[-106.0051,23.7189],[-106.025,23.7078],[-106.0155,23.6972],[-106.0324,23.6813],[-106.034,23.6654],[-106.0619,23.6364],[-106.0726,23.6162],[-106.0931,23.5988],[-106.1109,23.6001],[-106.1208,23.5745],[-106.1464,23.5838],[-106.1546,23.5737],[-106.1501,23.5554],[-106.1748,23.5663],[-106.1912,23.5524],[-106.185,23.5305],[-106.1984,23.5139],[-106.2004,23.4716],[-106.2156,23.4514],[-106.2336,23.451],[-106.2336,23.4379],[-106.2172,23.4328],[-106.2068,23.405],[-106.2209,23.3945],[-106.2088,23.3719],[-106.2294,23.3705],[-106.2319,23.3472],[-106.2167,23.3326],[-106.1878,23.3266],[-106.1851,23.3104],[-106.1746,23.3039],[-106.1595,23.2138],[-106.1851,23.2131],[-106.1994,23.1982],[-106.1961,23.1896],[-106.1485,23.1905],[-106.1396,23.1852],[-106.1331,23.1657],[-106.0961,23.156],[-106.1068,23.143],[-106.1101,23.1323],[-106.1199,23.1147],[-106.1308,23.0989],[-106.1058,23.076],[-106.1023,23.0955],[-106.0927,23.1108],[-106.0791,23.1026],[-106.0656,23.1147],[-106.0457,23.1053],[-106.0385,23.1155],[-106.0131,23.0965],[-105.9764,23.1115],[-105.963,23.0846],[-105.9306,23.118],[-105.909,23.1193],[-105.9099,23.1389],[-105.9264,23.1782],[-105.9227,23.19],[-105.9434,23.2008],[-105.9492,23.2345],[-105.9361,23.2489],[-105.9399,23.2677],[-105.9305,23.3215],[-105.9173,23.3317],[-105.8388,23.3077],[-105.849,23.33],[-105.7386,23.3386],[-105.718,23.3685],[-105.7299,23.374],[-105.7117,23.3935],[-105.7003,23.4197],[-105.7296,23.4303],[-105.7384,23.4446],[-105.7245,23.4614],[-105.7239,23.4757],[-105.751,23.5003],[-105.7604,23.5351],[-105.7691,23.5419],[-105.7729,23.561],[-105.7949,23.5801],[-105.8073,23.5906],[-105.8116,23.611],[-105.8455,23.6033],[-105.8536,23.5973],[-105.8843,23.5904],[-105.8927,23.5526],[-105.9089,23.5883],[-105.9266,23.6841],[-105.9159,23.7264],[-105.9061,23.7394],[-105.9231,23.7478],[-105.9267,23.7615]]]},"properties":{"CVE_ENT":"25","CVE_MUN":"004","CVEGEO":"25004","NOMGEO":"Concordia"}},
{"type":"Feature","geometry":{"type":"Polygon","coordinates":[[[-108.1805,25.6137],[-108.1673,25.604],[-108.1186,25.6053],[-108.1177,25.5858],[-108.0937,25.5941],[-108.0483,25.5918],[-108.0467,25.609],[-108.0272,25.6506],[-108.0038,25.6393],[-107.9844,25.6495],[-107.9626,25.654],[-107.95,25.6659],[-107.9538,25.6917],[-107.9147,25.6671],[-107.8845,25.6867],[-107.8661,25.6887],[-107.8537,25.6991],[-107.8575,25.7144],[-107.8378,25.723],[-107.8258,25.7368],[-107.7993,25.7262],[-107.8016,25.746],[-107.7866,25.7568],[-107.7562,25.7502],[-107.7202,25.7595],[-107.7131,25.7725],[-107.6862,25.7747],[-107.6773,25.7818],[-107.699,25.7952],[-107.6465,25.8123],[-107.6045,25.8403],[-107.5969,25.89],[-107.6041,25.943],[-107.5338,25.9813],[-107.5094,25.9798],[-107.4899,25.9998],[-107.4974,26.018],[-107.5357,26.0413],[-107.5426,26.0572],[-107.5138,26.0737],[-107.5138,26.0795],[-107.5281,26.0811],[-107.52,26.1042],[-107.5433,26.1463],[-107.5649,26.1645],[-107.5894,26.1699],[-107.621,26.1625],[-107.6353,26.1547],[-107.6528,26.1636],[-107.6808,26.1629],[-107.7135,26.1725],[-107.7476,26.1538],[-107.7552,26.1345],[-107.7807,26.1369],[-107.7894,26.1688],[-107.8103,26.1837],[-107.8371,26.1825],[-107.854,26.1965],[-107.8563,26.226],[-107.8733,26.2503],[-107.9201,26.3145],[-107.9498,26.3553],[-107.9738,26.3882],[-107.9741,26.3886],[-107.973,26.3925],[-108.0006,26.4222],[-108.0128,26.439],[-107.9994,26.4484],[-108.0143,26.4533],[-108.0194,26.4495],[-108.0139,26.3904],[-108.0366,26.3689],[-108.0309,26.3389],[-108.0531,26.3136],[-108.0854,26.3088],[-108.0977,26.3119],[-108.1115,26.2983],[-108.1465,26.3004],[-108.1657,26.2838],[-108.2171,26.3069],[-108.2058,26.3225],[-108.1988,26.3485],[-108.1867,26.3737],[-108.2049,26.374],[-108.2626,26.3848],[-108.2722,26.3664],[-108.2846,26.3429],[-108.2791,26.3234],[-108.286,26.2951],[-108.2732,26.278],[-108.2853,26.2642],[-108.2756,26.2481],[-108.3199,26.2222],[-108.3577,26.2189],[-108.3544,26.2028],[-108.3813,26.1623],[-108.3978,26.1659],[-108.4153,26.145],[-108.4082,26.1311],[-108.4152,26.117],[-108.4305,26.1162],[-108.4478,26.1445],[-108.4655,26.1562],[-108.4848,26.1426],[-108.5041,26.1423],[-108.4974,26.1158],[-108.5135,26.1138],[-108.5158,26.0989],[-108.5859,26.1059],[-108.6143,26.1063],[-108.5998,26.0847],[-108.616,26.0559],[-108.6451,25.991],[-108.6478,25.9758],[-108.614,25.9752],[-108.615,25.927],[-108.6571,25.9178],[-108.6643,25.8946],[-108.6499,25.8806],[-108.6709,25.8732],[-108.6675,25.8508],[-108.7049,25.846],[-108.7232,25.8501],[-108.737,25.8002],[-108.7045,25.7819],[-108.7064,25.7421],[-108.7033,25.7362],[-108.6867,25.7269],[-108.6893,25.7051],[-108.675,25.6979],[-108.6551,25.7058],[-108.5627,25.7054],[-108.5305,25.7398],[-108.4916,25.7329],[-108.4579,25.7368],[-108.4468,25.7436],[-108.4373,25.7906],[-108.4187,25.7834],[-108.4184,25.7684],[-108.3665,25.7644],[-108.3596,25.7422],[-108.342,25.7424],[-108.3356,25.7532],[-108.3055,25.7319],[-108.292,25.7171],[-108.2987,25.6983],[-108.3119,25.6828],[-108.2985,25.6605],[-108.2622,25.6538],[-108.2512,25.6438],[-108.1943,25.6333],[-108.1805,25.6137]]]},"properties":{"CVE_ENT":"25","CVE_MUN":"017","CVEGEO":"25017","NOMGEO":"Sinaloa"}},
{"type":"Feature","geometry":{"type":"Polygon","coordinates":[[[-106.9943,25.6622],[-106.9669,25.6683],[-106.9653,25.6979],[-106.9903,25.7149],[-107.0103,25.692],[-107.0469,25.7006],[-107.0485,25.7113],[-107.0655,25.7258],[-107.0593,25.7582],[-107.1946,25.8523],[-107.2471,25.8799],[-107.2425,25.8924],[-107.2961,25.9248],[-107.287,25.954],[-107.2803,25.9574],[-107.282,25.992],[-107.2763,26.002],[-107.3067,26.0488],[-107.3049,26.0764],[-107.327,26.0909],[-107.3465,26.1095],[-107.4161,26.1412],[-107.431,26.1429],[-107.4632,26.1365],[-107.4937,26.1106],[-107.5061,26.1158],[-107.52,26.1042],[-107.5281,26.0811],[-107.5138,26.0737],[-107.5426,26.0572],[-107.5357,26.0413],[-107.4974,26.018],[-107.4899,25.9998],[-107.5094,25.9798],[-107.5338,25.9813],[-107.6041,25.943],[-107.5969,25.89],[-107.6045,25.8403],[-107.6465,25.8123],[-107.6518,25.7711],[-107.6298,25.6829],[-107.5712,25.6795],[-107.5857,25.6637],[-107.5758,25.6415],[-107.5891,25.6191],[-107.5839,25.598],[-107.6096,25.5755],[-107.6401,25.554],[-107.6363,25.5309],[-107.6397,25.4951],[-107.6495,25.4847],[-107.6632,25.4875],[-107.6465,25.4521],[-107.6861,25.4462],[-107.6944,25.4279],[-107.6798,25.4092],[-107.6896,25.401],[-107.696,25.381],[-107.7204,25.3721],[-107.7562,25.3413],[-107.793,25.2978],[-107.7776,25.2981],[-107.7465,25.3077],[-107.7459,25.272],[-107.7125,25.272],[-107.7061,25.2562],[-107.69,25.2389],[-107.6848,25.2195],[-107.6651,25.2154],[-107.6306,25.215],[-107.6037,25.2284],[-107.5804,25.2132],[-107.5561,25.2158],[-107.5386,25.193],[-107.5384,25.1812],[-107.5229,25.1617],[-107.512,25.139],[-107.5249,25.1204],[-107.467,25.1223],[-107.4068,25.0841],[-107.3576,25.067],[-107.3539,25.1023],[-107.3335,25.0989],[-107.3264,25.1138],[-107.3433,25.126],[-107.3493,25.1442],[-107.3461,25.165],[-107.359,25.1659],[-107.3865,25.1971],[-107.3698,25.2121],[-107.3312,25.2144],[-107.3116,25.175],[-107.3181,25.1667],[-107.234,25.1531],[-107.2557,25.2301],[-107.2758,25.276],[-107.2041,25.276],[-107.1692,25.2583],[-107.1483,25.2592],[-107.1584,25.263],[-107.2078,25.3316],[-107.1716,25.3264],[-107.2101,25.4171],[-107.1849,25.4368],[-107.1586,25.4422],[-107.1512,25.4763],[-107.1393,25.4896],[-107.1477,25.505],[-107.1663,25.503],[-107.1776,25.5144],[-107.1767,25.5401],[-107.1701,25.5595],[-107.1387,25.5601],[-107.1246,25.5504],[-107.11,25.5606],[-107.0342,25.5963],[-106.9733,25.6296],[-106.9943,25.6622]]]},"properties":{"CVE_ENT":"25","CVE_MUN":"003","CVEGEO":"25003","NOMGEO":"Badiraguato"}}
]}