{"type":"FeatureCollection", "features": [
{"type":"Feature","geometry":{"type":"Polygon","coordinates":[[[-89.2547,21.0308],[-89.2507,21.0601],[-89.2666,21.048],[-89.294,21.0432],[-89.2908,21.0634],[-89.3237,21.0753],[-89.3226,21.0945],[-89.3401,21.114],[-89.3519,21.0901],[-89.3658,21.0899],[-89.3745,21.0785],[-89.3646,21.0587],[-89.3527,21.0367],[-89.3521,20.9981],[-89.3251,21.0062],[-89.3009,21.0079],[-89.282,21.0201],[-89.2802,21.0354],[-89.2547,21.0308]]]},"properties":{"CVE_ENT":"31","CVE_MUN":"054","CVEGEO":"31054","NOMGEO":"Muxupip"}},
{"type":"Feature","geometry":{"type":"Polygon","coordinates":[[[-89.4315,21.0897],[-89.4375,21.1245],[-89.43,21.1832],[-89.4437,21.1857],[-89.4422,21.2039],[-89.453,21.1997],[-89.4547,21.1766],[-89.4633,21.1698],[-89.4739,21.1374],[-89.4707,21.1322],[-89.4764,21.1317],[-89.4817,21.1297],[-89.4886,21.1288],[-89.4893,21.124],[-89.4964,21.1225],[-89.4889,21.0949],[-89.4798,21.0992],[-89.4585,21.0861],[-89.4383,21.0848],[-89.4315,21.0897]]]},"properties":{"CVE_ENT":"31","CVE_MUN":"051","CVEGEO":"31051","NOMGEO":"Mocochá"}},
{"type":"Feature","geometry":{"type":"Polygon","coordinates":[[[-89.397,20.5721],[-89.4131,20.5744],[-89.4087,20.5539],[-89.4531,20.5559],[-89.4405,20.5273],[-89.4236,20.5269],[-89.4333,20.4975],[-89.4078,20.4879],[-89.4127,20.4564],[-89.3807,20.447],[-89.3472,20.4546],[-89.3367,20.4471],[-89.3187,20.4647],[-89.3079,20.4858],[-89.3311,20.4881],[-89.3399,20.5176],[-89.3779,20.5206],[-89.397,20.5721]]]},"properties":{"CVE_ENT":"31","CVE_MUN":"046","CVEGEO":"31046","NOMGEO":"Mama"}},
{"type":"Feature","geometry":{"type":"Polygon","coordinates":[[[-89.7928,20.6332],[-89.8214,20.6691],[-89.8718,20.6918],[-89.9213,20.6977],[-89.922,20.6909],[-89.9255,20.6641],[-89.9769,20.6506],[-89.9852,20.6699],[-90.0217,20.6761],[-90.0256,20.6551],[-90.0043,20.6517],[-89.9954,20.6362],[-89.9744,20.6326],[-89.9781,20.6148],[-89.9587,20.597],[-89.9313,20.5952],[-89.9289,20.626],[-89.896,20.5943],[-89.8729,20.5923],[-89.8539,20.601],[-89.8288,20.5959],[-89.8261,20.6057],[-89.8083,20.6176],[-89.8123,20.6351],[-89.7928,20.6332]]]},"properties":{"CVE_ENT":"31","CVE_MUN":"045","CVEGEO":"31045","NOMGEO":"Kopomá"}},
{"type":"Feature","geometry":{"type":"Polygon","coordinates":[[[-88.3026,20.6813],[-88.3174,20.6937],[-88.3476,20.6874],[-88.3712,20.6876],[-88.3623,20.7066],[-88.3803,20.7124],[-88.3838,20.688],[-88.3801,20.6725],[-88.3941,20.6585],[-88.3873,20.6441],[-88.3696,20.6421],[-88.3851,20.623],[-88.3471,20.6175],[-88.3455,20.6071],[-88.3757,20.5902],[-88.4098,20.5775],[-88.4162,20.5488],[-88.433,20.5394],[-88.4236,20.5321],[-88.3981,20.5323],[-88.3815,20.5449],[-88.3625,20.5466],[-88.3617,20.5661],[-88.3297,20.5971],[-88.2903,20.5981],[-88.2696,20.6262],[-88.2822,20.6336],[-88.2806,20.6524],[-88.2968,20.6553],[-88.2918,20.6773],[-88.3026,20.6813]]]},"properties":{"CVE_ENT":"31","CVE_MUN":"014","CVEGEO":"31014","NOMGEO":"Cuncunul"}},
{"type":"Feature","geometry":{"type":"Polygon","coordinates":[[[-88.5295,21.425],[-88.56,21.4173],[-88.5825,21.4237],[-88.6179,21.424],[-88.6318,21.4068],[-88.6542,21.4073],[-88.6514,21.3582],[-88.6661,21.3475],[-88.6801,21.354],[-88.6778,21.3724],[-88.6824,21.3991],[-88.7494,21.401],[-88.752,21.3754],[-88.7643,21.3581],[-88.7165,21.3572],[-88.7184,21.3422],[-88.7895,21.3495],[-88.794,21.3389],[-88.8453,21.351],[-88.8515,21.3448],[-88.8951,21.34],[-88.9498,21.3413],[-88.9471,21.3591],[-88.9642,21.3315],[-88.9769,21.3307],[-88.9772,21.2925],[-88.9982,21.2945],[-89.0133,21.2719],[-88.9996,21.2612],[-88.9835,21.2662],[-88.9855,21.2319],[-88.9793,21.2168],[-88.9574,21.2187],[-88.9343,21.219],[-88.9308,21.2368],[-88.9164,21.2356],[-88.8838,21.2228],[-88.8707,21.2949],[-88.8224,21.29],[-88.8022,21.291],[-88.7778,21.2958],[-88.7149,21.2931],[-88.6635,21.3033],[-88.636,21.3047],[-88.6439,21.344],[-88.6179,21.3433],[-88.6151,21.3237],[-88.5935,21.319],[-88.5839,21.3237],[-88.5217,21.3148],[-88.5098,21.319],[-88.4762,21.3121],[-88.4806,21.3443],[-88.4742,21.3678],[-88.4919,21.3717],[-88.4906,21.3866],[-88.4721,21.389],[-88.4829,21.4099],[-88.5012,21.4124],[-88.5102,21.3953],[-88.5242,21.395],[-88.5295,21.425]]]},"properties":{"CVE_ENT":"31","CVE_MUN":"029","CVEGEO":"31029","NOMGEO":"Dzilam González"}},
{"type":"Feature","geometry":{"type":"Polygon","coordinates":[[[-88.4762,21.3121],[-88.5098,21.319],[-88.5217,21.3148],[-88.5839,21.3237],[-88.5935,21.319],[-88.6151,21.3237],[-88.6179,21.3433],[-88.6439,21.344],[-88.636,21.3047],[-88.6635,21.3033],[-88.7149,21.2931],[-88.7778,21.2958],[-88.8022,21.291],[-88.805,21.2493],[-88.8491,21.2496],[-88.8511,21.2404],[-88.8322,21.2309],[-88.8196,21.216],[-88.8165,21.1846],[-88.7768,21.1823],[-88.7791,21.1621],[-88.7979,21.1604],[-88.7979,21.1397],[-88.7546,21.1437],[-88.7576,21.121],[-88.6977,21.1119],[-88.7061,21.081],[-88.6561,21.0839],[-88.6533,21.098],[-88.6409,21.0999],[-88.6373,21.124],[-88.6241,21.1224],[-88.6178,21.1535],[-88.5918,21.1568],[-88.5899,21.1704],[-88.5596,21.1771],[-88.5221,21.1798],[-88.5091,21.1719],[-88.4907,21.1609],[-88.4781,21.1869],[-88.4692,21.2489],[-88.4831,21.2517],[-88.4762,21.3121]]]},"properties":{"CVE_ENT":"31","CVE_MUN":"006","CVEGEO":"31006","NOMGEO":"Buctzotz"}},
{"type":"Feature","geometry":{"type":"Polygon","coordinates":[[[-89.3251,21.0062],[-89.3521,20.9981],[-89.3527,21.0367],[-89.3646,21.0587],[-89.3715,21.0476],[-89.3997,21.034],[-89.4151,21.0402],[-89.4522,21.0372],[-89.4665,21.0227],[-89.4892,21.0199],[-89.4912,21.0117],[-89.4648,21.0001],[-89.4402,21.0032],[-89.4243,20.9987],[-89.4253,20.9629],[-89.4314,20.9545],[-89.3952,20.9382],[-89.4343,20.9293],[-89.3818,20.9153],[-89.3646,20.9231],[-89.3641,20.9002],[-89.3449,20.8974],[-89.327,20.8948],[-89.3249,20.9414],[-89.3031,20.9427],[-89.3183,20.9554],[-89.3175,20.9681],[-89.2798,20.967],[-89.2729,20.9814],[-89.3021,20.9918],[-89.3251,21.0062]]]},"properties":{"CVE_ENT":"31","CVE_MUN":"093","CVEGEO":"31093","NOMGEO":"Tixkokob"}},
{"type":"Feature","geometry":{"type":"Polygon","coordinates":[[[-88.253,20.5613],[-88.2761,20.558],[-88.2982,20.564],[-88.3253,20.5633],[-88.3276,20.5461],[-88.3181,20.5321],[-88.3292,20.5215],[-88.333,20.502],[-88.3536,20.485],[-88.369,20.4885],[-88.3801,20.4594],[-88.3825,20.4086],[-88.3972,20.3912],[-88.4029,20.3741],[-88.4297,20.3964],[-88.4496,20.4039],[-88.4564,20.3762],[-88.4593,20.3422],[-88.4302,20.3417],[-88.4143,20.3355],[-88.4063,20.3068],[-88.4091,20.2521],[-88.3519,20.259],[-88.3088,20.2535],[-88.273,20.2699],[-88.2646,20.2903],[-88.2327,20.2902],[-88.2356,20.3472],[-88.2491,20.3587],[-88.2592,20.4067],[-88.2657,20.4179],[-88.2593,20.4355],[-88.2685,20.4468],[-88.2517,20.4718],[-88.2269,20.4671],[-88.223,20.5233],[-88.2499,20.5345],[-88.253,20.5613]]]},"properties":{"CVE_ENT":"31","CVE_MUN":"092","CVEGEO":"31092","NOMGEO":"Tixcacalcupul"}},
{"type":"Feature","geometry":{"type":"Polygon","coordinates":[[[-87.8616,21.5719],[-87.9347,21.6016],[-87.963,21.6099],[-88.0253,21.6098],[-88.0699,21.6135],[-88.1301,21.6248],[-88.1488,21.623],[-88.1888,21.6037],[-88.1886,21.5817],[-88.1886,21.5607],[-88.1922,21.5412],[-88.1842,21.5347],[-88.1817,21.5097],[-88.1856,21.4802],[-88.2068,21.4823],[-88.2089,21.4562],[-88.1667,21.4527],[-88.1636,21.478],[-88.1309,21.4751],[-88.1322,21.4459],[-88.1426,21.4253],[-88.1245,21.4233],[-88.1221,21.4421],[-88.1032,21.4436],[-88.105,21.4283],[-88.0985,21.4116],[-88.0746,21.4098],[-88.0791,21.4297],[-88.0749,21.4625],[-88.0813,21.4793],[-88.0828,21.5251],[-88.0704,21.5358],[-88.0169,21.5318],[-87.9996,21.5328],[-87.9927,21.5703],[-87.9742,21.5655],[-87.9364,21.5635],[-87.9193,21.5584],[-87.9075,21.5679],[-87.8786,21.5667],[-87.8616,21.5719]]]},"properties":{"CVE_ENT":"31","CVE_MUN":"061","CVEGEO":"31061","NOMGEO":"Río Lagartos"}},
{"type":"Feature","geometry":{"type":"Polygon","coordinates":[[[-88.0099,21.0101],[-88.0085,21.0271],[-87.9946,21.0284],[-88,21.0459],[-87.9854,21.0515],[-87.9822,21.0746],[-88.0037,21.0743],[-88.0043,21.0542],[-88.0164,21.0423],[-88.0518,21.0412],[-88.049,21.0673],[-88.0725,21.0625],[-88.098,21.07],[-88.1317,21.0647],[-88.1297,21.0782],[-88.1831,21.0869],[-88.1828,21.0761],[-88.2149,21.0784],[-88.2168,21.0664],[-88.2458,21.0279],[-88.2428,20.9915],[-88.2347,20.9758],[-88.1992,20.9755],[-88.1991,20.9644],[-88.1713,20.9597],[-88.1652,20.9692],[-88.1274,20.9641],[-88.1259,20.9508],[-88.1033,20.9417],[-88.0883,20.9287],[-88.0621,20.9249],[-88.0427,21.0018],[-87.9991,20.9848],[-88.0099,21.0101]]]},"properties":{"CVE_ENT":"31","CVE_MUN":"008","CVEGEO":"31008","NOMGEO":"Calotmul"}},
{"type":"Feature","geometry":{"type":"Polygon","coordinates":[[[-90.3818,20.7495],[-90.2785,20.7506],[-90.2594,20.7342],[-90.2307,20.7642],[-90.207,20.7448],[-90.1935,20.7589],[-90.1953,20.7709],[-90.1813,20.789],[-90.1238,20.778],[-90.1598,20.8415],[-90.1752,20.8365],[-90.2165,20.8413],[-90.2092,20.9048],[-90.2278,20.9074],[-90.2154,20.9277],[-90.2723,20.9349],[-90.2386,20.9979],[-90.1677,21.0489],[-90.1678,21.1092],[-90.1972,21.0892],[-90.2214,21.0794],[-90.3122,21.0276],[-90.3415,21.0017],[-90.3694,20.9536],[-90.395,20.8723],[-90.4045,20.8468],[-90.3794,20.8483],[-90.3818,20.7495]]]},"properties":{"CVE_ENT":"31","CVE_MUN":"011","CVEGEO":"31011","NOMGEO":"Celestún"}},
{"type":"Feature","geometry":{"type":"Polygon","coordinates":[[[-88.253,20.5613],[-88.2374,20.5823],[-88.2444,20.5998],[-88.2443,20.627],[-88.2696,20.6262],[-88.2903,20.5981],[-88.3297,20.5971],[-88.3617,20.5661],[-88.3625,20.5466],[-88.3815,20.5449],[-88.3981,20.5323],[-88.4236,20.5321],[-88.4418,20.5344],[-88.4532,20.5258],[-88.4502,20.4913],[-88.4716,20.4939],[-88.5176,20.4696],[-88.5286,20.4049],[-88.5179,20.4162],[-88.4496,20.4039],[-88.4297,20.3964],[-88.4029,20.3741],[-88.3972,20.3912],[-88.3825,20.4086],[-88.3801,20.4594],[-88.369,20.4885],[-88.3536,20.485],[-88.333,20.502],[-88.3292,20.5215],[-88.3181,20.5321],[-88.3276,20.5461],[-88.3253,20.5633],[-88.2982,20.564],[-88.2761,20.558],[-88.253,20.5613]]]},"properties":{"CVE_ENT":"31","CVE_MUN":"081","CVEGEO":"31081","NOMGEO":"Tekom"}},
{"type":"Feature","geometry":{"type":"Polygon","coordinates":[[[-88.4966,20.622],[-88.5305,20.6384],[-88.5844,20.6382],[-88.5925,20.6454],[-88.612,20.6457],[-88.6252,20.6261],[-88.6554,20.6258],[-88.6468,20.6199],[-88.628,20.5916],[-88.6233,20.5555],[-88.613,20.5548],[-88.6107,20.483],[-88.6309,20.4829],[-88.6381,20.4504],[-88.6579,20.4521],[-88.6505,20.4064],[-88.6526,20.3526],[-88.6483,20.351],[-88.6554,20.2927],[-88.6454,20.2835],[-88.6172,20.2797],[-88.6114,20.3158],[-88.5976,20.3163],[-88.5879,20.4117],[-88.5286,20.4049],[-88.5176,20.4696],[-88.4716,20.4939],[-88.4502,20.4913],[-88.4532,20.5258],[-88.4418,20.5344],[-88.4236,20.5321],[-88.433,20.5394],[-88.5035,20.5282],[-88.5278,20.5209],[-88.5482,20.5265],[-88.5466,20.5364],[-88.5005,20.5389],[-88.5043,20.561],[-88.4567,20.5691],[-88.4469,20.6079],[-88.4941,20.6037],[-88.4966,20.622]]]},"properties":{"CVE_ENT":"31","CVE_MUN":"017","CVEGEO":"31017","NOMGEO":"Chankom"}},
{"type":"Feature","geometry":{"type":"Polygon","coordinates":[[[-88.4104,20.86],[-88.4368,20.8485],[-88.4253,20.835],[-88.4282,20.8187],[-88.4529,20.8322],[-88.4632,20.8558],[-88.4775,20.8573],[-88.4772,20.8326],[-88.4857,20.827],[-88.4929,20.8056],[-88.4768,20.8017],[-88.4867,20.7877],[-88.5015,20.791],[-88.5139,20.7793],[-88.5181,20.7584],[-88.5025,20.7571],[-88.5074,20.7408],[-88.5388,20.7416],[-88.5712,20.7281],[-88.5767,20.747],[-88.6262,20.7447],[-88.622,20.7773],[-88.6364,20.7793],[-88.6435,20.7484],[-88.6688,20.7456],[-88.6875,20.7033],[-88.671,20.6939],[-88.6719,20.6493],[-88.6526,20.6427],[-88.6554,20.6258],[-88.6252,20.6261],[-88.612,20.6457],[-88.5925,20.6454],[-88.5844,20.6382],[-88.5305,20.6384],[-88.4966,20.622],[-88.4833,20.6471],[-88.4503,20.6489],[-88.4346,20.6421],[-88.4289,20.6537],[-88.4401,20.6696],[-88.4397,20.708],[-88.4345,20.7183],[-88.4047,20.7097],[-88.3864,20.7133],[-88.3822,20.761],[-88.3476,20.7591],[-88.3484,20.7716],[-88.3273,20.788],[-88.3194,20.8095],[-88.3252,20.8181],[-88.3433,20.8193],[-88.3465,20.8362],[-88.3684,20.8337],[-88.3751,20.7969],[-88.3907,20.7877],[-88.3977,20.8049],[-88.3987,20.831],[-88.4104,20.86]]]},"properties":{"CVE_ENT":"31","CVE_MUN":"091","CVEGEO":"31091","NOMGEO":"Tinum"}},
{"type":"Feature","geometry":{"type":"Polygon","coordinates":[[[-87.5783,20.9257],[-87.5331,20.9996],[-87.534,21.242],[-87.5349,21.4902],[-87.584,21.4978],[-87.683,21.5198],[-87.6973,21.5203],[-87.7466,21.5326],[-87.8185,21.5547],[-87.8616,21.5719],[-87.8786,21.5667],[-87.9075,21.5679],[-87.9193,21.5584],[-87.9364,21.5635],[-87.9742,21.5655],[-87.9927,21.5703],[-87.9996,21.5328],[-88.0169,21.5318],[-88.0704,21.5358],[-88.0828,21.5251],[-88.0813,21.4793],[-88.0749,21.4625],[-88.0791,21.4297],[-88.0746,21.4098],[-88.0985,21.4116],[-88.1024,21.4044],[-88.125,21.4069],[-88.1328,21.3255],[-88.1576,21.3206],[-88.1624,21.2991],[-88.1874,21.3043],[-88.1902,21.2942],[-88.2089,21.297],[-88.2145,21.2542],[-88.258,21.2363],[-88.2408,21.2143],[-88.2721,21.2168],[-88.2838,21.2021],[-88.2717,21.1819],[-88.2516,21.1858],[-88.245,21.1758],[-88.2478,21.1563],[-88.2662,21.1548],[-88.2663,21.1439],[-88.2293,21.1224],[-88.2398,21.1051],[-88.2414,21.0838],[-88.2235,21.0695],[-88.2149,21.0784],[-88.1828,21.0761],[-88.1831,21.0869],[-88.1297,21.0782],[-88.1317,21.0647],[-88.098,21.07],[-88.0725,21.0625],[-88.049,21.0673],[-88.0518,21.0412],[-88.0164,21.0423],[-88.0043,21.0542],[-88.0037,21.0743],[-87.9822,21.0746],[-87.9854,21.0515],[-88,21.0459],[-87.9946,21.0284],[-88.0085,21.0271],[-88.0099,21.0101],[-88.0017,21.0123],[-87.9581,21.0067],[-87.9305,20.9941],[-87.9057,21.0007],[-87.8937,21.0134],[-87.8845,20.9992],[-87.8633,20.9895],[-87.847,20.9901],[-87.8261,20.9817],[-87.7873,20.9604],[-87.751,20.9604],[-87.7538,20.9758],[-87.6891,20.9709],[-87.6866,20.9598],[-87.6663,20.9583],[-87.6632,20.9939],[-87.6251,20.9911],[-87.6246,20.9788],[-87.5827,20.9756],[-87.5783,20.9257]]]},"properties":{"CVE_ENT":"31","CVE_MUN":"096","CVEGEO":"31096","NOMGEO":"Tizimín"}},
{"type":"Feature","geometry":{"type":"Polygon","coordinates":[[[-89.4531,20.5559],[-89.4625,20.5497],[-89.4795,20.5615],[-89.4927,20.5575],[-89.5228,20.574],[-89.5437,20.5769],[-89.5374,20.5365],[-89.5494,20.5379],[-89.5645,20.5226],[-89.5783,20.5215],[-89.5874,20.5035],[-89.5263,20.4833],[-89.5032,20.4755],[-89.4986,20.467],[-89.5041,20.4424],[-89.494,20.4314],[-89.4495,20.4236],[-89.4268,20.4311],[-89.4154,20.4403],[-89.4127,20.4564],[-89.4078,20.4879],[-89.4333,20.4975],[-89.4236,20.5269],[-89.4405,20.5273],[-89.4531,20.5559]]]},"properties":{"CVE_ENT":"31","CVE_MUN":"018","CVEGEO":"31018","NOMGEO":"Chapab"}},
{"type":"Feature","geometry":{"type":"MultiPolygon","coordinates":[[[[-89.6749,21.3483],[-89.6713,21.3449],[-89.665,21.2886],[-89.7909,21.2608],[-89.8453,21.2507],[-89.8644,21.2422],[-89.8655,21.174],[-89.8362,21.1625],[-89.8261,21.1765],[-89.8233,21.2007],[-89.8012,21.1491],[-89.7841,21.1739],[-89.7595,21.171],[-89.7575,21.1859],[-89.7283,21.1832],[-89.7077,21.1566],[-89.6945,21.1692],[-89.68,21.1675],[-89.6821,21.1507],[-89.6547,21.1444],[-89.6443,21.1756],[-89.619,21.173],[-89.6181,21.1643],[-89.5981,21.1587],[-89.5857,21.1682],[-89.569,21.172],[-89.5669,21.1864],[-89.5299,21.1814],[-89.5266,21.1904],[-89.5183,21.1801],[-89.5228,21.1791],[-89.5155,21.1702],[-89.513,21.1724],[-89.5156,21.2396],[-89.5105,21.268],[-89.5007,21.2802],[-89.5017,21.314],[-89.5526,21.3076],[-89.5691,21.3022],[-89.6457,21.2896],[-89.6647,21.289],[-89.6707,21.3455],[-89.6749,21.3483]]],[[[-89.6655,22.5521],[-89.6976,22.5715],[-89.733,22.5801],[-89.7439,22.5775],[-89.7593,22.5606],[-89.7829,22.5531],[-89.7941,22.5347],[-89.7955,22.5151],[-89.7884,22.5042],[-89.7606,22.5202],[-89.7445,22.5366],[-89.7175,22.5184],[-89.7119,22.4981],[-89.7229,22.492],[-89.7316,22.4689],[-89.7214,22.4505],[-89.7185,22.4331],[-89.6875,22.3889],[-89.6698,22.3919],[-89.6485,22.3676],[-89.6308,22.3851],[-89.6089,22.4372],[-89.61,22.4718],[-89.6191,22.4955],[-89.6655,22.5521]]]]},"properties":{"CVE_ENT":"31","CVE_MUN":"059","CVEGEO":"31059","NOMGEO":"Progreso"}},
{"type":"Feature","geometry":{"type":"Polygon","coordinates":[[[-88.8081,20.96],[-88.8792,20.9862],[-88.8757,21],[-88.8951,20.9986],[-88.9205,21.0046],[-88.981,20.9864],[-88.9959,20.9865],[-89.0294,20.9951],[-89.0274,20.9694],[-89.0501,20.9803],[-89.0683,20.9704],[-89.088,20.9729],[-89.0931,20.9611],[-89.1119,20.9713],[-89.1387,20.9723],[-89.1457,20.9673],[-89.15,20.9479],[-89.1621,20.9534],[-89.1669,20.9339],[-89.1941,20.9461],[-89.1789,20.9312],[-89.181,20.9153],[-89.173,20.9025],[-89.1479,20.8956],[-89.1355,20.8809],[-89.1226,20.8948],[-89.103,20.8845],[-89.0635,20.8733],[-89.0487,20.8594],[-89.0451,20.8415],[-89.0534,20.8234],[-89.0396,20.8217],[-89.0213,20.8084],[-88.9964,20.811],[-88.9732,20.8076],[-88.97,20.7879],[-88.9799,20.7819],[-88.9757,20.7647],[-88.9523,20.7619],[-88.9484,20.783],[-88.9578,20.7863],[-88.9534,20.8222],[-88.9769,20.8312],[-88.9944,20.8251],[-88.9856,20.8524],[-89.0046,20.852],[-89.0317,20.867],[-89.0507,20.8652],[-89.0465,20.889],[-89.0252,20.8823],[-88.9998,20.8959],[-88.995,20.8868],[-88.9572,20.8986],[-88.9313,20.8951],[-88.9126,20.8767],[-88.8889,20.8635],[-88.8976,20.8542],[-88.9027,20.8258],[-88.8882,20.8299],[-88.8544,20.8595],[-88.8433,20.8446],[-88.8297,20.8534],[-88.8222,20.8741],[-88.8305,20.8995],[-88.8545,20.9062],[-88.845,20.9466],[-88.8246,20.9442],[-88.8081,20.96]]]},"properties":{"CVE_ENT":"31","CVE_MUN":"040","CVEGEO":"31040","NOMGEO":"Izamal"}},
{"type":"Feature","geometry":{"type":"Polygon","coordinates":[[[-87.8261,20.9817],[-87.847,20.9901],[-87.8633,20.9895],[-87.8845,20.9992],[-87.8937,21.0134],[-87.9057,21.0007],[-87.9305,20.9941],[-87.9581,21.0067],[-88.0017,21.0123],[-88.0099,21.0101],[-87.9991,20.9848],[-88.0427,21.0018],[-88.0621,20.9249],[-88.0883,20.9287],[-88.1033,20.9417],[-88.1259,20.9508],[-88.1274,20.9641],[-88.1652,20.9692],[-88.1713,20.9597],[-88.1991,20.9644],[-88.1887,20.934],[-88.2184,20.9224],[-88.2305,20.9468],[-88.2438,20.9483],[-88.2434,20.9233],[-88.2611,20.9241],[-88.2674,20.877],[-88.2814,20.8764],[-88.2863,20.8618],[-88.2786,20.843],[-88.281,20.8294],[-88.2666,20.8242],[-88.2626,20.8021],[-88.2439,20.7961],[-88.2415,20.782],[-88.2199,20.7884],[-88.2047,20.7828],[-88.1783,20.7834],[-88.148,20.7896],[-88.1233,20.7801],[-88.1046,20.781],[-88.1015,20.8192],[-88.0874,20.8185],[-88.0791,20.8382],[-88.0579,20.8177],[-88.0393,20.8292],[-88.0211,20.8308],[-88.0083,20.8798],[-87.9728,20.8797],[-87.9762,20.8655],[-87.9514,20.8622],[-87.9572,20.8476],[-87.9342,20.8405],[-87.9266,20.8733],[-87.8928,20.8678],[-87.8933,20.8806],[-87.8741,20.9004],[-87.8324,20.9029],[-87.8322,20.9251],[-87.82,20.9496],[-87.8261,20.9817]]]},"properties":{"CVE_ENT":"31","CVE_MUN":"085","CVEGEO":"31085","NOMGEO":"Temozón"}},
{"type":"Feature","geometry":{"type":"Polygon","coordinates":[[[-89.4147,21.3104],[-89.4346,21.3126],[-89.4381,21.2809],[-89.428,21.28],[-89.4317,21.2428],[-89.4373,21.2346],[-89.4084,21.2256],[-89.4056,21.2109],[-89.409,21.1815],[-89.3764,21.1723],[-89.3622,21.1614],[-89.3575,21.1461],[-89.3612,21.1201],[-89.3401,21.114],[-89.3226,21.0945],[-89.3237,21.0753],[-89.2908,21.0634],[-89.294,21.0432],[-89.2666,21.048],[-89.2507,21.0601],[-89.2547,21.0308],[-89.2405,21.0179],[-89.2086,21.0354],[-89.195,21.0549],[-89.1784,21.0572],[-89.172,21.0899],[-89.1811,21.0985],[-89.2176,21.1052],[-89.2079,21.125],[-89.186,21.1248],[-89.1897,21.1548],[-89.1429,21.1648],[-89.132,21.1464],[-89.119,21.153],[-89.1259,21.175],[-89.1466,21.1674],[-89.1427,21.2064],[-89.1485,21.2411],[-89.1597,21.2316],[-89.1567,21.2046],[-89.1761,21.1876],[-89.1925,21.1903],[-89.2004,21.204],[-89.2161,21.2059],[-89.2191,21.1845],[-89.2194,21.162],[-89.2922,21.172],[-89.2972,21.1645],[-89.327,21.1679],[-89.3282,21.1785],[-89.3435,21.1878],[-89.3425,21.2031],[-89.3641,21.2105],[-89.3858,21.2104],[-89.4023,21.1973],[-89.3975,21.2319],[-89.3892,21.2488],[-89.4069,21.2781],[-89.4025,21.3093],[-89.4147,21.3104]]]},"properties":{"CVE_ENT":"31","CVE_MUN":"052","CVEGEO":"31052","NOMGEO":"Motul"}},
{"type":"Feature","geometry":{"type":"Polygon","coordinates":[[[-90.0185,20.736],[-90.0297,20.74],[-90.0787,20.7459],[-90.0846,20.775],[-90.0825,20.7883],[-90.1107,20.7926],[-90.1192,20.8369],[-90.1598,20.8415],[-90.1238,20.778],[-90.1813,20.789],[-90.1953,20.7709],[-90.1935,20.7589],[-90.207,20.7448],[-90.2307,20.7642],[-90.2594,20.7342],[-90.2785,20.7506],[-90.3818,20.7495],[-90.3819,20.7473],[-90.3361,20.7473],[-90.337,20.6257],[-90.3218,20.6265],[-90.3256,20.6495],[-90.3245,20.7103],[-90.2861,20.6886],[-90.2255,20.65],[-90.2251,20.6319],[-90.2154,20.622],[-90.1982,20.6205],[-90.1928,20.5904],[-90.1672,20.5816],[-90.1541,20.5917],[-90.1394,20.588],[-90.1192,20.5919],[-90.109,20.5834],[-90.1112,20.5594],[-90.0541,20.5547],[-90.0679,20.5165],[-90.0485,20.5142],[-90.0376,20.4997],[-90.0335,20.536],[-89.9967,20.5107],[-90.0042,20.487],[-89.9025,20.3648],[-89.8935,20.3544],[-89.8707,20.3521],[-89.8699,20.3792],[-89.8504,20.3829],[-89.8331,20.4208],[-89.8252,20.464],[-89.8866,20.4694],[-89.8832,20.492],[-89.9119,20.4938],[-89.9098,20.5121],[-89.9186,20.5192],[-89.9471,20.5218],[-89.926,20.5575],[-89.9621,20.5705],[-89.9587,20.597],[-89.9781,20.6148],[-89.9744,20.6326],[-89.9954,20.6362],[-90.0043,20.6517],[-90.0256,20.6551],[-90.0217,20.6761],[-89.9852,20.6699],[-89.9769,20.6506],[-89.9255,20.6641],[-89.922,20.6909],[-89.9508,20.6946],[-89.9387,20.7206],[-89.9779,20.7243],[-90.0185,20.736]]]},"properties":{"CVE_ENT":"31","CVE_MUN":"048","CVEGEO":"31048","NOMGEO":"Maxcanú"}},
{"type":"Feature","geometry":{"type":"Polygon","coordinates":[[[-89.3367,20.4471],[-89.3472,20.4546],[-89.3807,20.447],[-89.3722,20.4323],[-89.3872,20.4002],[-89.4302,20.4166],[-89.4397,20.406],[-89.4338,20.3885],[-89.437,20.3665],[-89.4289,20.3535],[-89.4075,20.3589],[-89.41,20.3423],[-89.4042,20.3195],[-89.3825,20.332],[-89.3607,20.3243],[-89.3531,20.3241],[-89.3265,20.3347],[-89.3331,20.358],[-89.3182,20.3606],[-89.3039,20.39],[-89.3153,20.3907],[-89.3156,20.4175],[-89.3297,20.4289],[-89.3367,20.4471]]]},"properties":{"CVE_ENT":"31","CVE_MUN":"047","CVEGEO":"31047","NOMGEO":"Maní"}},
{"type":"Feature","geometry":{"type":"Polygon","coordinates":[[[-89.1902,20.7508],[-89.2009,20.7399],[-89.2201,20.7412],[-89.2318,20.7521],[-89.225,20.7692],[-89.2578,20.773],[-89.274,20.7624],[-89.2925,20.7625],[-89.302,20.7649],[-89.2991,20.7345],[-89.3173,20.6729],[-89.3386,20.6615],[-89.3447,20.6382],[-89.3583,20.6259],[-89.3538,20.614],[-89.323,20.6083],[-89.3271,20.6245],[-89.2913,20.6341],[-89.2923,20.6508],[-89.2601,20.6493],[-89.2601,20.6409],[-89.2104,20.6384],[-89.2048,20.6245],[-89.2066,20.6026],[-89.192,20.6061],[-89.1574,20.6057],[-89.1443,20.5769],[-89.1541,20.5691],[-89.1479,20.5558],[-89.1436,20.5536],[-89.1327,20.5802],[-89.1445,20.5878],[-89.1483,20.5975],[-89.1634,20.6118],[-89.1594,20.626],[-89.1557,20.6458],[-89.1717,20.6507],[-89.169,20.6673],[-89.1777,20.6741],[-89.2083,20.6789],[-89.2013,20.6936],[-89.2102,20.7106],[-89.2076,20.7316],[-89.1902,20.7508]]]},"properties":{"CVE_ENT":"31","CVE_MUN":"036","CVEGEO":"31036","NOMGEO":"Homún"}},
{"type":"Feature","geometry":{"type":"Polygon","coordinates":[[[-88.6931,20.7523],[-88.7103,20.7538],[-88.7331,20.7709],[-88.7529,20.7595],[-88.7793,20.7688],[-88.7814,20.7489],[-88.7751,20.7411],[-88.8206,20.7347],[-88.826,20.713],[-88.839,20.7183],[-88.8499,20.7077],[-88.8359,20.6901],[-88.844,20.6691],[-88.856,20.6897],[-88.8703,20.6945],[-88.8868,20.6739],[-88.8764,20.6613],[-88.8394,20.6541],[-88.8422,20.6164],[-88.8228,20.6129],[-88.8261,20.601],[-88.8542,20.6017],[-88.8711,20.5661],[-88.8816,20.5648],[-88.8866,20.5353],[-88.9064,20.5494],[-88.9262,20.5532],[-88.9201,20.5346],[-88.9406,20.5312],[-88.9451,20.4977],[-88.9678,20.4992],[-88.9771,20.4939],[-88.9632,20.4919],[-88.9577,20.4657],[-88.9729,20.4529],[-88.9845,20.4342],[-88.951,20.4219],[-88.9583,20.3376],[-88.9423,20.3274],[-88.8968,20.3215],[-88.8823,20.3138],[-88.8837,20.2997],[-88.8415,20.2962],[-88.8155,20.287],[-88.8248,20.2695],[-88.7973,20.2674],[-88.795,20.2875],[-88.7762,20.2921],[-88.7707,20.3107],[-88.7528,20.3079],[-88.7572,20.2887],[-88.7394,20.2861],[-88.6992,20.2668],[-88.7004,20.2522],[-88.6663,20.2492],[-88.6698,20.2109],[-88.6446,20.2071],[-88.6127,20.197],[-88.6016,20.2044],[-88.6058,20.2258],[-88.603,20.249],[-88.5814,20.2497],[-88.5729,20.3104],[-88.5976,20.3163],[-88.6114,20.3158],[-88.6172,20.2797],[-88.6454,20.2835],[-88.6554,20.2927],[-88.6483,20.351],[-88.6526,20.3526],[-88.6505,20.4064],[-88.6579,20.4521],[-88.6381,20.4504],[-88.6309,20.4829],[-88.6107,20.483],[-88.613,20.5548],[-88.6233,20.5555],[-88.628,20.5916],[-88.6468,20.6199],[-88.6554,20.6258],[-88.6526,20.6427],[-88.6719,20.6493],[-88.671,20.6939],[-88.6875,20.7033],[-88.6688,20.7456],[-88.6931,20.7523]]]},"properties":{"CVE_ENT":"31","CVE_MUN":"104","CVEGEO":"31104","NOMGEO":"Yaxcabá"}},
{"type":"Feature","geometry":{"type":"Polygon","coordinates":[[[-89.749,20.9709],[-89.7604,20.9752],[-89.7976,20.9768],[-89.8155,20.953],[-89.808,20.9419],[-89.8166,20.9198],[-89.8091,20.9104],[-89.8244,20.8972],[-89.8218,20.8813],[-89.8793,20.8823],[-89.8867,20.8621],[-89.8866,20.833],[-89.8778,20.8275],[-89.8766,20.827],[-89.8752,20.8258],[-89.8723,20.824],[-89.8512,20.8228],[-89.8496,20.7988],[-89.8247,20.7874],[-89.8093,20.7701],[-89.7968,20.7769],[-89.7878,20.7625],[-89.7509,20.7823],[-89.7393,20.7709],[-89.7465,20.7492],[-89.7363,20.747],[-89.7323,20.7204],[-89.7144,20.7184],[-89.6998,20.717],[-89.6897,20.7285],[-89.6931,20.7483],[-89.6919,20.7787],[-89.7083,20.7741],[-89.7118,20.7915],[-89.711,20.8227],[-89.6759,20.8278],[-89.6558,20.8518],[-89.6759,20.8596],[-89.6802,20.8781],[-89.6733,20.8901],[-89.6938,20.9219],[-89.7182,20.9272],[-89.7266,20.9458],[-89.7492,20.9531],[-89.749,20.9709]]]},"properties":{"CVE_ENT":"31","CVE_MUN":"101","CVEGEO":"31101","NOMGEO":"Umán"}},
{"type":"Feature","geometry":{"type":"Polygon","coordinates":[[[-87.9572,20.8476],[-87.9514,20.8622],[-87.9762,20.8655],[-87.9728,20.8797],[-88.0083,20.8798],[-88.0211,20.8308],[-88.0393,20.8292],[-88.0579,20.8177],[-88.0791,20.8382],[-88.0874,20.8185],[-88.1015,20.8192],[-88.1046,20.781],[-88.1233,20.7801],[-88.148,20.7896],[-88.1783,20.7834],[-88.2047,20.7828],[-88.2199,20.7884],[-88.2415,20.782],[-88.2439,20.7961],[-88.2626,20.8021],[-88.2666,20.8242],[-88.281,20.8294],[-88.2786,20.843],[-88.2968,20.8336],[-88.3237,20.8543],[-88.3166,20.8321],[-88.2961,20.8236],[-88.3016,20.8007],[-88.3183,20.7695],[-88.2961,20.7453],[-88.2846,20.7451],[-88.2906,20.719],[-88.3113,20.7197],[-88.303,20.7022],[-88.3026,20.6813],[-88.2918,20.6773],[-88.2968,20.6553],[-88.2806,20.6524],[-88.2822,20.6336],[-88.2696,20.6262],[-88.2443,20.627],[-88.2324,20.6482],[-88.1836,20.6515],[-88.1769,20.6254],[-88.1817,20.6159],[-88.168,20.6025],[-88.1725,20.5851],[-88.1605,20.5426],[-88.1723,20.5355],[-88.1585,20.5088],[-88.1247,20.5085],[-88.1176,20.4972],[-88.1263,20.4657],[-88.1368,20.4523],[-88.1296,20.4235],[-88.1176,20.4002],[-88.0979,20.4004],[-88.0738,20.3942],[-88.0745,20.3759],[-88.0649,20.3495],[-87.993,20.418],[-87.9951,20.4473],[-87.9627,20.4467],[-87.938,20.4702],[-87.9492,20.4714],[-87.9443,20.5147],[-88.0131,20.5217],[-88.0157,20.5337],[-87.9777,20.5287],[-87.9863,20.555],[-87.9787,20.5895],[-87.997,20.5995],[-88.0086,20.6137],[-88.0062,20.6329],[-88.0336,20.63],[-88.0329,20.6395],[-88.0127,20.669],[-88.0223,20.6854],[-88.0233,20.7056],[-88.0436,20.7144],[-88.0395,20.7293],[-88.0258,20.7333],[-87.9949,20.7302],[-87.9987,20.7456],[-88.0178,20.7479],[-88.0053,20.7902],[-87.9802,20.8038],[-87.9512,20.8117],[-87.9589,20.8288],[-87.9572,20.8476]]]},"properties":{"CVE_ENT":"31","CVE_MUN":"102","CVEGEO":"31102","NOMGEO":"Valladolid"}},
{"type":"Feature","geometry":{"type":"Polygon","coordinates":[[[-88.8433,20.8446],[-88.8544,20.8595],[-88.8882,20.8299],[-88.9027,20.8258],[-88.8976,20.8542],[-88.8889,20.8635],[-88.9126,20.8767],[-88.9313,20.8951],[-88.9572,20.8986],[-88.995,20.8868],[-88.9998,20.8959],[-89.0252,20.8823],[-89.0465,20.889],[-89.0507,20.8652],[-89.0317,20.867],[-89.0046,20.852],[-88.9856,20.8524],[-88.9944,20.8251],[-88.9769,20.8312],[-88.9534,20.8222],[-88.9441,20.8326],[-88.908,20.7987],[-88.8937,20.8063],[-88.8608,20.7953],[-88.8783,20.78],[-88.8896,20.7822],[-88.8906,20.7517],[-88.883,20.749],[-88.8845,20.7234],[-88.8885,20.7058],[-88.8703,20.6945],[-88.856,20.6897],[-88.844,20.6691],[-88.8359,20.6901],[-88.8499,20.7077],[-88.839,20.7183],[-88.826,20.713],[-88.8206,20.7347],[-88.7751,20.7411],[-88.7814,20.7489],[-88.7793,20.7688],[-88.7529,20.7595],[-88.7525,20.7791],[-88.7917,20.7808],[-88.7912,20.8107],[-88.8261,20.814],[-88.8297,20.7931],[-88.8572,20.8012],[-88.8525,20.8323],[-88.8433,20.8446]]]},"properties":{"CVE_ENT":"31","CVE_MUN":"071","CVEGEO":"31071","NOMGEO":"Sudzal"}},
{"type":"Feature","geometry":{"type":"Polygon","coordinates":[[[-88.8845,20.7234],[-88.892,20.7338],[-88.9307,20.7461],[-88.9247,20.7114],[-88.9399,20.7065],[-88.9805,20.706],[-88.9897,20.7204],[-89.0205,20.723],[-89.0336,20.7062],[-89.0003,20.6932],[-89.0118,20.6844],[-89.0604,20.704],[-89.0702,20.6745],[-89.0622,20.6574],[-89.1,20.6147],[-89.1207,20.617],[-89.1353,20.6002],[-89.1594,20.626],[-89.1634,20.6118],[-89.1483,20.5975],[-89.1445,20.5878],[-89.1327,20.5802],[-89.1436,20.5536],[-89.1274,20.5474],[-89.1232,20.5329],[-89.1102,20.5162],[-89.1021,20.5287],[-89.0724,20.5014],[-89.0556,20.5296],[-89.0366,20.5293],[-89.0467,20.5126],[-89.0493,20.493],[-89.0217,20.4912],[-89.017,20.5018],[-88.9997,20.5041],[-88.9976,20.4918],[-88.9771,20.4939],[-88.9678,20.4992],[-88.9451,20.4977],[-88.9406,20.5312],[-88.9201,20.5346],[-88.9262,20.5532],[-88.9064,20.5494],[-88.8866,20.5353],[-88.8816,20.5648],[-88.8711,20.5661],[-88.8542,20.6017],[-88.8261,20.601],[-88.8228,20.6129],[-88.8422,20.6164],[-88.8394,20.6541],[-88.8764,20.6613],[-88.8868,20.6739],[-88.8703,20.6945],[-88.8885,20.7058],[-88.8845,20.7234]]]},"properties":{"CVE_ENT":"31","CVE_MUN":"069","CVEGEO":"31069","NOMGEO":"Sotuta"}},
{"type":"Feature","geometry":{"type":"Polygon","coordinates":[[[-89.3449,20.8974],[-89.3641,20.9002],[-89.3646,20.9231],[-89.3818,20.9153],[-89.4343,20.9293],[-89.4476,20.9316],[-89.4557,20.9132],[-89.4347,20.8893],[-89.4117,20.8947],[-89.4165,20.842],[-89.4317,20.8476],[-89.4319,20.8265],[-89.438,20.8166],[-89.4044,20.7992],[-89.4199,20.7913],[-89.4194,20.7685],[-89.405,20.7652],[-89.4005,20.7793],[-89.3737,20.7691],[-89.3568,20.7539],[-89.3501,20.775],[-89.3196,20.7767],[-89.302,20.7649],[-89.2925,20.7625],[-89.2856,20.7847],[-89.3051,20.7939],[-89.3244,20.8102],[-89.32,20.8247],[-89.2941,20.8231],[-89.2824,20.8406],[-89.294,20.8535],[-89.3088,20.8538],[-89.3073,20.8748],[-89.3232,20.8675],[-89.3261,20.8567],[-89.3557,20.8608],[-89.3476,20.8756],[-89.3449,20.8974]]]},"properties":{"CVE_ENT":"31","CVE_MUN":"067","CVEGEO":"31067","NOMGEO":"Seyé"}},
{"type":"Feature","geometry":{"type":"Polygon","coordinates":[[[-89.5871,20.7282],[-89.5858,20.7451],[-89.5648,20.7871],[-89.5672,20.8002],[-89.5541,20.8078],[-89.5839,20.8227],[-89.5853,20.8287],[-89.5855,20.8322],[-89.5848,20.8371],[-89.585,20.8387],[-89.5784,20.83],[-89.5729,20.8375],[-89.5701,20.8415],[-89.5616,20.8404],[-89.5381,20.8375],[-89.5397,20.8414],[-89.5416,20.8461],[-89.5437,20.8509],[-89.545,20.8548],[-89.5588,20.8702],[-89.5527,20.8876],[-89.5825,20.8836],[-89.5989,20.8961],[-89.6056,20.9221],[-89.5714,20.9472],[-89.5708,20.9478],[-89.5705,20.9479],[-89.57,20.9485],[-89.568,20.952],[-89.5664,20.9618],[-89.5635,20.9818],[-89.5401,20.9819],[-89.5346,20.9809],[-89.5334,20.9817],[-89.53,20.9818],[-89.504,20.9819],[-89.5039,20.972],[-89.4906,20.9673],[-89.4795,20.9499],[-89.458,20.9517],[-89.4572,20.9602],[-89.4978,20.972],[-89.5003,21.0045],[-89.4892,21.0199],[-89.4665,21.0227],[-89.46,21.034],[-89.4891,21.0394],[-89.498,21.0386],[-89.4997,21.0365],[-89.5099,21.0441],[-89.5379,21.0505],[-89.5428,21.0593],[-89.5621,21.0639],[-89.5663,21.0781],[-89.5533,21.087],[-89.5499,21.1153],[-89.5588,21.128],[-89.5533,21.1567],[-89.5857,21.1682],[-89.5981,21.1587],[-89.6181,21.1643],[-89.619,21.173],[-89.6443,21.1756],[-89.6547,21.1444],[-89.6821,21.1507],[-89.68,21.1675],[-89.6945,21.1692],[-89.7077,21.1566],[-89.7283,21.1832],[-89.7575,21.1859],[-89.7595,21.171],[-89.7841,21.1739],[-89.8012,21.1491],[-89.7969,21.1392],[-89.7868,21.1386],[-89.7685,21.091],[-89.749,21.0887],[-89.7517,21.0713],[-89.7377,21.0699],[-89.7382,21.0603],[-89.7384,21.0494],[-89.7222,21.0523],[-89.7138,21.0538],[-89.7325,21.0131],[-89.7291,21.0037],[-89.7288,20.9988],[-89.7286,20.9938],[-89.7284,20.9909],[-89.7283,20.9882],[-89.7282,20.9865],[-89.7302,20.9871],[-89.734,20.9836],[-89.7454,20.9956],[-89.7492,20.9924],[-89.756,20.9997],[-89.76,20.9983],[-89.7603,20.9983],[-89.7643,20.9992],[-89.7646,20.9981],[-89.7653,20.9966],[-89.763,20.9949],[-89.7614,20.9965],[-89.76,20.9962],[-89.7586,20.9954],[-89.7446,20.9808],[-89.749,20.9709],[-89.7492,20.9531],[-89.7266,20.9458],[-89.7182,20.9272],[-89.6938,20.9219],[-89.6733,20.8901],[-89.6802,20.8781],[-89.6759,20.8596],[-89.6558,20.8518],[-89.6759,20.8278],[-89.711,20.8227],[-89.7118,20.7915],[-89.7083,20.7741],[-89.6919,20.7787],[-89.6931,20.7483],[-89.6765,20.7348],[-89.6581,20.7114],[-89.6435,20.7298],[-89.6091,20.715],[-89.5871,20.7282]]]},"properties":{"CVE_ENT":"31","CVE_MUN":"050","CVEGEO":"31050","NOMGEO":"Mérida"}},
{"type":"Feature","geometry":{"type":"Polygon","coordinates":[[[-88.1886,21.5817],[-88.1888,21.6037],[-88.2384,21.576],[-88.2442,21.5629],[-88.2935,21.5534],[-88.3232,21.5512],[-88.369,21.5659],[-88.4032,21.5643],[-88.4623,21.5527],[-88.5005,21.5422],[-88.5005,21.5123],[-88.4494,21.509],[-88.4479,21.5218],[-88.4114,21.518],[-88.4131,21.489],[-88.4383,21.491],[-88.4392,21.4788],[-88.4731,21.4844],[-88.4698,21.4584],[-88.4669,21.458],[-88.468,21.4326],[-88.4584,21.4438],[-88.4334,21.4416],[-88.435,21.43],[-88.4066,21.4305],[-88.4046,21.4434],[-88.3512,21.4348],[-88.3116,21.4335],[-88.288,21.4258],[-88.2789,21.4154],[-88.2636,21.4146],[-88.2579,21.3902],[-88.2118,21.3854],[-88.2015,21.4225],[-88.192,21.4314],[-88.1655,21.4343],[-88.1634,21.4524],[-88.2089,21.4562],[-88.2068,21.4823],[-88.1856,21.4802],[-88.1817,21.5097],[-88.1842,21.5347],[-88.1922,21.5412],[-88.1886,21.5607],[-88.1886,21.5817]]]},"properties":{"CVE_ENT":"31","CVE_MUN":"065","CVEGEO":"31065","NOMGEO":"San Felipe"}},
{"type":"Feature","geometry":{"type":"Polygon","coordinates":[[[-88.8022,21.291],[-88.8224,21.29],[-88.8707,21.2949],[-88.8838,21.2228],[-88.9164,21.2356],[-88.9308,21.2368],[-88.9343,21.219],[-88.9574,21.2187],[-88.9605,21.1972],[-89.0002,21.1992],[-89.001,21.1735],[-89.0109,21.1628],[-89.0116,21.1458],[-88.9935,21.1406],[-88.984,21.143],[-88.9499,21.1226],[-88.9394,21.0998],[-88.9662,21.0833],[-88.9801,21.0795],[-88.9757,21.0563],[-88.9601,21.0513],[-88.9574,21.079],[-88.9459,21.0783],[-88.9391,21.064],[-88.9201,21.0617],[-88.9104,21.0805],[-88.8918,21.0782],[-88.8921,21.0975],[-88.9228,21.1154],[-88.9122,21.1372],[-88.8996,21.1458],[-88.8643,21.1424],[-88.8577,21.1301],[-88.8328,21.1274],[-88.8341,21.1172],[-88.8087,21.1135],[-88.8079,21.1006],[-88.7797,21.1058],[-88.7628,21.1027],[-88.7588,21.0748],[-88.7428,21.0741],[-88.7363,21.0694],[-88.7099,21.0719],[-88.7061,21.081],[-88.6977,21.1119],[-88.7576,21.121],[-88.7546,21.1437],[-88.7979,21.1397],[-88.7979,21.1604],[-88.7791,21.1621],[-88.7768,21.1823],[-88.8165,21.1846],[-88.8196,21.216],[-88.8322,21.2309],[-88.8511,21.2404],[-88.8491,21.2496],[-88.805,21.2493],[-88.8022,21.291]]]},"properties":{"CVE_ENT":"31","CVE_MUN":"084","CVEGEO":"31084","NOMGEO":"Temax"}},
{"type":"Feature","geometry":{"type":"Polygon","coordinates":[[[-89.0761,20.3564],[-89.093,20.368],[-89.0717,20.3774],[-89.0933,20.3888],[-89.1075,20.4041],[-89.1469,20.3305],[-89.1497,20.3146],[-89.1749,20.3155],[-89.2079,20.3225],[-89.2197,20.3398],[-89.2379,20.3266],[-89.2611,20.3246],[-89.2938,20.3358],[-89.2966,20.3288],[-89.3265,20.3347],[-89.3531,20.3241],[-89.3391,20.3089],[-89.3082,20.3075],[-89.311,20.2915],[-89.2983,20.2792],[-89.2991,20.26],[-89.3115,20.2532],[-89.3355,20.2214],[-89.3595,20.2179],[-89.3712,20.1969],[-89.3768,20.1819],[-89.4015,20.1832],[-89.4152,20.1743],[-89.4218,20.1598],[-89.4133,20.1492],[-89.3672,20.135],[-89.3653,20.1102],[-89.3768,20.1041],[-89.3978,20.1079],[-89.4078,20.1366],[-89.4234,20.1244],[-89.425,20.086],[-89.3955,20.0759],[-89.3945,20.0626],[-89.3693,20.0574],[-89.371,20.0292],[-89.3834,20.0248],[-89.4139,20.026],[-89.4195,20.0306],[-89.5042,20.0386],[-89.5055,20.0272],[-89.5283,20.0125],[-89.5796,19.936],[-89.5868,19.9205],[-89.5875,19.8744],[-89.5774,19.8535],[-89.5361,19.7975],[-89.5257,19.7756],[-89.4759,19.7712],[-89.4791,19.7406],[-89.4917,19.7422],[-89.4772,19.7111],[-89.4683,19.7002],[-89.4481,19.6984],[-89.4125,19.6494],[-89.2966,19.5512],[-89.2196,19.608],[-89.2229,19.6367],[-89.1902,19.6333],[-89.1892,19.644],[-89.1449,19.6374],[-89.1495,19.5812],[-89.109,19.5823],[-89.1084,19.6123],[-89.1336,19.6146],[-89.1234,19.7034],[-89.0742,19.6942],[-89.0729,19.7086],[-89.0801,19.731],[-89.1032,19.7339],[-89.0971,19.7515],[-89.1117,19.7666],[-89.1462,19.7815],[-89.1369,19.8302],[-89.145,19.8507],[-89.122,19.8476],[-89.1039,19.9385],[-89.115,19.9391],[-89.1151,19.9624],[-89.1314,19.9671],[-89.1274,19.9987],[-89.1135,20.0128],[-89.141,20.0201],[-89.143,20.0368],[-89.1323,20.05],[-89.1256,20.0826],[-89.1506,20.0873],[-89.1433,20.099],[-89.1593,20.112],[-89.1418,20.1431],[-89.1383,20.177],[-89.1658,20.1853],[-89.1891,20.2001],[-89.1871,20.2168],[-89.1669,20.2238],[-89.1483,20.275],[-89.1307,20.2885],[-89.0926,20.2829],[-89.0856,20.2919],[-89.0822,20.3148],[-89.0976,20.3208],[-89.0819,20.3347],[-89.0761,20.3564]]]},"properties":{"CVE_ENT":"31","CVE_MUN":"079","CVEGEO":"31079","NOMGEO":"Tekax"}},
{"type":"Feature","geometry":{"type":"Polygon","coordinates":[[[-89.1666,20.7651],[-89.192,20.775],[-89.1927,20.7861],[-89.2168,20.7884],[-89.2578,20.773],[-89.225,20.7692],[-89.2318,20.7521],[-89.2201,20.7412],[-89.2009,20.7399],[-89.1902,20.7508],[-89.1666,20.7651]]]},"properties":{"CVE_ENT":"31","CVE_MUN":"064","CVEGEO":"31064","NOMGEO":"Sanahcat"}},
{"type":"Feature","geometry":{"type":"Polygon","coordinates":[[[-89.5871,20.7282],[-89.6091,20.715],[-89.6435,20.7298],[-89.6581,20.7114],[-89.6765,20.7348],[-89.6931,20.7483],[-89.6897,20.7285],[-89.6998,20.717],[-89.7144,20.7184],[-89.7223,20.7021],[-89.7716,20.7192],[-89.7707,20.6912],[-89.7498,20.6859],[-89.7449,20.6742],[-89.7587,20.6546],[-89.7597,20.6334],[-89.7455,20.628],[-89.7453,20.6277],[-89.746,20.626],[-89.7463,20.6257],[-89.7467,20.6244],[-89.7459,20.6204],[-89.7508,20.6066],[-89.7421,20.6073],[-89.7357,20.6096],[-89.7309,20.6085],[-89.7251,20.6088],[-89.7208,20.6083],[-89.7161,20.6079],[-89.6686,20.5928],[-89.666,20.5825],[-89.6167,20.5747],[-89.6288,20.599],[-89.5746,20.598],[-89.5745,20.5856],[-89.5441,20.5816],[-89.5315,20.5956],[-89.5403,20.6087],[-89.5305,20.617],[-89.5402,20.6308],[-89.5674,20.6398],[-89.5574,20.65],[-89.5547,20.6793],[-89.5643,20.6797],[-89.5608,20.7105],[-89.5767,20.7121],[-89.5871,20.7282]]]},"properties":{"CVE_ENT":"31","CVE_MUN":"001","CVEGEO":"31001","NOMGEO":"Abalá"}},
{"type":"Feature","geometry":{"type":"Polygon","coordinates":[[[-89.1479,20.5558],[-89.1717,20.5599],[-89.1829,20.544],[-89.1795,20.5265],[-89.1857,20.5155],[-89.214,20.5054],[-89.2308,20.5053],[-89.2373,20.4945],[-89.2447,20.4515],[-89.2427,20.4411],[-89.2249,20.4404],[-89.22,20.43],[-89.1928,20.4272],[-89.1816,20.4549],[-89.177,20.4692],[-89.1402,20.4712],[-89.133,20.4942],[-89.1458,20.5013],[-89.1378,20.5396],[-89.1232,20.5329],[-89.1274,20.5474],[-89.1436,20.5536],[-89.1479,20.5558]]]},"properties":{"CVE_ENT":"31","CVE_MUN":"049","CVEGEO":"31049","NOMGEO":"Mayapán"}},
{"type":"Feature","geometry":{"type":"Polygon","coordinates":[[[-88.2663,21.1439],[-88.2806,21.1198],[-88.3086,21.1259],[-88.3276,21.1257],[-88.3318,21.1443],[-88.356,21.1399],[-88.3681,21.1469],[-88.3929,21.1463],[-88.411,21.1401],[-88.4188,21.1486],[-88.4542,21.1532],[-88.4571,21.185],[-88.4781,21.1869],[-88.4907,21.1609],[-88.5091,21.1719],[-88.5071,21.1174],[-88.4938,21.1161],[-88.4928,21.0889],[-88.497,21.0747],[-88.48,21.0692],[-88.4712,21.0484],[-88.487,21.0236],[-88.4812,20.9938],[-88.4658,20.994],[-88.4604,20.9603],[-88.4877,20.9339],[-88.4644,20.9232],[-88.4515,20.9367],[-88.4447,20.9179],[-88.4222,20.9129],[-88.4264,20.8894],[-88.4141,20.8897],[-88.3881,20.8958],[-88.3745,20.9228],[-88.3532,20.9024],[-88.3382,20.8709],[-88.337,20.8553],[-88.3237,20.8543],[-88.2968,20.8336],[-88.2786,20.843],[-88.2863,20.8618],[-88.2814,20.8764],[-88.2674,20.877],[-88.2611,20.9241],[-88.2434,20.9233],[-88.2438,20.9483],[-88.2305,20.9468],[-88.2184,20.9224],[-88.1887,20.934],[-88.1991,20.9644],[-88.1992,20.9755],[-88.2347,20.9758],[-88.2428,20.9915],[-88.2458,21.0279],[-88.2168,21.0664],[-88.2149,21.0784],[-88.2235,21.0695],[-88.2414,21.0838],[-88.2398,21.1051],[-88.2293,21.1224],[-88.2663,21.1439]]]},"properties":{"CVE_ENT":"31","CVE_MUN":"032","CVEGEO":"31032","NOMGEO":"Espita"}},
{"type":"Feature","geometry":{"type":"Polygon","coordinates":[[[-89.2308,20.5053],[-89.2368,20.5168],[-89.2708,20.5212],[-89.2887,20.5299],[-89.2995,20.5167],[-89.3079,20.4858],[-89.3187,20.4647],[-89.3367,20.4471],[-89.3297,20.4289],[-89.3156,20.4175],[-89.2975,20.413],[-89.2875,20.4194],[-89.2791,20.4376],[-89.2514,20.4345],[-89.2447,20.4515],[-89.2373,20.4945],[-89.2308,20.5053]]]},"properties":{"CVE_ENT":"31","CVE_MUN":"024","CVEGEO":"31024","NOMGEO":"Chumayel"}},
{"type":"Feature","geometry":{"type":"Polygon","coordinates":[[[-88.4496,20.4039],[-88.5179,20.4162],[-88.5286,20.4049],[-88.5879,20.4117],[-88.5976,20.3163],[-88.5729,20.3104],[-88.5814,20.2497],[-88.603,20.249],[-88.6058,20.2258],[-88.6016,20.2044],[-88.6127,20.197],[-88.6147,20.1798],[-88.6408,20.1839],[-88.6457,20.1211],[-88.6746,20.1269],[-88.6747,20.1046],[-88.6901,20.1049],[-88.6906,20.0899],[-88.6399,20.1204],[-88.6192,20.1172],[-88.6127,20.1331],[-88.588,20.1315],[-88.5767,20.1481],[-88.5076,20.1434],[-88.5041,20.1743],[-88.5041,20.1747],[-88.5023,20.1901],[-88.5199,20.1923],[-88.4434,20.2381],[-88.4151,20.233],[-88.4091,20.2521],[-88.4063,20.3068],[-88.4143,20.3355],[-88.4302,20.3417],[-88.4593,20.3422],[-88.4564,20.3762],[-88.4496,20.4039]]]},"properties":{"CVE_ENT":"31","CVE_MUN":"022","CVEGEO":"31022","NOMGEO":"Chikindzonot"}},
{"type":"Feature","geometry":{"type":"Polygon","coordinates":[[[-89.0032,20.2912],[-89.0016,20.3352],[-89.0343,20.3337],[-89.0761,20.3564],[-89.0819,20.3347],[-89.0976,20.3208],[-89.0822,20.3148],[-89.0856,20.2919],[-89.0926,20.2829],[-89.1307,20.2885],[-89.1483,20.275],[-89.1669,20.2238],[-89.1871,20.2168],[-89.1891,20.2001],[-89.1658,20.1853],[-89.1383,20.177],[-89.1418,20.1431],[-89.1064,20.1391],[-89.1027,20.1646],[-89.0868,20.158],[-89.0778,20.157],[-89.0696,20.1824],[-89.0362,20.2371],[-89.0136,20.2402],[-89.0191,20.2673],[-89.0063,20.2666],[-89.0032,20.2912]]]},"properties":{"CVE_ENT":"31","CVE_MUN":"094","CVEGEO":"31094","NOMGEO":"Tixméhuac"}},
{"type":"Feature","geometry":{"type":"Polygon","coordinates":[[[-89.0803,21.2177],[-89.0807,21.2578],[-89.0727,21.2934],[-89.0798,21.3115],[-89.0983,21.3134],[-89.0855,21.3438],[-89.0729,21.3442],[-89.0684,21.3676],[-89.106,21.3586],[-89.158,21.355],[-89.1607,21.3311],[-89.1753,21.332],[-89.1767,21.3132],[-89.1467,21.3113],[-89.1501,21.2964],[-89.1661,21.2981],[-89.1718,21.2649],[-89.1556,21.2634],[-89.1485,21.2411],[-89.1427,21.2064],[-89.1149,21.2093],[-89.1076,21.2171],[-89.0803,21.2177]]]},"properties":{"CVE_ENT":"31","CVE_MUN":"106","CVEGEO":"31106","NOMGEO":"Yobaín"}},
{"type":"Feature","geometry":{"type":"Polygon","coordinates":[[[-89.4315,21.0897],[-89.4383,21.0848],[-89.4653,21.0714],[-89.4849,21.0835],[-89.5007,21.0643],[-89.491,21.0509],[-89.498,21.0386],[-89.4891,21.0394],[-89.4804,21.0364],[-89.46,21.034],[-89.4665,21.0227],[-89.4522,21.0372],[-89.4151,21.0402],[-89.3997,21.034],[-89.3965,21.0536],[-89.3863,21.0647],[-89.415,21.072],[-89.4175,21.0865],[-89.4315,21.0897]]]},"properties":{"CVE_ENT":"31","CVE_MUN":"105","CVEGEO":"31105","NOMGEO":"Yaxkukul"}},
{"type":"Feature","geometry":{"type":"Polygon","coordinates":[[[-89.0759,20.8233],[-89.0874,20.8366],[-89.0896,20.8512],[-89.1148,20.8401],[-89.1355,20.8472],[-89.1807,20.8526],[-89.1987,20.8368],[-89.2175,20.8357],[-89.2069,20.8349],[-89.1949,20.8164],[-89.2021,20.7942],[-89.1823,20.7988],[-89.1508,20.7965],[-89.1472,20.7733],[-89.0776,20.7582],[-89.072,20.7423],[-89.048,20.7463],[-89.0595,20.7815],[-89.0689,20.798],[-89.0844,20.8034],[-89.0759,20.8233]]]},"properties":{"CVE_ENT":"31","CVE_MUN":"103","CVEGEO":"31103","NOMGEO":"Xocchel"}},
{"type":"Feature","geometry":{"type":"Polygon","coordinates":[[[-88.6605,20.9137],[-88.6678,20.9378],[-88.6604,20.9831],[-88.7032,20.9877],[-88.7028,21.0245],[-88.7132,21.0396],[-88.7164,21.0227],[-88.7303,21.0169],[-88.7654,21.0188],[-88.767,21.0037],[-88.7467,20.9936],[-88.7624,20.9751],[-88.7752,20.9682],[-88.8055,20.9712],[-88.8081,20.96],[-88.8246,20.9442],[-88.845,20.9466],[-88.8545,20.9062],[-88.8305,20.8995],[-88.8222,20.8741],[-88.8297,20.8534],[-88.8433,20.8446],[-88.8525,20.8323],[-88.8572,20.8012],[-88.8297,20.7931],[-88.8261,20.814],[-88.7912,20.8107],[-88.7917,20.7808],[-88.7525,20.7791],[-88.7529,20.7595],[-88.7331,20.7709],[-88.7103,20.7538],[-88.6931,20.7523],[-88.6883,20.7636],[-88.6825,20.79],[-88.6723,20.8085],[-88.6813,20.8237],[-88.6631,20.8281],[-88.6622,20.8514],[-88.6783,20.8606],[-88.6622,20.899],[-88.6605,20.9137]]]},"properties":{"CVE_ENT":"31","CVE_MUN":"097","CVEGEO":"31097","NOMGEO":"Tunkás"}},
{"type":"Feature","geometry":{"type":"Polygon","coordinates":[[[-89.4343,20.9293],[-89.3952,20.9382],[-89.4314,20.9545],[-89.4253,20.9629],[-89.4243,20.9987],[-89.4402,21.0032],[-89.4648,21.0001],[-89.4912,21.0117],[-89.5003,21.0045],[-89.4978,20.972],[-89.4572,20.9602],[-89.458,20.9517],[-89.4795,20.9499],[-89.4906,20.9673],[-89.5039,20.972],[-89.504,20.9819],[-89.5346,20.9809],[-89.5402,20.9605],[-89.5066,20.9658],[-89.4967,20.947],[-89.4733,20.9397],[-89.4822,20.9151],[-89.4557,20.9132],[-89.4476,20.9316],[-89.4343,20.9293]]]},"properties":{"CVE_ENT":"31","CVE_MUN":"095","CVEGEO":"31095","NOMGEO":"Tixpéhual"}},
{"type":"Feature","geometry":{"type":"Polygon","coordinates":[[[-89.506,20.8782],[-89.5276,20.8727],[-89.5395,20.8611],[-89.5326,20.8532],[-89.5272,20.8571],[-89.5253,20.8506],[-89.5437,20.8509],[-89.5416,20.8461],[-89.5397,20.8414],[-89.5381,20.8375],[-89.5616,20.8404],[-89.5617,20.8404],[-89.5701,20.8415],[-89.5729,20.8375],[-89.5755,20.8339],[-89.5784,20.83],[-89.585,20.8387],[-89.5848,20.8371],[-89.5855,20.8322],[-89.5853,20.8287],[-89.5839,20.8227],[-89.5541,20.8078],[-89.5672,20.8002],[-89.5648,20.7871],[-89.5858,20.7451],[-89.5759,20.7433],[-89.5767,20.7121],[-89.5608,20.7105],[-89.5643,20.6797],[-89.5547,20.6793],[-89.5574,20.65],[-89.5674,20.6398],[-89.5402,20.6308],[-89.5305,20.617],[-89.5182,20.6781],[-89.5207,20.6964],[-89.5373,20.7144],[-89.5526,20.7089],[-89.5512,20.7359],[-89.5712,20.7371],[-89.5644,20.7765],[-89.5421,20.7579],[-89.5037,20.7638],[-89.4997,20.7774],[-89.4821,20.7808],[-89.4966,20.8182],[-89.4962,20.8314],[-89.5075,20.8454],[-89.491,20.8584],[-89.506,20.8782]]]},"properties":{"CVE_ENT":"31","CVE_MUN":"090","CVEGEO":"31090","NOMGEO":"Timucuy"}},
{"type":"Feature","geometry":{"type":"Polygon","coordinates":[[[-89.0345,21.1087],[-89.0429,21.1271],[-89.0758,21.1261],[-89.0771,21.1119],[-89.0941,21.1131],[-89.0968,21.1266],[-89.1121,21.1271],[-89.1159,21.1132],[-89.09,21.1039],[-89.0904,21.0842],[-89.1154,21.089],[-89.1189,21.0725],[-89.1023,21.0642],[-89.1033,21.0547],[-89.1031,21.0413],[-89.0762,21.0303],[-89.053,20.9957],[-89.0294,20.9951],[-88.9959,20.9865],[-88.9976,21.0013],[-89.023,21.0127],[-89.0423,21.0135],[-89.0501,21.0333],[-89.0564,21.0682],[-89.0432,21.074],[-89.0345,21.1087]]]},"properties":{"CVE_ENT":"31","CVE_MUN":"088","CVEGEO":"31088","NOMGEO":"Teya"}},
{"type":"Feature","geometry":{"type":"Polygon","coordinates":[[[-89.893,20.9445],[-89.8759,20.9642],[-89.8756,20.9858],[-89.8936,20.9978],[-89.9102,20.9839],[-89.9339,20.9867],[-89.9303,21.0055],[-89.9992,21.0299],[-90.0295,21.0276],[-90.0378,20.9972],[-90.0758,20.9951],[-90.0778,21.0092],[-90.1048,21.0101],[-90.1145,20.986],[-90.177,20.9888],[-90.1776,20.9734],[-90.2025,20.9768],[-90.2125,20.9683],[-90.2378,20.9308],[-90.2154,20.9277],[-90.2278,20.9074],[-90.2092,20.9048],[-90.1192,20.8946],[-90.0911,20.8932],[-90.0897,20.9116],[-90.0541,20.9118],[-90.0232,20.9184],[-90.0192,20.8972],[-90.0034,20.8943],[-89.976,20.9081],[-89.9774,20.9288],[-89.9698,20.9501],[-89.9105,20.9366],[-89.9074,20.9238],[-89.8953,20.9257],[-89.893,20.9445]]]},"properties":{"CVE_ENT":"31","CVE_MUN":"087","CVEGEO":"31087","NOMGEO":"Tetiz"}},
{"type":"Feature","geometry":{"type":"Polygon","coordinates":[[[-88.9601,21.0513],[-88.9757,21.0563],[-88.9801,21.0795],[-88.9662,21.0833],[-88.9394,21.0998],[-88.9499,21.1226],[-88.984,21.143],[-88.9935,21.1406],[-89.0174,21.1361],[-89.0187,21.1073],[-89.0345,21.1087],[-89.0432,21.074],[-89.0564,21.0682],[-89.0501,21.0333],[-89.0423,21.0135],[-89.023,21.0127],[-88.9976,21.0013],[-88.9959,20.9865],[-88.981,20.9864],[-88.9772,21.0154],[-88.9893,21.0287],[-88.9601,21.0513]]]},"properties":{"CVE_ENT":"31","CVE_MUN":"086","CVEGEO":"31086","NOMGEO":"Tepakán"}},
{"type":"Feature","geometry":{"type":"Polygon","coordinates":[[[-89.2472,21.276],[-89.2654,21.2831],[-89.264,21.3002],[-89.2298,21.2958],[-89.2259,21.3482],[-89.2815,21.3425],[-89.3081,21.3432],[-89.3228,21.3386],[-89.325,21.2922],[-89.3208,21.279],[-89.2662,21.2745],[-89.2472,21.276]]]},"properties":{"CVE_ENT":"31","CVE_MUN":"083","CVEGEO":"31083","NOMGEO":"Telchac Puerto"}},
{"type":"Feature","geometry":{"type":"Polygon","coordinates":[[[-89.2472,21.276],[-89.2662,21.2745],[-89.2858,21.2525],[-89.2692,21.2379],[-89.2716,21.2137],[-89.287,21.2062],[-89.2856,21.1789],[-89.2922,21.172],[-89.2194,21.162],[-89.2191,21.1845],[-89.2311,21.1917],[-89.2346,21.2129],[-89.2462,21.2432],[-89.2193,21.2628],[-89.2472,21.276]]]},"properties":{"CVE_ENT":"31","CVE_MUN":"082","CVEGEO":"31082","NOMGEO":"Telchac Pueblo"}},
{"type":"Feature","geometry":{"type":"Polygon","coordinates":[[[-89.1479,20.5558],[-89.1541,20.5691],[-89.1443,20.5769],[-89.1574,20.6057],[-89.192,20.6061],[-89.2066,20.6026],[-89.2048,20.6245],[-89.2104,20.6384],[-89.2601,20.6409],[-89.2601,20.6493],[-89.2923,20.6508],[-89.2913,20.6341],[-89.3271,20.6245],[-89.323,20.6083],[-89.3538,20.614],[-89.3745,20.5909],[-89.397,20.5721],[-89.3779,20.5206],[-89.3399,20.5176],[-89.3311,20.4881],[-89.3079,20.4858],[-89.2995,20.5167],[-89.2887,20.5299],[-89.2708,20.5212],[-89.2368,20.5168],[-89.2308,20.5053],[-89.214,20.5054],[-89.1857,20.5155],[-89.1795,20.5265],[-89.1829,20.544],[-89.1717,20.5599],[-89.1479,20.5558]]]},"properties":{"CVE_ENT":"31","CVE_MUN":"080","CVEGEO":"31080","NOMGEO":"Tekit"}},
{"type":"Feature","geometry":{"type":"Polygon","coordinates":[[[-89.7928,20.6332],[-89.8123,20.6351],[-89.8083,20.6176],[-89.8261,20.6057],[-89.8288,20.5959],[-89.8539,20.601],[-89.8729,20.5923],[-89.896,20.5943],[-89.9289,20.626],[-89.9313,20.5952],[-89.9587,20.597],[-89.9621,20.5705],[-89.926,20.5575],[-89.9471,20.5218],[-89.9186,20.5192],[-89.9098,20.5121],[-89.9119,20.4938],[-89.8832,20.492],[-89.8866,20.4694],[-89.8252,20.464],[-89.8228,20.4754],[-89.7929,20.4719],[-89.7847,20.5347],[-89.7629,20.5345],[-89.7556,20.5916],[-89.7547,20.6071],[-89.7497,20.6108],[-89.7459,20.6204],[-89.7467,20.6244],[-89.7463,20.6257],[-89.746,20.626],[-89.7453,20.6277],[-89.749,20.6291],[-89.7928,20.6332]]]},"properties":{"CVE_ENT":"31","CVE_MUN":"055","CVEGEO":"31055","NOMGEO":"Opichén"}},
{"type":"Feature","geometry":{"type":"Polygon","coordinates":[[[-89.0294,20.9951],[-89.053,20.9957],[-89.0762,21.0303],[-89.1031,21.0413],[-89.1033,21.0547],[-89.1587,21.0541],[-89.1599,21.0449],[-89.1461,21.0284],[-89.1322,21.0268],[-89.1379,21.0005],[-89.151,21.0003],[-89.1537,20.9686],[-89.1457,20.9673],[-89.1387,20.9723],[-89.1119,20.9713],[-89.0931,20.9611],[-89.088,20.9729],[-89.0683,20.9704],[-89.0501,20.9803],[-89.0274,20.9694],[-89.0294,20.9951]]]},"properties":{"CVE_ENT":"31","CVE_MUN":"078","CVEGEO":"31078","NOMGEO":"Tekantó"}},
{"type":"Feature","geometry":{"type":"Polygon","coordinates":[[[-88.7099,21.0719],[-88.7363,21.0694],[-88.7428,21.0741],[-88.7498,21.0544],[-88.7781,21.0555],[-88.8034,21.0488],[-88.8055,21.0311],[-88.8772,21.0342],[-88.9147,21.033],[-88.9015,21.0624],[-88.8763,21.0637],[-88.8588,21.046],[-88.8543,21.0764],[-88.8918,21.0782],[-88.9104,21.0805],[-88.9201,21.0617],[-88.9391,21.064],[-88.9459,21.0783],[-88.9574,21.079],[-88.9601,21.0513],[-88.9893,21.0287],[-88.9772,21.0154],[-88.981,20.9864],[-88.9205,21.0046],[-88.8951,20.9986],[-88.8757,21],[-88.8792,20.9862],[-88.8081,20.96],[-88.8055,20.9712],[-88.7752,20.9682],[-88.7624,20.9751],[-88.7467,20.9936],[-88.767,21.0037],[-88.7654,21.0188],[-88.7303,21.0169],[-88.7164,21.0227],[-88.7132,21.0396],[-88.7099,21.0719]]]},"properties":{"CVE_ENT":"31","CVE_MUN":"077","CVEGEO":"31077","NOMGEO":"Tekal de Venegas"}},
{"type":"Feature","geometry":{"type":"Polygon","coordinates":[[[-89.3031,20.9427],[-89.3249,20.9414],[-89.327,20.8948],[-89.3449,20.8974],[-89.3476,20.8756],[-89.3557,20.8608],[-89.3261,20.8567],[-89.3232,20.8675],[-89.3073,20.8748],[-89.3088,20.8538],[-89.294,20.8535],[-89.2824,20.8406],[-89.2782,20.8488],[-89.2528,20.8487],[-89.239,20.8571],[-89.2283,20.87],[-89.2145,20.9003],[-89.2399,20.9086],[-89.243,20.9328],[-89.2624,20.9405],[-89.2813,20.9342],[-89.3031,20.9427]]]},"properties":{"CVE_ENT":"31","CVE_MUN":"074","CVEGEO":"31074","NOMGEO":"Tahmek"}},
{"type":"Feature","geometry":{"type":"Polygon","coordinates":[[[-88.7973,20.2674],[-88.8248,20.2695],[-88.8155,20.287],[-88.8415,20.2962],[-88.8837,20.2997],[-88.8823,20.3138],[-88.8968,20.3215],[-88.9423,20.3274],[-88.943,20.3173],[-88.9763,20.3208],[-88.9823,20.2891],[-88.9888,20.2645],[-88.9791,20.2242],[-88.9786,20.2061],[-88.9679,20.1961],[-88.9685,20.1669],[-88.9058,20.163],[-88.8999,20.2012],[-88.8318,20.1937],[-88.8259,20.2087],[-88.8055,20.2298],[-88.7948,20.2344],[-88.7924,20.254],[-88.7973,20.2674]]]},"properties":{"CVE_ENT":"31","CVE_MUN":"073","CVEGEO":"31073","NOMGEO":"Tahdziú"}},
{"type":"Feature","geometry":{"type":"Polygon","coordinates":[[[-89.132,21.1464],[-89.1429,21.1648],[-89.1897,21.1548],[-89.186,21.1248],[-89.2079,21.125],[-89.2176,21.1052],[-89.1811,21.0985],[-89.172,21.0899],[-89.1784,21.0572],[-89.1587,21.0541],[-89.1033,21.0547],[-89.1023,21.0642],[-89.1189,21.0725],[-89.1154,21.089],[-89.0904,21.0842],[-89.09,21.1039],[-89.1159,21.1132],[-89.1121,21.1271],[-89.1264,21.1195],[-89.132,21.1464]]]},"properties":{"CVE_ENT":"31","CVE_MUN":"072","CVEGEO":"31072","NOMGEO":"Suma"}},
{"type":"Feature","geometry":{"type":"Polygon","coordinates":[[[-88.2838,21.2021],[-88.2845,21.2237],[-88.3163,21.227],[-88.3104,21.2527],[-88.3362,21.2564],[-88.3384,21.2791],[-88.3321,21.297],[-88.3892,21.3021],[-88.4286,21.2992],[-88.4444,21.2698],[-88.4646,21.2722],[-88.4692,21.2489],[-88.4781,21.1869],[-88.4571,21.185],[-88.4542,21.1532],[-88.4188,21.1486],[-88.411,21.1401],[-88.3929,21.1463],[-88.3681,21.1469],[-88.356,21.1399],[-88.3318,21.1443],[-88.3276,21.1257],[-88.3086,21.1259],[-88.2806,21.1198],[-88.2663,21.1439],[-88.2662,21.1548],[-88.2478,21.1563],[-88.245,21.1758],[-88.2516,21.1858],[-88.2717,21.1819],[-88.2838,21.2021]]]},"properties":{"CVE_ENT":"31","CVE_MUN":"070","CVEGEO":"31070","NOMGEO":"Sucilá"}},
{"type":"Feature","geometry":{"type":"Polygon","coordinates":[[[-89.1485,21.2411],[-89.1556,21.2634],[-89.1718,21.2649],[-89.1661,21.2981],[-89.1501,21.2964],[-89.1467,21.3113],[-89.1767,21.3132],[-89.1753,21.332],[-89.1607,21.3311],[-89.158,21.355],[-89.2259,21.3482],[-89.2298,21.2958],[-89.264,21.3002],[-89.2654,21.2831],[-89.2472,21.276],[-89.2193,21.2628],[-89.2462,21.2432],[-89.2346,21.2129],[-89.2311,21.1917],[-89.2191,21.1845],[-89.2161,21.2059],[-89.2004,21.204],[-89.1925,21.1903],[-89.1761,21.1876],[-89.1567,21.2046],[-89.1597,21.2316],[-89.1485,21.2411]]]},"properties":{"CVE_ENT":"31","CVE_MUN":"068","CVEGEO":"31068","NOMGEO":"Sinanché"}},
{"type":"Feature","geometry":{"type":"Polygon","coordinates":[[[-89.8168,20.9198],[-89.8213,20.9057],[-89.8392,20.9113],[-89.8629,20.9036],[-89.8728,20.9427],[-89.893,20.9445],[-89.8953,20.9257],[-89.9074,20.9238],[-89.9141,20.9074],[-89.9092,20.8964],[-89.9179,20.8823],[-89.9081,20.8628],[-89.9204,20.838],[-89.9292,20.8606],[-89.9495,20.8592],[-89.9987,20.8655],[-90.0016,20.8445],[-89.9794,20.8398],[-89.9773,20.8187],[-89.996,20.7658],[-89.9746,20.7605],[-89.9444,20.7617],[-89.9233,20.7951],[-89.9111,20.7938],[-89.9143,20.7549],[-89.8951,20.7514],[-89.8868,20.7736],[-89.8935,20.8024],[-89.8756,20.8041],[-89.8723,20.824],[-89.8752,20.8258],[-89.8766,20.827],[-89.8778,20.8275],[-89.8866,20.833],[-89.8867,20.8621],[-89.8793,20.8823],[-89.8218,20.8813],[-89.8244,20.8972],[-89.8091,20.9104],[-89.8168,20.9198]]]},"properties":{"CVE_ENT":"31","CVE_MUN":"063","CVEGEO":"31063","NOMGEO":"Samahil"}},
{"type":"Feature","geometry":{"type":"Polygon","coordinates":[[[-88.6007,20.878],[-88.6182,20.8938],[-88.6159,20.9106],[-88.6377,20.9169],[-88.6605,20.9137],[-88.6622,20.899],[-88.6783,20.8606],[-88.6622,20.8514],[-88.6631,20.8281],[-88.6813,20.8237],[-88.6723,20.8085],[-88.6825,20.79],[-88.6883,20.7636],[-88.663,20.7623],[-88.6595,20.7837],[-88.6461,20.7742],[-88.639,20.8076],[-88.6221,20.8008],[-88.6207,20.8229],[-88.5921,20.8111],[-88.5705,20.8372],[-88.5657,20.8567],[-88.6022,20.8638],[-88.6007,20.878]]]},"properties":{"CVE_ENT":"31","CVE_MUN":"060","CVEGEO":"31060","NOMGEO":"Quintana Roo"}},
{"type":"Feature","geometry":{"type":"Polygon","coordinates":[[[-89.6139,20.4296],[-89.6385,20.4426],[-89.6423,20.4885],[-89.6333,20.5089],[-89.6338,20.5598],[-89.6824,20.559],[-89.6913,20.5331],[-89.7137,20.5341],[-89.7029,20.5611],[-89.7268,20.5734],[-89.7277,20.5808],[-89.7556,20.5916],[-89.7629,20.5345],[-89.7847,20.5347],[-89.7929,20.4719],[-89.8228,20.4754],[-89.8252,20.464],[-89.8331,20.4208],[-89.8504,20.3829],[-89.8699,20.3792],[-89.8707,20.3521],[-89.8213,20.3418],[-89.8182,20.3365],[-89.7876,20.3372],[-89.7878,20.3566],[-89.7757,20.3685],[-89.7284,20.3487],[-89.7205,20.3934],[-89.6947,20.3855],[-89.6778,20.4139],[-89.6276,20.4008],[-89.6342,20.413],[-89.6292,20.425],[-89.6139,20.4296]]]},"properties":{"CVE_ENT":"31","CVE_MUN":"053","CVEGEO":"31053","NOMGEO":"Muna"}},
{"type":"Feature","geometry":{"type":"Polygon","coordinates":[[[-89.9074,20.9238],[-89.9105,20.9366],[-89.9698,20.9501],[-89.9774,20.9288],[-89.976,20.9081],[-90.0034,20.8943],[-90.0192,20.8972],[-90.0232,20.9184],[-90.0541,20.9118],[-90.0897,20.9116],[-90.0911,20.8932],[-90.1192,20.8946],[-90.2092,20.9048],[-90.2165,20.8413],[-90.1752,20.8365],[-90.1598,20.8415],[-90.1192,20.8369],[-90.1107,20.7926],[-90.0825,20.7883],[-90.0846,20.775],[-90.0787,20.7459],[-90.0297,20.74],[-90.0185,20.736],[-90.0097,20.766],[-89.996,20.7658],[-89.9773,20.8187],[-89.9794,20.8398],[-90.0016,20.8445],[-89.9987,20.8655],[-89.9495,20.8592],[-89.9292,20.8606],[-89.9204,20.838],[-89.9081,20.8628],[-89.9179,20.8823],[-89.9092,20.8964],[-89.9141,20.9074],[-89.9074,20.9238]]]},"properties":{"CVE_ENT":"31","CVE_MUN":"044","CVEGEO":"31044","NOMGEO":"Kinchil"}},
{"type":"Feature","geometry":{"type":"Polygon","coordinates":[[[-89.6015,20.2731],[-89.5978,20.2875],[-89.6177,20.288],[-89.6162,20.3037],[-89.6025,20.3253],[-89.6039,20.3473],[-89.5972,20.354],[-89.6225,20.3676],[-89.6348,20.3502],[-89.6569,20.3713],[-89.6821,20.3736],[-89.673,20.3458],[-89.7098,20.3576],[-89.7284,20.3487],[-89.7757,20.3685],[-89.7878,20.3566],[-89.7876,20.3372],[-89.8182,20.3365],[-89.8213,20.3418],[-89.8707,20.3521],[-89.8935,20.3544],[-89.9025,20.3648],[-89.838,20.2872],[-89.8724,20.2876],[-89.8748,20.2623],[-89.8757,20.2531],[-89.8407,20.251],[-89.8435,20.2093],[-89.8025,20.2016],[-89.8029,20.1649],[-89.794,20.1362],[-89.7485,20.1793],[-89.6981,20.1888],[-89.6959,20.199],[-89.6636,20.2076],[-89.6405,20.195],[-89.6517,20.177],[-89.6492,20.164],[-89.6265,20.1529],[-89.6164,20.1731],[-89.6181,20.1905],[-89.582,20.2146],[-89.5772,20.2375],[-89.5962,20.2506],[-89.6015,20.2731]]]},"properties":{"CVE_ENT":"31","CVE_MUN":"066","CVEGEO":"31066","NOMGEO":"Santa Elena"}},
{"type":"Feature","geometry":{"type":"Polygon","coordinates":[[[-88.3801,20.6725],[-88.4099,20.6732],[-88.412,20.6628],[-88.4289,20.6537],[-88.4346,20.6421],[-88.4503,20.6489],[-88.4833,20.6471],[-88.4966,20.622],[-88.4941,20.6037],[-88.4469,20.6079],[-88.4567,20.5691],[-88.5043,20.561],[-88.5005,20.5389],[-88.5466,20.5364],[-88.5482,20.5265],[-88.5278,20.5209],[-88.5035,20.5282],[-88.433,20.5394],[-88.4162,20.5488],[-88.4098,20.5775],[-88.3757,20.5902],[-88.3455,20.6071],[-88.3471,20.6175],[-88.3851,20.623],[-88.3696,20.6421],[-88.3873,20.6441],[-88.3941,20.6585],[-88.3801,20.6725]]]},"properties":{"CVE_ENT":"31","CVE_MUN":"043","CVEGEO":"31043","NOMGEO":"Kaua"}},
{"type":"Feature","geometry":{"type":"Polygon","coordinates":[[[-89.5261,21.1898],[-89.5299,21.1814],[-89.5669,21.1864],[-89.5663,21.164],[-89.5533,21.1567],[-89.5588,21.128],[-89.5434,21.1265],[-89.5366,21.1199],[-89.5274,21.1239],[-89.5228,21.1247],[-89.5215,21.1159],[-89.5119,21.1207],[-89.5026,21.1223],[-89.4886,21.1288],[-89.4817,21.1297],[-89.4764,21.1317],[-89.4707,21.1322],[-89.4739,21.1374],[-89.4836,21.1362],[-89.4902,21.1345],[-89.4882,21.1461],[-89.4969,21.1514],[-89.499,21.171],[-89.5155,21.1702],[-89.5183,21.1801],[-89.5261,21.1898]]]},"properties":{"CVE_ENT":"31","CVE_MUN":"020","CVEGEO":"31020","NOMGEO":"Chicxulub Pueblo"}},
{"type":"Feature","geometry":{"type":"Polygon","coordinates":[[[-89.4147,21.3104],[-89.429,21.3204],[-89.4533,21.3222],[-89.5017,21.314],[-89.5007,21.2802],[-89.5105,21.268],[-89.5156,21.2396],[-89.5123,21.1709],[-89.499,21.171],[-89.4969,21.1514],[-89.4882,21.1461],[-89.4902,21.1345],[-89.4838,21.134],[-89.4836,21.1362],[-89.4739,21.1374],[-89.4633,21.1698],[-89.4547,21.1766],[-89.453,21.1997],[-89.4422,21.2039],[-89.4373,21.2346],[-89.4317,21.2428],[-89.428,21.28],[-89.4381,21.2809],[-89.4346,21.3126],[-89.4147,21.3104]]]},"properties":{"CVE_ENT":"31","CVE_MUN":"039","CVEGEO":"31039","NOMGEO":"Ixil"}},
{"type":"Feature","geometry":{"type":"Polygon","coordinates":[[[-89.072,20.7423],[-89.0776,20.7582],[-89.1472,20.7733],[-89.1666,20.7651],[-89.1902,20.7508],[-89.2076,20.7316],[-89.2102,20.7106],[-89.2013,20.6936],[-89.2083,20.6789],[-89.1777,20.6741],[-89.169,20.6673],[-89.1717,20.6507],[-89.1557,20.6458],[-89.1594,20.626],[-89.1353,20.6002],[-89.1207,20.617],[-89.1,20.6147],[-89.0622,20.6574],[-89.0702,20.6745],[-89.0604,20.704],[-89.0759,20.7054],[-89.072,20.7423]]]},"properties":{"CVE_ENT":"31","CVE_MUN":"037","CVEGEO":"31037","NOMGEO":"Huhí"}},
{"type":"Feature","geometry":{"type":"Polygon","coordinates":[[[-89.1941,20.9461],[-89.2032,20.9505],[-89.2118,20.9452],[-89.2145,20.9258],[-89.243,20.9328],[-89.2399,20.9086],[-89.2145,20.9003],[-89.2283,20.87],[-89.239,20.8571],[-89.2367,20.8446],[-89.2175,20.8357],[-89.1987,20.8368],[-89.1807,20.8526],[-89.1355,20.8472],[-89.1148,20.8401],[-89.0896,20.8512],[-89.0874,20.8366],[-89.0759,20.8233],[-89.0534,20.8234],[-89.0451,20.8415],[-89.0487,20.8594],[-89.0635,20.8733],[-89.103,20.8845],[-89.1226,20.8948],[-89.1355,20.8809],[-89.1479,20.8956],[-89.173,20.9025],[-89.181,20.9153],[-89.1789,20.9312],[-89.1941,20.9461]]]},"properties":{"CVE_ENT":"31","CVE_MUN":"035","CVEGEO":"31035","NOMGEO":"Hoctún"}},
{"type":"Feature","geometry":{"type":"Polygon","coordinates":[[[-89.239,20.8571],[-89.2528,20.8487],[-89.2782,20.8488],[-89.2824,20.8406],[-89.2941,20.8231],[-89.32,20.8247],[-89.3244,20.8102],[-89.3051,20.7939],[-89.2856,20.7847],[-89.2925,20.7625],[-89.274,20.7624],[-89.2578,20.773],[-89.2168,20.7884],[-89.1927,20.7861],[-89.192,20.775],[-89.1666,20.7651],[-89.1472,20.7733],[-89.1508,20.7965],[-89.1823,20.7988],[-89.2021,20.7942],[-89.1949,20.8164],[-89.2069,20.8349],[-89.2175,20.8357],[-89.2367,20.8446],[-89.239,20.8571]]]},"properties":{"CVE_ENT":"31","CVE_MUN":"034","CVEGEO":"31034","NOMGEO":"Hocabá"}},
{"type":"Feature","geometry":{"type":"Polygon","coordinates":[[[-90.0042,20.487],[-89.9967,20.5107],[-90.0335,20.536],[-90.0376,20.4997],[-90.0485,20.5142],[-90.0679,20.5165],[-90.0541,20.5547],[-90.1112,20.5594],[-90.109,20.5834],[-90.1192,20.5919],[-90.1394,20.588],[-90.1541,20.5917],[-90.1672,20.5816],[-90.1928,20.5904],[-90.1982,20.6205],[-90.2154,20.622],[-90.2251,20.6319],[-90.2255,20.65],[-90.2861,20.6886],[-90.3245,20.7103],[-90.3256,20.6495],[-90.3218,20.6265],[-90.337,20.6257],[-90.3361,20.7473],[-90.3819,20.7473],[-90.3866,20.5556],[-90.3411,20.5537],[-90.3352,20.5413],[-90.2346,20.5453],[-90.2325,20.5199],[-90.2238,20.5192],[-90.2342,20.4705],[-90.1848,20.461],[-90.1863,20.4369],[-90.1605,20.4419],[-90.1293,20.4404],[-90.101,20.4253],[-90.0672,20.4252],[-90.0571,20.433],[-90.0481,20.4598],[-90.0042,20.487]]]},"properties":{"CVE_ENT":"31","CVE_MUN":"033","CVEGEO":"31033","NOMGEO":"Halachó"}},
{"type":"Feature","geometry":{"type":"Polygon","coordinates":[[[-88.7428,21.0741],[-88.7588,21.0748],[-88.7628,21.1027],[-88.7797,21.1058],[-88.8079,21.1006],[-88.8087,21.1135],[-88.8341,21.1172],[-88.8328,21.1274],[-88.8577,21.1301],[-88.8643,21.1424],[-88.8996,21.1458],[-88.9122,21.1372],[-88.9228,21.1154],[-88.8921,21.0975],[-88.8918,21.0782],[-88.8543,21.0764],[-88.8588,21.046],[-88.8763,21.0637],[-88.9015,21.0624],[-88.9147,21.033],[-88.8772,21.0342],[-88.8055,21.0311],[-88.8034,21.0488],[-88.7781,21.0555],[-88.7498,21.0544],[-88.7428,21.0741]]]},"properties":{"CVE_ENT":"31","CVE_MUN":"031","CVEGEO":"31031","NOMGEO":"Dzoncauich"}},
{"type":"Feature","geometry":{"type":"Polygon","coordinates":[[[-88.9471,21.3591],[-88.9547,21.3822],[-88.9714,21.3819],[-88.9945,21.3772],[-89.0684,21.3676],[-89.0729,21.3442],[-89.0855,21.3438],[-89.0983,21.3134],[-89.0798,21.3115],[-89.0727,21.2934],[-89.0807,21.2578],[-89.0803,21.2177],[-89.0647,21.2079],[-89.046,21.2062],[-89.0351,21.1952],[-89.0002,21.1992],[-88.9605,21.1972],[-88.9574,21.2187],[-88.9793,21.2168],[-88.9855,21.2319],[-88.9835,21.2662],[-88.9996,21.2612],[-89.0133,21.2719],[-88.9982,21.2945],[-88.9772,21.2925],[-88.9769,21.3307],[-88.9642,21.3315],[-88.9471,21.3591]]]},"properties":{"CVE_ENT":"31","CVE_MUN":"027","CVEGEO":"31027","NOMGEO":"Dzidzantún"}},
{"type":"Feature","geometry":{"type":"Polygon","coordinates":[[[-89.2662,21.2745],[-89.3208,21.279],[-89.325,21.2922],[-89.3228,21.3386],[-89.4005,21.3303],[-89.4533,21.3222],[-89.429,21.3204],[-89.4147,21.3104],[-89.4025,21.3093],[-89.4069,21.2781],[-89.3892,21.2488],[-89.3975,21.2319],[-89.4023,21.1973],[-89.3858,21.2104],[-89.3641,21.2105],[-89.3425,21.2031],[-89.3435,21.1878],[-89.3282,21.1785],[-89.327,21.1679],[-89.2972,21.1645],[-89.2922,21.172],[-89.2856,21.1789],[-89.287,21.2062],[-89.2716,21.2137],[-89.2692,21.2379],[-89.2858,21.2525],[-89.2662,21.2745]]]},"properties":{"CVE_ENT":"31","CVE_MUN":"026","CVEGEO":"31026","NOMGEO":"Dzemul"}},
{"type":"Feature","geometry":{"type":"Polygon","coordinates":[[[-89.494,20.4314],[-89.5041,20.4424],[-89.4986,20.467],[-89.5032,20.4755],[-89.5263,20.4833],[-89.5402,20.4757],[-89.5425,20.4574],[-89.579,20.4602],[-89.5843,20.4323],[-89.6139,20.4296],[-89.6292,20.425],[-89.6342,20.413],[-89.6276,20.4008],[-89.6778,20.4139],[-89.6947,20.3855],[-89.7205,20.3934],[-89.7284,20.3487],[-89.7098,20.3576],[-89.673,20.3458],[-89.6821,20.3736],[-89.6569,20.3713],[-89.6348,20.3502],[-89.6225,20.3676],[-89.5972,20.354],[-89.6039,20.3473],[-89.6025,20.3253],[-89.6162,20.3037],[-89.6177,20.288],[-89.5978,20.2875],[-89.6015,20.2731],[-89.5789,20.268],[-89.5399,20.265],[-89.5417,20.2497],[-89.5072,20.2465],[-89.5048,20.2612],[-89.4797,20.2572],[-89.4725,20.2904],[-89.5038,20.3086],[-89.5197,20.3121],[-89.5245,20.3428],[-89.4825,20.3184],[-89.4856,20.3076],[-89.4686,20.3025],[-89.4441,20.3158],[-89.4364,20.3313],[-89.44,20.3477],[-89.4564,20.3582],[-89.4684,20.3358],[-89.4917,20.3615],[-89.4832,20.3754],[-89.4896,20.3914],[-89.5071,20.3981],[-89.494,20.4314]]]},"properties":{"CVE_ENT":"31","CVE_MUN":"089","CVEGEO":"31089","NOMGEO":"Ticul"}},
{"type":"Feature","geometry":{"type":"Polygon","coordinates":[[[-89.3807,20.447],[-89.4127,20.4564],[-89.4154,20.4403],[-89.4268,20.4311],[-89.4495,20.4236],[-89.494,20.4314],[-89.5071,20.3981],[-89.4896,20.3914],[-89.4832,20.3754],[-89.4917,20.3615],[-89.4684,20.3358],[-89.4564,20.3582],[-89.44,20.3477],[-89.4289,20.3535],[-89.437,20.3665],[-89.4338,20.3885],[-89.4397,20.406],[-89.4302,20.4166],[-89.3872,20.4002],[-89.3722,20.4323],[-89.3807,20.447]]]},"properties":{"CVE_ENT":"31","CVE_MUN":"025","CVEGEO":"31025","NOMGEO":"Dzan"}},
{"type":"Feature","geometry":{"type":"Polygon","coordinates":[[[-89.0868,20.158],[-89.1027,20.1646],[-89.1064,20.1391],[-89.1418,20.1431],[-89.1593,20.112],[-89.1433,20.099],[-89.1506,20.0873],[-89.1256,20.0826],[-89.1323,20.05],[-89.143,20.0368],[-89.141,20.0201],[-89.1135,20.0128],[-89.1274,19.9987],[-89.1314,19.9671],[-89.1151,19.9624],[-89.115,19.9391],[-89.1039,19.9385],[-89.122,19.8476],[-89.145,19.8507],[-89.1369,19.8302],[-89.1462,19.7815],[-89.1117,19.7666],[-89.0971,19.7515],[-89.1032,19.7339],[-89.0801,19.731],[-89.0729,19.7086],[-89.0742,19.6942],[-89.076,19.6854],[-89.0362,19.678],[-89.0305,19.7088],[-88.9975,19.7049],[-88.9947,19.7274],[-89.0488,19.7215],[-89.0252,19.7767],[-89.0041,19.772],[-88.9995,19.798],[-88.9745,19.8181],[-88.9564,19.8168],[-88.9969,19.8203],[-88.9901,19.8756],[-88.9849,19.8934],[-88.9587,19.8903],[-88.9649,19.8629],[-88.9347,19.8579],[-88.9195,19.8669],[-88.9094,19.9418],[-88.9173,19.9602],[-88.9453,19.969],[-88.9463,19.9871],[-88.966,19.9897],[-88.9997,20.0327],[-88.9767,20.0379],[-88.9676,20.0676],[-88.9773,20.0719],[-88.9764,20.0905],[-88.9878,20.0945],[-88.9847,20.1238],[-88.993,20.1247],[-89.0297,20.1291],[-89.0386,20.1356],[-89.0886,20.1507],[-89.0868,20.158]]]},"properties":{"CVE_ENT":"31","CVE_MUN":"098","CVEGEO":"31098","NOMGEO":"Tzucacab"}},
{"type":"Feature","geometry":{"type":"Polygon","coordinates":[[[-88.8845,20.7234],[-88.883,20.749],[-88.8906,20.7517],[-88.8896,20.7822],[-88.8783,20.78],[-88.8608,20.7953],[-88.8937,20.8063],[-88.908,20.7987],[-88.9441,20.8326],[-88.9534,20.8222],[-88.9578,20.7863],[-88.9484,20.783],[-88.9523,20.7619],[-88.9757,20.7647],[-88.9799,20.7819],[-88.97,20.7879],[-88.9732,20.8076],[-88.9964,20.811],[-89.0213,20.8084],[-89.0396,20.8217],[-89.0534,20.8234],[-89.0759,20.8233],[-89.0844,20.8034],[-89.0689,20.798],[-89.0595,20.7815],[-89.048,20.7463],[-89.072,20.7423],[-89.0759,20.7054],[-89.0604,20.704],[-89.0118,20.6844],[-89.0003,20.6932],[-89.0336,20.7062],[-89.0205,20.723],[-88.9897,20.7204],[-88.9805,20.706],[-88.9399,20.7065],[-88.9247,20.7114],[-88.9307,20.7461],[-88.892,20.7338],[-88.8845,20.7234]]]},"properties":{"CVE_ENT":"31","CVE_MUN":"042","CVEGEO":"31042","NOMGEO":"Kantunil"}},
{"type":"Feature","geometry":{"type":"Polygon","coordinates":[[[-89.5441,20.5816],[-89.5745,20.5856],[-89.5746,20.598],[-89.6288,20.599],[-89.6167,20.5747],[-89.666,20.5825],[-89.6686,20.5928],[-89.7161,20.6079],[-89.7208,20.6083],[-89.7251,20.6088],[-89.7309,20.6085],[-89.7357,20.6096],[-89.7421,20.6073],[-89.7508,20.6066],[-89.7547,20.6071],[-89.7556,20.5916],[-89.7277,20.5808],[-89.7268,20.5734],[-89.7029,20.5611],[-89.7137,20.5341],[-89.6913,20.5331],[-89.6824,20.559],[-89.6338,20.5598],[-89.6333,20.5089],[-89.6423,20.4885],[-89.6385,20.4426],[-89.6139,20.4296],[-89.5843,20.4323],[-89.579,20.4602],[-89.5425,20.4574],[-89.5402,20.4757],[-89.5263,20.4833],[-89.5874,20.5035],[-89.5783,20.5215],[-89.5645,20.5226],[-89.5494,20.5379],[-89.5374,20.5365],[-89.5437,20.5769],[-89.5441,20.5816]]]},"properties":{"CVE_ENT":"31","CVE_MUN":"062","CVEGEO":"31062","NOMGEO":"Sacalum"}},
{"type":"Feature","geometry":{"type":"Polygon","coordinates":[[[-89.1075,20.4041],[-89.158,20.4069],[-89.159,20.4217],[-89.1748,20.4258],[-89.1816,20.4549],[-89.1928,20.4272],[-89.22,20.43],[-89.2249,20.4404],[-89.2427,20.4411],[-89.2447,20.4515],[-89.2514,20.4345],[-89.2791,20.4376],[-89.2875,20.4194],[-89.2975,20.413],[-89.3156,20.4175],[-89.3153,20.3907],[-89.3039,20.39],[-89.3182,20.3606],[-89.3331,20.358],[-89.3265,20.3347],[-89.2966,20.3288],[-89.2938,20.3358],[-89.2611,20.3246],[-89.2379,20.3266],[-89.2197,20.3398],[-89.2079,20.3225],[-89.1749,20.3155],[-89.1497,20.3146],[-89.1469,20.3305],[-89.1075,20.4041]]]},"properties":{"CVE_ENT":"31","CVE_MUN":"075","CVEGEO":"31075","NOMGEO":"Teabo"}},
{"type":"Feature","geometry":{"type":"Polygon","coordinates":[[[-89.7453,20.6277],[-89.7455,20.628],[-89.7506,20.6304],[-89.7597,20.6334],[-89.7587,20.6546],[-89.7449,20.6742],[-89.7498,20.6859],[-89.7707,20.6912],[-89.7716,20.7192],[-89.7223,20.7021],[-89.7144,20.7184],[-89.7323,20.7204],[-89.7363,20.747],[-89.7465,20.7492],[-89.7393,20.7709],[-89.7509,20.7823],[-89.7878,20.7625],[-89.7968,20.7769],[-89.8093,20.7701],[-89.8247,20.7874],[-89.8496,20.7988],[-89.8512,20.8228],[-89.8723,20.824],[-89.8756,20.8041],[-89.8935,20.8024],[-89.8868,20.7736],[-89.8951,20.7514],[-89.9143,20.7549],[-89.9111,20.7938],[-89.9233,20.7951],[-89.9444,20.7617],[-89.9746,20.7605],[-89.996,20.7658],[-90.0097,20.766],[-90.0185,20.736],[-89.9779,20.7243],[-89.9387,20.7206],[-89.9508,20.6946],[-89.922,20.6909],[-89.9213,20.6977],[-89.8718,20.6918],[-89.8214,20.6691],[-89.7928,20.6332],[-89.749,20.6291],[-89.7453,20.6277]]]},"properties":{"CVE_ENT":"31","CVE_MUN":"023","CVEGEO":"31023","NOMGEO":"Chocholá"}},
{"type":"Feature","geometry":{"type":"Polygon","coordinates":[[[-88.9823,20.2891],[-89.0032,20.2912],[-89.0063,20.2666],[-89.0191,20.2673],[-89.0136,20.2402],[-89.0362,20.2371],[-89.0696,20.1824],[-89.0778,20.157],[-89.0868,20.158],[-89.0886,20.1507],[-89.0386,20.1356],[-89.0297,20.1291],[-88.993,20.1247],[-88.9988,20.1467],[-88.9962,20.1702],[-88.9685,20.1669],[-88.9679,20.1961],[-88.9786,20.2061],[-88.9791,20.2242],[-88.9888,20.2645],[-88.9823,20.2891]]]},"properties":{"CVE_ENT":"31","CVE_MUN":"016","CVEGEO":"31016","NOMGEO":"Chacsinkín"}},
{"type":"Feature","geometry":{"type":"Polygon","coordinates":[[[-89.302,20.7649],[-89.3196,20.7767],[-89.3501,20.775],[-89.3568,20.7539],[-89.3737,20.7691],[-89.3823,20.7425],[-89.3972,20.7441],[-89.3995,20.7257],[-89.385,20.7223],[-89.4093,20.6981],[-89.3826,20.6802],[-89.3568,20.6776],[-89.3386,20.6615],[-89.3173,20.6729],[-89.2991,20.7345],[-89.302,20.7649]]]},"properties":{"CVE_ENT":"31","CVE_MUN":"015","CVEGEO":"31015","NOMGEO":"Cuzamá"}},
{"type":"Feature","geometry":{"type":"Polygon","coordinates":[[[-89.4964,21.1225],[-89.4996,21.1159],[-89.5026,21.1223],[-89.5077,21.1215],[-89.5089,21.1218],[-89.5119,21.1207],[-89.5228,21.1247],[-89.5499,21.1153],[-89.5533,21.087],[-89.5663,21.0781],[-89.5621,21.0639],[-89.5428,21.0593],[-89.5379,21.0505],[-89.5099,21.0441],[-89.5102,21.0259],[-89.4999,21.0263],[-89.498,21.0386],[-89.491,21.0509],[-89.5007,21.0643],[-89.4849,21.0835],[-89.4653,21.0714],[-89.4383,21.0848],[-89.4585,21.0861],[-89.4798,21.0992],[-89.4889,21.0949],[-89.4964,21.1225]]]},"properties":{"CVE_ENT":"31","CVE_MUN":"013","CVEGEO":"31013","NOMGEO":"Conkal"}},
{"type":"Feature","geometry":{"type":"Polygon","coordinates":[[[-89.3607,20.3243],[-89.3825,20.332],[-89.4042,20.3195],[-89.41,20.3423],[-89.4075,20.3589],[-89.4289,20.3535],[-89.44,20.3477],[-89.4364,20.3313],[-89.4441,20.3158],[-89.4686,20.3025],[-89.4856,20.3076],[-89.4825,20.3184],[-89.5245,20.3428],[-89.5197,20.3121],[-89.5038,20.3086],[-89.4725,20.2904],[-89.4797,20.2572],[-89.5048,20.2612],[-89.5072,20.2465],[-89.5417,20.2497],[-89.5399,20.265],[-89.5789,20.268],[-89.6015,20.2731],[-89.5962,20.2506],[-89.5772,20.2375],[-89.582,20.2146],[-89.6181,20.1905],[-89.6164,20.1731],[-89.6265,20.1529],[-89.6492,20.164],[-89.6517,20.177],[-89.6405,20.195],[-89.6636,20.2076],[-89.6959,20.199],[-89.6981,20.1888],[-89.7485,20.1793],[-89.5987,19.9982],[-89.6047,19.9383],[-89.5974,19.9211],[-89.5868,19.9205],[-89.5796,19.936],[-89.5283,20.0125],[-89.5055,20.0272],[-89.5042,20.0386],[-89.4195,20.0306],[-89.4139,20.026],[-89.3834,20.0248],[-89.371,20.0292],[-89.3693,20.0574],[-89.3945,20.0626],[-89.3955,20.0759],[-89.425,20.086],[-89.4234,20.1244],[-89.4078,20.1366],[-89.3978,20.1079],[-89.3768,20.1041],[-89.3653,20.1102],[-89.3672,20.135],[-89.4133,20.1492],[-89.4218,20.1598],[-89.4152,20.1743],[-89.4015,20.1832],[-89.3768,20.1819],[-89.3712,20.1969],[-89.3917,20.1997],[-89.3838,20.2485],[-89.3586,20.3093],[-89.3607,20.3243]]]},"properties":{"CVE_ENT":"31","CVE_MUN":"056","CVEGEO":"31056","NOMGEO":"Oxkutzcab"}},
{"type":"Feature","geometry":{"type":"Polygon","coordinates":[[[-88.0985,21.4116],[-88.105,21.4283],[-88.1032,21.4436],[-88.1221,21.4421],[-88.1245,21.4233],[-88.1426,21.4253],[-88.1322,21.4459],[-88.1309,21.4751],[-88.1636,21.478],[-88.1667,21.4527],[-88.1634,21.4524],[-88.1655,21.4343],[-88.192,21.4314],[-88.2015,21.4225],[-88.2118,21.3854],[-88.2579,21.3902],[-88.2636,21.4146],[-88.2789,21.4154],[-88.288,21.4258],[-88.3116,21.4335],[-88.3512,21.4348],[-88.4046,21.4434],[-88.4066,21.4305],[-88.435,21.43],[-88.4334,21.4416],[-88.4584,21.4438],[-88.4568,21.4348],[-88.468,21.4326],[-88.4669,21.458],[-88.4698,21.4584],[-88.4724,21.4724],[-88.4848,21.4732],[-88.4872,21.4379],[-88.512,21.4468],[-88.5353,21.4426],[-88.5295,21.425],[-88.5242,21.395],[-88.5102,21.3953],[-88.5012,21.4124],[-88.4829,21.4099],[-88.4721,21.389],[-88.4906,21.3866],[-88.4919,21.3717],[-88.4742,21.3678],[-88.4806,21.3443],[-88.4762,21.3121],[-88.4831,21.2517],[-88.4692,21.2489],[-88.4646,21.2722],[-88.4444,21.2698],[-88.4286,21.2992],[-88.3892,21.3021],[-88.3321,21.297],[-88.3384,21.2791],[-88.3362,21.2564],[-88.3104,21.2527],[-88.3163,21.227],[-88.2845,21.2237],[-88.2838,21.2021],[-88.2721,21.2168],[-88.2408,21.2143],[-88.258,21.2363],[-88.2145,21.2542],[-88.2089,21.297],[-88.1902,21.2942],[-88.1874,21.3043],[-88.1624,21.2991],[-88.1576,21.3206],[-88.1328,21.3255],[-88.125,21.4069],[-88.1024,21.4044],[-88.0985,21.4116]]]},"properties":{"CVE_ENT":"31","CVE_MUN":"057","CVEGEO":"31057","NOMGEO":"Panabá"}},
{"type":"Feature","geometry":{"type":"Polygon","coordinates":[[[-88.5091,21.1719],[-88.5221,21.1798],[-88.5596,21.1771],[-88.5899,21.1704],[-88.5918,21.1568],[-88.6178,21.1535],[-88.6241,21.1224],[-88.6373,21.124],[-88.6409,21.0999],[-88.6533,21.098],[-88.6561,21.0839],[-88.7061,21.081],[-88.7099,21.0719],[-88.7132,21.0396],[-88.7028,21.0245],[-88.7032,20.9877],[-88.6604,20.9831],[-88.6678,20.9378],[-88.6605,20.9137],[-88.6377,20.9169],[-88.6159,20.9106],[-88.6182,20.8938],[-88.6007,20.878],[-88.6004,20.9055],[-88.5877,20.9006],[-88.5823,20.9184],[-88.5643,20.9133],[-88.5582,20.903],[-88.5324,20.9029],[-88.5196,20.9376],[-88.4877,20.9339],[-88.4604,20.9603],[-88.4658,20.994],[-88.4812,20.9938],[-88.487,21.0236],[-88.4712,21.0484],[-88.48,21.0692],[-88.497,21.0747],[-88.4928,21.0889],[-88.4938,21.1161],[-88.5071,21.1174],[-88.5091,21.1719]]]},"properties":{"CVE_ENT":"31","CVE_MUN":"012","CVEGEO":"31012","NOMGEO":"Cenotillo"}},
{"type":"Feature","geometry":{"type":"Polygon","coordinates":[[[-89.1232,20.5329],[-89.1378,20.5396],[-89.1458,20.5013],[-89.133,20.4942],[-89.1402,20.4712],[-89.177,20.4692],[-89.1816,20.4549],[-89.1748,20.4258],[-89.159,20.4217],[-89.158,20.4069],[-89.1075,20.4041],[-89.0933,20.3888],[-89.0717,20.3774],[-89.093,20.368],[-89.0761,20.3564],[-89.0343,20.3337],[-89.0016,20.3352],[-89.0032,20.2912],[-88.9823,20.2891],[-88.9763,20.3208],[-88.943,20.3173],[-88.9423,20.3274],[-88.9583,20.3376],[-88.951,20.4219],[-88.9845,20.4342],[-88.9729,20.4529],[-88.9577,20.4657],[-88.9632,20.4919],[-88.9771,20.4939],[-88.9976,20.4918],[-88.9997,20.5041],[-89.017,20.5018],[-89.0217,20.4912],[-89.0493,20.493],[-89.0467,20.5126],[-89.0366,20.5293],[-89.0556,20.5296],[-89.0724,20.5014],[-89.1021,20.5287],[-89.1102,20.5162],[-89.1232,20.5329]]]},"properties":{"CVE_ENT":"31","CVE_MUN":"010","CVEGEO":"31010","NOMGEO":"Cantamayec"}},
{"type":"Feature","geometry":{"type":"Polygon","coordinates":[[[-89.0803,21.2177],[-89.1076,21.2171],[-89.1149,21.2093],[-89.1427,21.2064],[-89.1466,21.1674],[-89.1259,21.175],[-89.119,21.153],[-89.132,21.1464],[-89.1264,21.1195],[-89.1121,21.1271],[-89.0968,21.1266],[-89.0941,21.1131],[-89.0771,21.1119],[-89.0758,21.1261],[-89.0429,21.1271],[-89.0345,21.1087],[-89.0187,21.1073],[-89.0174,21.1361],[-88.9935,21.1406],[-89.0116,21.1458],[-89.0109,21.1628],[-89.001,21.1735],[-89.0002,21.1992],[-89.0351,21.1952],[-89.046,21.2062],[-89.0647,21.2079],[-89.0803,21.2177]]]},"properties":{"CVE_ENT":"31","CVE_MUN":"009","CVEGEO":"31009","NOMGEO":"Cansahcab"}},
{"type":"Feature","geometry":{"type":"Polygon","coordinates":[[[-89.2086,21.0354],[-89.2405,21.0179],[-89.2547,21.0308],[-89.2802,21.0354],[-89.282,21.0201],[-89.3009,21.0079],[-89.3251,21.0062],[-89.3021,20.9918],[-89.2729,20.9814],[-89.2798,20.967],[-89.3175,20.9681],[-89.3183,20.9554],[-89.3031,20.9427],[-89.2813,20.9342],[-89.2624,20.9405],[-89.243,20.9328],[-89.2145,20.9258],[-89.2118,20.9452],[-89.2032,20.9505],[-89.1822,20.9689],[-89.2104,20.9787],[-89.2001,20.9896],[-89.1996,21.0068],[-89.2205,21.0076],[-89.2183,21.0266],[-89.2086,21.0354]]]},"properties":{"CVE_ENT":"31","CVE_MUN":"007","CVEGEO":"31007","NOMGEO":"Cacalchén"}},
{"type":"Feature","geometry":{"type":"Polygon","coordinates":[[[-89.1587,21.0541],[-89.1784,21.0572],[-89.195,21.0549],[-89.2086,21.0354],[-89.2183,21.0266],[-89.2205,21.0076],[-89.1996,21.0068],[-89.2001,20.9896],[-89.2104,20.9787],[-89.1822,20.9689],[-89.2032,20.9505],[-89.1941,20.9461],[-89.1669,20.9339],[-89.1621,20.9534],[-89.15,20.9479],[-89.1457,20.9673],[-89.1537,20.9686],[-89.151,21.0003],[-89.1379,21.0005],[-89.1322,21.0268],[-89.1461,21.0284],[-89.1599,21.0449],[-89.1587,21.0541]]]},"properties":{"CVE_ENT":"31","CVE_MUN":"005","CVEGEO":"31005","NOMGEO":"Bokobá"}},
{"type":"Feature","geometry":{"type":"Polygon","coordinates":[[[-89.3401,21.114],[-89.3612,21.1201],[-89.3575,21.1461],[-89.3622,21.1614],[-89.3764,21.1723],[-89.409,21.1815],[-89.4056,21.2109],[-89.4084,21.2256],[-89.4373,21.2346],[-89.4422,21.2039],[-89.4437,21.1857],[-89.43,21.1832],[-89.4375,21.1245],[-89.4315,21.0897],[-89.4175,21.0865],[-89.415,21.072],[-89.3863,21.0647],[-89.3965,21.0536],[-89.3997,21.034],[-89.3715,21.0476],[-89.3646,21.0587],[-89.3745,21.0785],[-89.3658,21.0899],[-89.3519,21.0901],[-89.3401,21.114]]]},"properties":{"CVE_ENT":"31","CVE_MUN":"004","CVEGEO":"31004","NOMGEO":"Baca"}},
{"type":"Feature","geometry":{"type":"Polygon","coordinates":[[[-89.3531,20.3241],[-89.3607,20.3243],[-89.3586,20.3093],[-89.3838,20.2485],[-89.3917,20.1997],[-89.3712,20.1969],[-89.3595,20.2179],[-89.3355,20.2214],[-89.3115,20.2532],[-89.2991,20.26],[-89.2983,20.2792],[-89.311,20.2915],[-89.3082,20.3075],[-89.3391,20.3089],[-89.3531,20.3241]]]},"properties":{"CVE_ENT":"31","CVE_MUN":"003","CVEGEO":"31003","NOMGEO":"Akil"}},
{"type":"Feature","geometry":{"type":"Polygon","coordinates":[[[-89.4997,20.7774],[-89.5037,20.7638],[-89.5421,20.7579],[-89.5644,20.7765],[-89.5712,20.7371],[-89.5512,20.7359],[-89.5526,20.7089],[-89.5373,20.7144],[-89.5207,20.6964],[-89.5182,20.6781],[-89.5305,20.617],[-89.5403,20.6087],[-89.5315,20.5956],[-89.5441,20.5816],[-89.5437,20.5769],[-89.5228,20.574],[-89.4927,20.5575],[-89.4795,20.5615],[-89.4625,20.5497],[-89.4531,20.5559],[-89.4087,20.5539],[-89.4131,20.5744],[-89.397,20.5721],[-89.3745,20.5909],[-89.3538,20.614],[-89.3583,20.6259],[-89.3447,20.6382],[-89.3386,20.6615],[-89.3568,20.6776],[-89.3826,20.6802],[-89.4093,20.6981],[-89.385,20.7223],[-89.4065,20.7242],[-89.4066,20.7458],[-89.4342,20.7522],[-89.4383,20.7625],[-89.4735,20.774],[-89.4825,20.7649],[-89.4997,20.7774]]]},"properties":{"CVE_ENT":"31","CVE_MUN":"076","CVEGEO":"31076","NOMGEO":"Tecoh"}},
{"type":"Feature","geometry":{"type":"Polygon","coordinates":[[[-87.5783,20.9257],[-87.5827,20.9756],[-87.6246,20.9788],[-87.6251,20.9911],[-87.6632,20.9939],[-87.6663,20.9583],[-87.6866,20.9598],[-87.6891,20.9709],[-87.7538,20.9758],[-87.751,20.9604],[-87.7873,20.9604],[-87.8261,20.9817],[-87.82,20.9496],[-87.8322,20.9251],[-87.8324,20.9029],[-87.8741,20.9004],[-87.8933,20.8806],[-87.8928,20.8678],[-87.9266,20.8733],[-87.9342,20.8405],[-87.9572,20.8476],[-87.9589,20.8288],[-87.9512,20.8117],[-87.9802,20.8038],[-88.0053,20.7902],[-88.0178,20.7479],[-87.9987,20.7456],[-87.9949,20.7302],[-88.0258,20.7333],[-88.0395,20.7293],[-88.0436,20.7144],[-88.0233,20.7056],[-88.0223,20.6854],[-88.0127,20.669],[-88.0329,20.6395],[-88.0336,20.63],[-88.0062,20.6329],[-88.0086,20.6137],[-87.997,20.5995],[-87.9787,20.5895],[-87.9863,20.555],[-87.9777,20.5287],[-88.0157,20.5337],[-88.0131,20.5217],[-87.9443,20.5147],[-87.9492,20.4714],[-87.938,20.4702],[-87.7443,20.6538],[-87.6757,20.7663],[-87.5783,20.9257]]]},"properties":{"CVE_ENT":"31","CVE_MUN":"019","CVEGEO":"31019","NOMGEO":"Chemax"}},
{"type":"Feature","geometry":{"type":"Polygon","coordinates":[[[-88.4724,21.4724],[-88.4731,21.4844],[-88.457,21.4787],[-88.4392,21.4788],[-88.4383,21.491],[-88.4131,21.489],[-88.4114,21.518],[-88.4479,21.5218],[-88.4494,21.509],[-88.5005,21.5123],[-88.5005,21.5422],[-88.5309,21.5331],[-88.5442,21.5352],[-88.6063,21.5248],[-88.6291,21.5149],[-88.6418,21.4964],[-88.6936,21.4568],[-88.6947,21.4511],[-88.7375,21.4311],[-88.7965,21.42],[-88.8006,21.4145],[-88.8409,21.3989],[-88.8845,21.3957],[-88.9208,21.3873],[-88.9714,21.3819],[-88.9547,21.3822],[-88.9471,21.3591],[-88.9498,21.3413],[-88.8951,21.34],[-88.8515,21.3448],[-88.8453,21.351],[-88.794,21.3389],[-88.7895,21.3495],[-88.7184,21.3422],[-88.7165,21.3572],[-88.7643,21.3581],[-88.752,21.3754],[-88.7494,21.401],[-88.6824,21.3991],[-88.6778,21.3724],[-88.6801,21.354],[-88.6661,21.3475],[-88.6514,21.3582],[-88.6542,21.4073],[-88.6318,21.4068],[-88.6179,21.424],[-88.5825,21.4237],[-88.56,21.4173],[-88.5295,21.425],[-88.5353,21.4426],[-88.512,21.4468],[-88.4872,21.4379],[-88.4848,21.4732],[-88.4724,21.4724]]]},"properties":{"CVE_ENT":"31","CVE_MUN":"028","CVEGEO":"31028","NOMGEO":"Dzilam de Bravo"}},
{"type":"Feature","geometry":{"type":"Polygon","coordinates":[[[-88.6127,20.197],[-88.6446,20.2071],[-88.6698,20.2109],[-88.6663,20.2492],[-88.7004,20.2522],[-88.6992,20.2668],[-88.7394,20.2861],[-88.7572,20.2887],[-88.7528,20.3079],[-88.7707,20.3107],[-88.7762,20.2921],[-88.795,20.2875],[-88.7973,20.2674],[-88.7924,20.254],[-88.7948,20.2344],[-88.8055,20.2298],[-88.8259,20.2087],[-88.8318,20.1937],[-88.8999,20.2012],[-88.9058,20.163],[-88.9685,20.1669],[-88.9962,20.1702],[-88.9988,20.1467],[-88.993,20.1247],[-88.9847,20.1238],[-88.9878,20.0945],[-88.9764,20.0905],[-88.9773,20.0719],[-88.9676,20.0676],[-88.9767,20.0379],[-88.9997,20.0327],[-88.966,19.9897],[-88.9463,19.9871],[-88.9453,19.969],[-88.9173,19.9602],[-88.9094,19.9418],[-88.9195,19.8669],[-88.9347,19.8579],[-88.9649,19.8629],[-88.9587,19.8903],[-88.9849,19.8934],[-88.9901,19.8756],[-88.9969,19.8203],[-88.9564,19.8168],[-88.9439,19.8134],[-88.9454,19.7919],[-88.9295,19.7909],[-88.8976,19.8369],[-88.9005,19.8611],[-88.8791,19.8624],[-88.8802,19.8781],[-88.833,19.8782],[-88.8204,19.8905],[-88.8273,19.9105],[-88.8097,19.926],[-88.8102,19.9449],[-88.7984,19.9525],[-88.798,19.9749],[-88.7835,20.0082],[-88.7715,20.0135],[-88.7425,20.0151],[-88.7002,20.0104],[-88.6918,20.0292],[-88.6849,20.0774],[-88.6906,20.0899],[-88.6901,20.1049],[-88.6747,20.1046],[-88.6746,20.1269],[-88.6457,20.1211],[-88.6408,20.1839],[-88.6147,20.1798],[-88.6127,20.197]]]},"properties":{"CVE_ENT":"31","CVE_MUN":"058","CVEGEO":"31058","NOMGEO":"Peto"}},
{"type":"Feature","geometry":{"type":"Polygon","coordinates":[[[-88.0649,20.3495],[-88.0745,20.3759],[-88.0738,20.3942],[-88.0979,20.4004],[-88.1176,20.4002],[-88.1296,20.4235],[-88.1368,20.4523],[-88.1263,20.4657],[-88.1176,20.4972],[-88.1247,20.5085],[-88.1585,20.5088],[-88.1723,20.5355],[-88.1605,20.5426],[-88.1725,20.5851],[-88.168,20.6025],[-88.1817,20.6159],[-88.1769,20.6254],[-88.1836,20.6515],[-88.2324,20.6482],[-88.2443,20.627],[-88.2444,20.5998],[-88.2374,20.5823],[-88.253,20.5613],[-88.2499,20.5345],[-88.223,20.5233],[-88.2269,20.4671],[-88.2517,20.4718],[-88.2685,20.4468],[-88.2593,20.4355],[-88.2657,20.4179],[-88.2592,20.4067],[-88.2491,20.3587],[-88.2356,20.3472],[-88.2327,20.2902],[-88.2327,20.287],[-88.1672,20.2854],[-88.1365,20.2814],[-88.0649,20.3495]]]},"properties":{"CVE_ENT":"31","CVE_MUN":"021","CVEGEO":"31021","NOMGEO":"Chichimilá"}},
{"type":"Feature","geometry":{"type":"Polygon","coordinates":[[[-88.4141,20.8897],[-88.4264,20.8894],[-88.4222,20.9129],[-88.4447,20.9179],[-88.4515,20.9367],[-88.4644,20.9232],[-88.4877,20.9339],[-88.5196,20.9376],[-88.5324,20.9029],[-88.5582,20.903],[-88.5643,20.9133],[-88.5823,20.9184],[-88.5877,20.9006],[-88.6004,20.9055],[-88.6007,20.878],[-88.6022,20.8638],[-88.5657,20.8567],[-88.5705,20.8372],[-88.5921,20.8111],[-88.6207,20.8229],[-88.6221,20.8008],[-88.639,20.8076],[-88.6461,20.7742],[-88.6595,20.7837],[-88.663,20.7623],[-88.6883,20.7636],[-88.6931,20.7523],[-88.6688,20.7456],[-88.6435,20.7484],[-88.6364,20.7793],[-88.622,20.7773],[-88.6262,20.7447],[-88.5767,20.747],[-88.5712,20.7281],[-88.5388,20.7416],[-88.5074,20.7408],[-88.5025,20.7571],[-88.5181,20.7584],[-88.5139,20.7793],[-88.5015,20.791],[-88.4867,20.7877],[-88.4768,20.8017],[-88.4929,20.8056],[-88.4857,20.827],[-88.4772,20.8326],[-88.4775,20.8573],[-88.4632,20.8558],[-88.4529,20.8322],[-88.4282,20.8187],[-88.4253,20.835],[-88.4368,20.8485],[-88.4104,20.86],[-88.4141,20.8897]]]},"properties":{"CVE_ENT":"31","CVE_MUN":"030","CVEGEO":"31030","NOMGEO":"Dzitás"}},
{"type":"Feature","geometry":{"type":"Polygon","coordinates":[[[-89.8362,21.1625],[-89.8655,21.174],[-89.8644,21.2422],[-89.8977,21.2322],[-89.9333,21.2129],[-89.9826,21.1826],[-89.9998,21.1751],[-90.0534,21.1614],[-90.0946,21.1556],[-90.1446,21.129],[-90.1678,21.1092],[-90.1677,21.0489],[-90.2386,20.9979],[-90.2723,20.9349],[-90.2378,20.9308],[-90.2125,20.9683],[-90.2025,20.9768],[-90.1776,20.9734],[-90.177,20.9888],[-90.1145,20.986],[-90.1048,21.0101],[-90.0778,21.0092],[-90.0758,20.9951],[-90.0378,20.9972],[-90.0295,21.0276],[-89.9992,21.0299],[-89.9303,21.0055],[-89.9339,20.9867],[-89.9102,20.9839],[-89.8936,20.9978],[-89.8756,20.9858],[-89.8759,20.9642],[-89.893,20.9445],[-89.8728,20.9427],[-89.8629,20.9036],[-89.8392,20.9113],[-89.8213,20.9057],[-89.8168,20.9198],[-89.808,20.9419],[-89.8155,20.953],[-89.7976,20.9768],[-89.8049,20.9876],[-89.7994,21.0289],[-89.8009,21.0451],[-89.8118,21.062],[-89.8094,21.1099],[-89.8242,21.119],[-89.8212,21.145],[-89.8373,21.1528],[-89.8362,21.1625]]]},"properties":{"CVE_ENT":"31","CVE_MUN":"038","CVEGEO":"31038","NOMGEO":"Hunucmá"}},
{"type":"Feature","geometry":{"type":"Polygon","coordinates":[[[-89.5346,20.9809],[-89.5401,20.9817],[-89.5401,20.9819],[-89.5635,20.9818],[-89.5664,20.9618],[-89.568,20.952],[-89.57,20.9485],[-89.5705,20.9479],[-89.5708,20.9478],[-89.5714,20.9472],[-89.6056,20.9221],[-89.5989,20.8961],[-89.5825,20.8836],[-89.5527,20.8876],[-89.5588,20.8702],[-89.5437,20.8509],[-89.5253,20.8506],[-89.5272,20.8571],[-89.5326,20.8532],[-89.5395,20.8611],[-89.5276,20.8727],[-89.506,20.8782],[-89.4838,20.8872],[-89.4822,20.9151],[-89.4733,20.9397],[-89.4967,20.947],[-89.5066,20.9658],[-89.5402,20.9605],[-89.5346,20.9809]]]},"properties":{"CVE_ENT":"31","CVE_MUN":"041","CVEGEO":"31041","NOMGEO":"Kanasín"}},
{"type":"Feature","geometry":{"type":"Polygon","coordinates":[[[-88.3237,20.8543],[-88.337,20.8553],[-88.3382,20.8709],[-88.3532,20.9024],[-88.3745,20.9228],[-88.3881,20.8958],[-88.4141,20.8897],[-88.4104,20.86],[-88.3987,20.831],[-88.3977,20.8049],[-88.3907,20.7877],[-88.3751,20.7969],[-88.3684,20.8337],[-88.3465,20.8362],[-88.3433,20.8193],[-88.3252,20.8181],[-88.3194,20.8095],[-88.3273,20.788],[-88.3484,20.7716],[-88.3476,20.7591],[-88.3822,20.761],[-88.3864,20.7133],[-88.4047,20.7097],[-88.4345,20.7183],[-88.4397,20.708],[-88.4401,20.6696],[-88.4289,20.6537],[-88.412,20.6628],[-88.4099,20.6732],[-88.3801,20.6725],[-88.3838,20.688],[-88.3803,20.7124],[-88.3623,20.7066],[-88.3712,20.6876],[-88.3476,20.6874],[-88.3174,20.6937],[-88.3026,20.6813],[-88.303,20.7022],[-88.3113,20.7197],[-88.2906,20.719],[-88.2846,20.7451],[-88.2961,20.7453],[-88.3183,20.7695],[-88.3016,20.8007],[-88.2961,20.8236],[-88.3166,20.8321],[-88.3237,20.8543]]]},"properties":{"CVE_ENT":"31","CVE_MUN":"099","CVEGEO":"31099","NOMGEO":"Uayma"}},
{"type":"Feature","geometry":{"type":"Polygon","coordinates":[[[-89.7976,20.9768],[-89.7604,20.9752],[-89.7534,20.9731],[-89.749,20.9709],[-89.7446,20.9808],[-89.7586,20.9954],[-89.76,20.9962],[-89.7602,20.996],[-89.7606,20.9963],[-89.7614,20.9965],[-89.763,20.9949],[-89.7653,20.9966],[-89.7646,20.9981],[-89.7643,20.9992],[-89.7603,20.9983],[-89.76,20.9983],[-89.756,20.9997],[-89.7492,20.9924],[-89.7454,20.9956],[-89.734,20.9836],[-89.7282,20.9865],[-89.7283,20.9882],[-89.7284,20.9909],[-89.7286,20.9938],[-89.7288,20.9988],[-89.7291,21.0037],[-89.7325,21.0131],[-89.7138,21.0538],[-89.7222,21.0523],[-89.7384,21.0494],[-89.7382,21.0603],[-89.7377,21.0699],[-89.7517,21.0713],[-89.749,21.0887],[-89.7685,21.091],[-89.7868,21.1386],[-89.7969,21.1392],[-89.8012,21.1491],[-89.8233,21.2007],[-89.8261,21.1765],[-89.8362,21.1625],[-89.8373,21.1528],[-89.8212,21.145],[-89.8242,21.119],[-89.8094,21.1099],[-89.8118,21.062],[-89.8009,21.0451],[-89.7994,21.0289],[-89.8049,20.9876],[-89.7976,20.9768]]]},"properties":{"CVE_ENT":"31","CVE_MUN":"100","CVEGEO":"31100","NOMGEO":"Ucú"}},
{"type":"Feature","geometry":{"type":"Polygon","coordinates":[[[-89.3737,20.7691],[-89.4005,20.7793],[-89.405,20.7652],[-89.4194,20.7685],[-89.4199,20.7913],[-89.4044,20.7992],[-89.438,20.8166],[-89.4319,20.8265],[-89.4317,20.8476],[-89.4165,20.842],[-89.4117,20.8947],[-89.4347,20.8893],[-89.4557,20.9132],[-89.4822,20.9151],[-89.4838,20.8872],[-89.506,20.8782],[-89.491,20.8584],[-89.5075,20.8454],[-89.4962,20.8314],[-89.4966,20.8182],[-89.4821,20.7808],[-89.4997,20.7774],[-89.4825,20.7649],[-89.4735,20.774],[-89.4383,20.7625],[-89.4342,20.7522],[-89.4066,20.7458],[-89.4065,20.7242],[-89.385,20.7223],[-89.3995,20.7257],[-89.3972,20.7441],[-89.3823,20.7425],[-89.3737,20.7691]]]},"properties":{"CVE_ENT":"31","CVE_MUN":"002","CVEGEO":"31002","NOMGEO":"Acanceh"}}
]}