{"type":"FeatureCollection", "features": [
{"type":"Feature","geometry":{"type":"Polygon","coordinates":[[[-100.9108,20.5696],[-100.9126,20.5712],[-100.9155,20.572],[-100.916,20.5708],[-100.9225,20.5713],[-100.927,20.5782],[-100.9655,20.579],[-100.9796,20.5917],[-101.0017,20.5813],[-101.0003,20.5682],[-101.0229,20.561],[-101.0574,20.579],[-101.0512,20.5531],[-101.0562,20.5573],[-101.0617,20.5586],[-101.0628,20.5632],[-101.063,20.5633],[-101.0693,20.5632],[-101.0836,20.5631],[-101.0924,20.566],[-101.104,20.5772],[-101.1119,20.5625],[-101.0836,20.5612],[-101.0857,20.5222],[-101.0728,20.5236],[-101.0642,20.5089],[-101.0389,20.5098],[-100.9961,20.5079],[-100.969,20.498],[-100.9595,20.512],[-100.9091,20.5155],[-100.9108,20.5696]]]},"properties":{"CVE_ENT":"11","CVE_MUN":"044","CVEGEO":"11044","NOMGEO":"Villagrán"}},
{"type":"Feature","geometry":{"type":"Polygon","coordinates":[[[-101.1417,20.8478],[-101.2093,20.8331],[-101.2143,20.8248],[-101.253,20.8285],[-101.2764,20.8365],[-101.3176,20.8349],[-101.3588,20.84],[-101.4086,20.8438],[-101.4106,20.8007],[-101.4555,20.8],[-101.4526,20.7945],[-101.4955,20.7795],[-101.5107,20.7594],[-101.5271,20.7491],[-101.5415,20.7316],[-101.5283,20.7178],[-101.5269,20.7058],[-101.5111,20.6798],[-101.503,20.6801],[-101.4957,20.6399],[-101.4974,20.5961],[-101.4747,20.5885],[-101.4723,20.5727],[-101.4845,20.5649],[-101.5076,20.5616],[-101.501,20.5197],[-101.4936,20.5088],[-101.4723,20.5025],[-101.4444,20.5011],[-101.4005,20.5158],[-101.4066,20.5608],[-101.3838,20.5712],[-101.3734,20.5822],[-101.3596,20.5823],[-101.3429,20.5726],[-101.312,20.58],[-101.3,20.5919],[-101.2763,20.5894],[-101.269,20.6028],[-101.2674,20.6385],[-101.2626,20.6612],[-101.2752,20.6642],[-101.2745,20.6799],[-101.2514,20.7209],[-101.2308,20.7291],[-101.2109,20.7572],[-101.1868,20.7539],[-101.1857,20.7757],[-101.171,20.7834],[-101.1417,20.8478]]]},"properties":{"CVE_ENT":"11","CVE_MUN":"017","CVEGEO":"11017","NOMGEO":"Irapuato"}},
{"type":"Feature","geometry":{"type":"Polygon","coordinates":[[[-101.4348,21.1373],[-101.4525,21.1514],[-101.4725,21.1522],[-101.4832,21.1047],[-101.4885,21.0444],[-101.4994,21.0105],[-101.5731,21.0295],[-101.5818,20.9769],[-101.5621,20.979],[-101.5597,20.9574],[-101.5409,20.9423],[-101.5192,20.9392],[-101.5196,20.9178],[-101.4988,20.916],[-101.4979,20.8669],[-101.5009,20.8515],[-101.4601,20.8473],[-101.464,20.8218],[-101.4555,20.8],[-101.4106,20.8007],[-101.4086,20.8438],[-101.3588,20.84],[-101.3498,20.8612],[-101.3184,20.884],[-101.3257,20.8961],[-101.3304,20.9219],[-101.3432,20.9231],[-101.3342,20.9934],[-101.3571,21.0131],[-101.3484,21.0326],[-101.374,21.0541],[-101.402,21.0716],[-101.4157,21.0966],[-101.4363,21.099],[-101.4294,21.1245],[-101.4348,21.1373]]]},"properties":{"CVE_ENT":"11","CVE_MUN":"037","CVEGEO":"11037","NOMGEO":"Silao de la Victoria"}},
{"type":"Feature","geometry":{"type":"Polygon","coordinates":[[[-100.3507,20.2884],[-100.3698,20.3026],[-100.3792,20.3019],[-100.3864,20.3068],[-100.3626,20.2866],[-100.3955,20.2864],[-100.4082,20.2774],[-100.4095,20.2541],[-100.4193,20.2296],[-100.4346,20.217],[-100.4295,20.19],[-100.4462,20.1876],[-100.4441,20.1757],[-100.4018,20.1794],[-100.3947,20.1674],[-100.4043,20.1513],[-100.4214,20.1401],[-100.4012,20.1265],[-100.3809,20.1301],[-100.3599,20.1643],[-100.3558,20.1824],[-100.3403,20.1897],[-100.3528,20.2014],[-100.3552,20.219],[-100.3236,20.2519],[-100.3258,20.261],[-100.3441,20.2729],[-100.3507,20.2884]]]},"properties":{"CVE_ENT":"11","CVE_MUN":"010","CVEGEO":"11010","NOMGEO":"Coroneo"}},
{"type":"Feature","geometry":{"type":"Polygon","coordinates":[[[-101.7854,21.0489],[-101.821,21.0359],[-101.8335,21.0532],[-101.8439,21.0403],[-101.8697,21.0368],[-101.8734,21.0048],[-101.8565,20.997],[-101.8641,20.9676],[-101.8871,20.9022],[-101.8854,20.8733],[-101.903,20.8262],[-101.8611,20.8463],[-101.8457,20.8361],[-101.8045,20.8341],[-101.8098,20.8242],[-101.7708,20.7996],[-101.7348,20.7949],[-101.7232,20.7956],[-101.7087,20.8106],[-101.697,20.894],[-101.7002,20.9052],[-101.7161,20.9101],[-101.7179,20.9252],[-101.7128,20.9545],[-101.6714,20.951],[-101.6684,20.9942],[-101.7018,20.9977],[-101.7108,20.983],[-101.7352,20.9831],[-101.7303,21.0051],[-101.7838,21.0163],[-101.7799,21.0425],[-101.7854,21.0489]]]},"properties":{"CVE_ENT":"11","CVE_MUN":"031","CVEGEO":"11031","NOMGEO":"San Francisco del Rincón"}},
{"type":"Feature","geometry":{"type":"Polygon","coordinates":[[[-101.2039,21.2076],[-101.2229,21.2086],[-101.2957,21.2028],[-101.2974,21.1905],[-101.3191,21.1812],[-101.3191,21.1591],[-101.3322,21.1503],[-101.3867,21.1385],[-101.4011,21.1309],[-101.4348,21.1373],[-101.4294,21.1245],[-101.4363,21.099],[-101.4157,21.0966],[-101.402,21.0716],[-101.374,21.0541],[-101.3484,21.0326],[-101.3571,21.0131],[-101.3342,20.9934],[-101.3432,20.9231],[-101.3304,20.9219],[-101.3257,20.8961],[-101.3184,20.884],[-101.3498,20.8612],[-101.3588,20.84],[-101.3176,20.8349],[-101.2764,20.8365],[-101.253,20.8285],[-101.2143,20.8248],[-101.2093,20.8331],[-101.1417,20.8478],[-101.1213,20.8642],[-101.105,20.8666],[-101.1031,20.8661],[-101.0985,20.8656],[-101.089,20.8651],[-101.0919,20.871],[-101.0879,20.8734],[-101.1074,20.93],[-101.1129,20.9535],[-101.0739,20.9629],[-101.0572,20.9793],[-101.0776,20.9901],[-101.0828,21.0048],[-101.1078,21.0135],[-101.1268,21.0076],[-101.146,21.0455],[-101.1227,21.0536],[-101.13,21.081],[-101.1066,21.1401],[-101.1213,21.1554],[-101.1473,21.1586],[-101.1528,21.1882],[-101.1712,21.1868],[-101.1732,21.2114],[-101.2039,21.2076]]]},"properties":{"CVE_ENT":"11","CVE_MUN":"015","CVEGEO":"11015","NOMGEO":"Guanajuato"}},
{"type":"Feature","geometry":{"type":"Polygon","coordinates":[[[-100.0111,21.1895],[-100.0212,21.1914],[-100.0365,21.2132],[-100.0633,21.2121],[-100.0721,21.2292],[-100.1187,21.2288],[-100.1303,21.2155],[-100.1377,21.2065],[-100.1468,21.1641],[-100.1525,21.1561],[-100.1475,21.1442],[-100.1307,21.1441],[-100.1273,21.131],[-100.1111,21.126],[-100.1102,21.107],[-100.0711,21.091],[-100.0679,21.0802],[-100.0797,21.0676],[-100.0742,21.0585],[-100.0431,21.0475],[-100.0147,21.051],[-100.0263,21.074],[-100.0219,21.093],[-100.0275,21.1003],[-100.0171,21.1224],[-99.9964,21.1826],[-100.0111,21.1895]]]},"properties":{"CVE_ENT":"11","CVE_MUN":"034","CVEGEO":"11034","NOMGEO":"Santa Catarina"}},
{"type":"Feature","geometry":{"type":"Polygon","coordinates":[[[-101.0004,20.1094],[-100.9788,20.1318],[-100.9475,20.1335],[-100.9401,20.1667],[-100.9416,20.1871],[-100.9594,20.1984],[-100.9926,20.2079],[-101.0213,20.2105],[-101.0201,20.2001],[-101.0101,20.185],[-101.0373,20.1468],[-101.0543,20.1419],[-101.053,20.13],[-101.0193,20.106],[-101.0004,20.1094]]]},"properties":{"CVE_ENT":"11","CVE_MUN":"036","CVEGEO":"11036","NOMGEO":"Santiago Maravatío"}},
{"type":"Feature","geometry":{"type":"Polygon","coordinates":[[[-101.2172,21.8161],[-101.2607,21.8234],[-101.2928,21.8139],[-101.3195,21.8353],[-101.3653,21.8394],[-101.407,21.8315],[-101.4227,21.825],[-101.4244,21.7732],[-101.4323,21.7358],[-101.4434,21.7359],[-101.4427,21.6905],[-101.4384,21.6666],[-101.3382,21.6778],[-101.3576,21.5962],[-101.3694,21.5719],[-101.3635,21.5614],[-101.3219,21.5559],[-101.3073,21.538],[-101.2907,21.5372],[-101.2857,21.5233],[-101.3166,21.5072],[-101.3391,21.4637],[-101.3331,21.4478],[-101.3287,21.4097],[-101.3711,21.3975],[-101.4334,21.4172],[-101.4532,21.4008],[-101.5002,21.3791],[-101.5098,21.3824],[-101.528,21.409],[-101.526,21.4305],[-101.5621,21.4256],[-101.5704,21.4185],[-101.5976,21.421],[-101.6652,21.4044],[-101.6789,21.3934],[-101.6556,21.3733],[-101.6428,21.3551],[-101.6459,21.3283],[-101.6162,21.3244],[-101.6155,21.3183],[-101.5861,21.31],[-101.5767,21.2877],[-101.5437,21.2707],[-101.5282,21.2554],[-101.5221,21.2318],[-101.5016,21.2331],[-101.4973,21.2552],[-101.484,21.2519],[-101.468,21.259],[-101.4401,21.2519],[-101.427,21.2278],[-101.4125,21.2271],[-101.4069,21.215],[-101.3912,21.2129],[-101.3835,21.1909],[-101.3722,21.177],[-101.3883,21.1537],[-101.3867,21.1385],[-101.3322,21.1503],[-101.3191,21.1591],[-101.3191,21.1812],[-101.2974,21.1905],[-101.2957,21.2028],[-101.2229,21.2086],[-101.2039,21.2076],[-101.1848,21.2335],[-101.152,21.2387],[-101.1056,21.258],[-101.1003,21.287],[-101.1098,21.294],[-101.098,21.3184],[-101.0819,21.3127],[-101.087,21.2805],[-101.0719,21.2779],[-101.0512,21.2886],[-101.0495,21.3171],[-101.0405,21.326],[-101.0379,21.3565],[-101.0414,21.3656],[-101.0259,21.4022],[-101.0237,21.4215],[-101.0304,21.4417],[-101.0396,21.4455],[-101.0261,21.4888],[-101.0092,21.4937],[-101.0043,21.5396],[-100.9834,21.5374],[-100.9339,21.5619],[-100.9301,21.5987],[-100.8726,21.5943],[-100.8576,21.619],[-100.8343,21.6646],[-100.853,21.6743],[-100.8701,21.6725],[-100.9024,21.682],[-100.9212,21.7003],[-100.9126,21.7136],[-100.9381,21.7205],[-100.9435,21.7326],[-100.9654,21.7349],[-100.982,21.7535],[-101.0592,21.7655],[-101.1361,21.7532],[-101.1613,21.7575],[-101.1902,21.7775],[-101.2198,21.8022],[-101.2172,21.8161]]]},"properties":{"CVE_ENT":"11","CVE_MUN":"030","CVEGEO":"11030","NOMGEO":"San Felipe"}},
{"type":"Feature","geometry":{"type":"Polygon","coordinates":[[[-101.5409,20.9423],[-101.5613,20.9443],[-101.5675,20.9052],[-101.5862,20.9083],[-101.5803,20.9219],[-101.6414,20.9291],[-101.6466,20.8915],[-101.6619,20.898],[-101.6894,20.8646],[-101.697,20.894],[-101.7087,20.8106],[-101.7232,20.7956],[-101.7348,20.7949],[-101.6938,20.7842],[-101.6885,20.7687],[-101.7013,20.7291],[-101.6907,20.7099],[-101.6907,20.696],[-101.6465,20.6874],[-101.6372,20.6946],[-101.6376,20.7226],[-101.6452,20.7435],[-101.6338,20.762],[-101.6022,20.7765],[-101.5705,20.7538],[-101.5575,20.7599],[-101.5271,20.7491],[-101.5107,20.7594],[-101.4955,20.7795],[-101.4526,20.7945],[-101.4555,20.8],[-101.464,20.8218],[-101.4601,20.8473],[-101.5009,20.8515],[-101.4979,20.8669],[-101.4988,20.916],[-101.5196,20.9178],[-101.5192,20.9392],[-101.5409,20.9423]]]},"properties":{"CVE_ENT":"11","CVE_MUN":"026","CVEGEO":"11026","NOMGEO":"Romita"}},
{"type":"Feature","geometry":{"type":"Polygon","coordinates":[[[-100.6186,20.7161],[-100.6217,20.7514],[-100.6155,20.763],[-100.6336,20.7698],[-100.6318,20.7923],[-100.6774,20.7998],[-100.7051,20.8274],[-100.7182,20.8313],[-100.7414,20.8079],[-100.7941,20.7855],[-100.8041,20.7999],[-100.8241,20.8059],[-100.8476,20.7969],[-100.8897,20.7935],[-100.9138,20.8081],[-100.9325,20.7996],[-100.9591,20.8011],[-100.9742,20.8129],[-100.9886,20.8114],[-100.9889,20.7887],[-100.9738,20.7938],[-100.9671,20.78],[-100.9794,20.7407],[-100.9668,20.7321],[-100.9568,20.6976],[-100.9267,20.7024],[-100.9135,20.6909],[-100.8844,20.6982],[-100.8518,20.6816],[-100.8595,20.668],[-100.86,20.6657],[-100.8606,20.6612],[-100.8582,20.6635],[-100.8483,20.6652],[-100.8234,20.6644],[-100.8093,20.6883],[-100.7902,20.6769],[-100.7621,20.6498],[-100.7474,20.6533],[-100.7223,20.6798],[-100.6668,20.6886],[-100.6525,20.6712],[-100.6349,20.6668],[-100.6321,20.6868],[-100.6162,20.6994],[-100.6186,20.7161]]]},"properties":{"CVE_ENT":"11","CVE_MUN":"009","CVEGEO":"11009","NOMGEO":"Comonfort"}},
{"type":"Feature","geometry":{"type":"Polygon","coordinates":[[[-101.4121,20.3857],[-101.4384,20.4069],[-101.4553,20.4152],[-101.5085,20.4065],[-101.5306,20.3985],[-101.5561,20.4017],[-101.5747,20.3916],[-101.5768,20.368],[-101.5706,20.3563],[-101.5636,20.3205],[-101.5506,20.3325],[-101.5378,20.3244],[-101.4932,20.314],[-101.4811,20.3297],[-101.4601,20.3235],[-101.4411,20.3404],[-101.4298,20.3773],[-101.4121,20.3857]]]},"properties":{"CVE_ENT":"11","CVE_MUN":"016","CVEGEO":"11016","NOMGEO":"Huanímaro"}},
{"type":"Feature","geometry":{"type":"Polygon","coordinates":[[[-101.312,20.58],[-101.3429,20.5726],[-101.3596,20.5823],[-101.3734,20.5822],[-101.3838,20.5712],[-101.4066,20.5608],[-101.4005,20.5158],[-101.3979,20.5034],[-101.367,20.5042],[-101.3666,20.5268],[-101.3413,20.5464],[-101.3203,20.5351],[-101.3132,20.5394],[-101.3131,20.5486],[-101.3063,20.551],[-101.3001,20.5612],[-101.312,20.58]]]},"properties":{"CVE_ENT":"11","CVE_MUN":"024","CVEGEO":"11024","NOMGEO":"Pueblo Nuevo"}},
{"type":"Feature","geometry":{"type":"Polygon","coordinates":[[[-100.7513,21.5806],[-100.7923,21.5948],[-100.8095,21.592],[-100.8166,21.6027],[-100.8576,21.619],[-100.8726,21.5943],[-100.9301,21.5987],[-100.9339,21.5619],[-100.9834,21.5374],[-101.0043,21.5396],[-101.0092,21.4937],[-101.0261,21.4888],[-101.0396,21.4455],[-101.0304,21.4417],[-101.0237,21.4215],[-101.0259,21.4022],[-101.0414,21.3656],[-101.0379,21.3565],[-101.0405,21.326],[-101.0036,21.3336],[-100.9981,21.3501],[-100.9749,21.3184],[-100.9619,21.3067],[-100.9463,21.3053],[-100.9167,21.3173],[-100.9234,21.3412],[-100.9034,21.3418],[-100.8998,21.3241],[-100.8717,21.3246],[-100.8587,21.3344],[-100.8505,21.3204],[-100.8386,21.3279],[-100.8244,21.315],[-100.8131,21.3216],[-100.7983,21.3165],[-100.7691,21.336],[-100.7657,21.3194],[-100.743,21.3157],[-100.7326,21.2942],[-100.7214,21.2979],[-100.7017,21.3091],[-100.6721,21.3119],[-100.6812,21.3308],[-100.6931,21.3356],[-100.6939,21.3698],[-100.6795,21.3632],[-100.6439,21.3368],[-100.6325,21.3504],[-100.6079,21.3343],[-100.6023,21.3497],[-100.6044,21.3719],[-100.5984,21.3914],[-100.6412,21.4016],[-100.678,21.3935],[-100.6959,21.4238],[-100.6898,21.4279],[-100.7042,21.4574],[-100.7009,21.5168],[-100.7257,21.5118],[-100.7344,21.5218],[-100.6943,21.5348],[-100.7028,21.5461],[-100.7301,21.5355],[-100.7513,21.5806]]]},"properties":{"CVE_ENT":"11","CVE_MUN":"029","CVEGEO":"11029","NOMGEO":"San Diego de la Unión"}},
{"type":"Feature","geometry":{"type":"Polygon","coordinates":[[[-100.8236,20.3752],[-100.8444,20.3918],[-100.8267,20.4315],[-100.852,20.4391],[-100.8453,20.4823],[-100.8553,20.4878],[-100.902,20.4961],[-100.9091,20.5155],[-100.9595,20.512],[-100.969,20.498],[-100.9961,20.5079],[-101.0389,20.5098],[-101.0441,20.4805],[-101.044,20.4516],[-101.0426,20.4415],[-101.0335,20.4349],[-101.0283,20.4081],[-101.0113,20.3926],[-101.0178,20.3784],[-101.0153,20.3637],[-100.998,20.363],[-100.9799,20.3488],[-100.9789,20.3388],[-100.9774,20.3353],[-100.9697,20.3385],[-100.9104,20.3413],[-100.8988,20.3786],[-100.8822,20.3812],[-100.8802,20.355],[-100.8276,20.3528],[-100.8236,20.3752]]]},"properties":{"CVE_ENT":"11","CVE_MUN":"011","CVEGEO":"11011","NOMGEO":"Cortazar"}},
{"type":"Feature","geometry":{"type":"Polygon","coordinates":[[[-101.0628,20.5632],[-101.0629,20.5634],[-101.067,20.5815],[-101.0692,20.5981],[-101.0705,20.6196],[-101.0833,20.621],[-101.0808,20.6392],[-101.0647,20.6404],[-101.0793,20.6715],[-101.0643,20.6761],[-101.0741,20.7014],[-101.1127,20.7117],[-101.1006,20.7221],[-101.1027,20.7426],[-101.1182,20.7483],[-101.0961,20.7649],[-101.0806,20.8016],[-101.0679,20.805],[-101.0727,20.8223],[-101.0721,20.8431],[-101.0807,20.8581],[-101.0867,20.86],[-101.0855,20.8649],[-101.0985,20.8656],[-101.105,20.8666],[-101.1213,20.8642],[-101.1417,20.8478],[-101.171,20.7834],[-101.1857,20.7757],[-101.1868,20.7539],[-101.2109,20.7572],[-101.2308,20.7291],[-101.2514,20.7209],[-101.2745,20.6799],[-101.2752,20.6642],[-101.2626,20.6612],[-101.2674,20.6385],[-101.269,20.6028],[-101.2763,20.5894],[-101.3,20.5919],[-101.3053,20.5854],[-101.3001,20.5612],[-101.3131,20.5486],[-101.3103,20.5395],[-101.3105,20.5266],[-101.2991,20.5342],[-101.2819,20.5327],[-101.2909,20.5163],[-101.2815,20.5023],[-101.2597,20.4949],[-101.2463,20.4788],[-101.2343,20.4507],[-101.2012,20.471],[-101.1574,20.4845],[-101.1448,20.4769],[-101.1281,20.4899],[-101.1146,20.4684],[-101.1015,20.462],[-101.1,20.4529],[-101.1006,20.4516],[-101.102,20.4505],[-101.0983,20.443],[-101.0846,20.4449],[-101.074,20.4369],[-101.0703,20.4542],[-101.044,20.4516],[-101.0441,20.4805],[-101.0389,20.5098],[-101.0642,20.5089],[-101.0728,20.5236],[-101.0857,20.5222],[-101.0836,20.5612],[-101.1119,20.5625],[-101.104,20.5772],[-101.0924,20.566],[-101.0836,20.5631],[-101.0693,20.5632],[-101.063,20.5633],[-101.0628,20.5632]]]},"properties":{"CVE_ENT":"11","CVE_MUN":"027","CVEGEO":"11027","NOMGEO":"Salamanca"}},
{"type":"Feature","geometry":{"type":"Polygon","coordinates":[[[-101.7854,21.0489],[-101.8089,21.053],[-101.8049,21.0765],[-101.8177,21.107],[-101.8375,21.0968],[-101.8713,21.0953],[-101.8749,21.0701],[-101.8865,21.0611],[-101.9023,21.0321],[-101.9087,20.9986],[-101.9371,20.9558],[-101.9389,20.9306],[-101.9579,20.9352],[-101.9638,20.9237],[-101.9797,20.9248],[-102.0152,20.8825],[-102.015,20.8695],[-102.042,20.8461],[-102.0549,20.8463],[-102.08,20.8284],[-102.0769,20.8118],[-102.0958,20.7829],[-102.0877,20.7788],[-102.0674,20.7716],[-102.0556,20.812],[-102.0478,20.8195],[-101.9972,20.8242],[-101.996,20.8352],[-101.9384,20.829],[-101.9349,20.8101],[-101.903,20.8262],[-101.8854,20.8733],[-101.8871,20.9022],[-101.8641,20.9676],[-101.8565,20.997],[-101.8734,21.0048],[-101.8697,21.0368],[-101.8439,21.0403],[-101.8335,21.0532],[-101.821,21.0359],[-101.7854,21.0489]]]},"properties":{"CVE_ENT":"11","CVE_MUN":"025","CVEGEO":"11025","NOMGEO":"Purísima del Rincón"}},
{"type":"Feature","geometry":{"type":"Polygon","coordinates":[[[-100.5287,21.0711],[-100.5666,21.101],[-100.5925,21.1009],[-100.6366,21.1086],[-100.7011,21.1058],[-100.765,21.0908],[-100.7824,21.09],[-100.8095,21.0661],[-100.832,21.0702],[-100.8544,21.0663],[-100.8463,21.0282],[-100.8681,21.0114],[-100.8835,21.0211],[-100.9104,20.9921],[-100.9237,20.9925],[-100.9224,20.9623],[-100.9349,20.9594],[-100.9423,20.9451],[-100.9554,20.9506],[-100.9711,20.9443],[-100.9696,20.9276],[-100.9936,20.9212],[-101.0291,20.8856],[-101.052,20.874],[-101.0718,20.8684],[-101.0867,20.86],[-101.0721,20.8431],[-101.0671,20.8139],[-101.0341,20.8002],[-101.0331,20.7848],[-101.0023,20.7823],[-100.9889,20.7887],[-100.9886,20.8114],[-100.9742,20.8129],[-100.9591,20.8011],[-100.9325,20.7996],[-100.9138,20.8081],[-100.8897,20.7935],[-100.8476,20.7969],[-100.8241,20.8059],[-100.8041,20.7999],[-100.7941,20.7855],[-100.7414,20.8079],[-100.7182,20.8313],[-100.7051,20.8274],[-100.6774,20.7998],[-100.6318,20.7923],[-100.6336,20.7698],[-100.6155,20.763],[-100.6217,20.7514],[-100.6186,20.7161],[-100.5965,20.7173],[-100.5829,20.7295],[-100.5489,20.7364],[-100.5481,20.7496],[-100.5641,20.7747],[-100.5583,20.8046],[-100.5755,20.8184],[-100.5593,20.8299],[-100.502,20.8529],[-100.5073,20.8695],[-100.485,20.9008],[-100.47,20.907],[-100.4722,20.9284],[-100.48,20.9302],[-100.4863,20.9561],[-100.5105,20.9701],[-100.5296,20.9992],[-100.515,21.0046],[-100.5284,21.0347],[-100.5287,21.0711]]]},"properties":{"CVE_ENT":"11","CVE_MUN":"003","CVEGEO":"11003","NOMGEO":"San Miguel de Allende"}},
{"type":"Feature","geometry":{"type":"Polygon","coordinates":[[[-100.5048,20.555],[-100.519,20.527],[-100.5368,20.525],[-100.5574,20.531],[-100.5625,20.513],[-100.5799,20.5048],[-100.6034,20.5066],[-100.5983,20.4932],[-100.6246,20.4888],[-100.6397,20.4949],[-100.6587,20.4769],[-100.689,20.4757],[-100.6927,20.4685],[-100.6936,20.447],[-100.6959,20.4389],[-100.6907,20.424],[-100.6703,20.4232],[-100.656,20.4068],[-100.6607,20.3853],[-100.6536,20.3481],[-100.6431,20.3481],[-100.5931,20.3257],[-100.586,20.3105],[-100.5418,20.3346],[-100.5086,20.3324],[-100.4807,20.3548],[-100.4785,20.3725],[-100.4695,20.3869],[-100.4762,20.3896],[-100.4783,20.4163],[-100.4885,20.4258],[-100.4884,20.4733],[-100.5003,20.5002],[-100.5098,20.5065],[-100.5048,20.555]]]},"properties":{"CVE_ENT":"11","CVE_MUN":"004","CVEGEO":"11004","NOMGEO":"Apaseo el Alto"}},
{"type":"Feature","geometry":{"type":"Polygon","coordinates":[[[-100.5965,20.7173],[-100.6186,20.7161],[-100.6162,20.6994],[-100.6321,20.6868],[-100.6349,20.6668],[-100.6426,20.6532],[-100.6723,20.6641],[-100.6627,20.6291],[-100.6761,20.6181],[-100.6983,20.6212],[-100.7111,20.5833],[-100.7127,20.5678],[-100.7299,20.5692],[-100.751,20.5496],[-100.7589,20.5351],[-100.7645,20.5081],[-100.7414,20.4982],[-100.7259,20.4854],[-100.6938,20.479],[-100.6927,20.4685],[-100.689,20.4757],[-100.6587,20.4769],[-100.6397,20.4949],[-100.6246,20.4888],[-100.5983,20.4932],[-100.6034,20.5066],[-100.5799,20.5048],[-100.5625,20.513],[-100.5574,20.531],[-100.5368,20.525],[-100.519,20.527],[-100.5048,20.555],[-100.485,20.5538],[-100.4888,20.5944],[-100.4961,20.6157],[-100.5184,20.6258],[-100.5295,20.6387],[-100.5511,20.6338],[-100.5619,20.6714],[-100.5823,20.6768],[-100.5813,20.6929],[-100.5965,20.7173]]]},"properties":{"CVE_ENT":"11","CVE_MUN":"005","CVEGEO":"11005","NOMGEO":"Apaseo el Grande"}},
{"type":"Feature","geometry":{"type":"Polygon","coordinates":[[[-100.1806,21.6502],[-100.1939,21.6472],[-100.2232,21.6656],[-100.2166,21.6314],[-100.206,21.613],[-100.2135,21.5983],[-100.2142,21.5678],[-100.2392,21.548],[-100.2308,21.5366],[-100.2385,21.5218],[-100.2439,21.4948],[-100.2333,21.4865],[-100.2355,21.4706],[-100.262,21.4533],[-100.2995,21.4382],[-100.2996,21.4188],[-100.3253,21.4285],[-100.3441,21.4232],[-100.3411,21.3949],[-100.355,21.3913],[-100.366,21.3727],[-100.3568,21.366],[-100.3683,21.3477],[-100.3664,21.3368],[-100.3489,21.3298],[-100.3724,21.3006],[-100.3712,21.278],[-100.3822,21.2645],[-100.3651,21.2541],[-100.3519,21.2108],[-100.3217,21.2086],[-100.2911,21.1683],[-100.2738,21.1602],[-100.2401,21.1205],[-100.2069,21.1074],[-100.2048,21.1221],[-100.1885,21.1309],[-100.1635,21.1365],[-100.1525,21.1561],[-100.1468,21.1641],[-100.1377,21.2065],[-100.1303,21.2155],[-100.1474,21.2167],[-100.1508,21.2365],[-100.1257,21.2584],[-100.1345,21.2692],[-100.1352,21.2877],[-100.1525,21.3037],[-100.149,21.3246],[-100.129,21.335],[-100.1176,21.3645],[-100.1186,21.3917],[-100.132,21.4072],[-100.0875,21.4152],[-100.0903,21.4447],[-100.0964,21.462],[-100.058,21.4957],[-100.0623,21.5233],[-100.0761,21.5581],[-100.1125,21.5873],[-100.125,21.5935],[-100.147,21.6179],[-100.1674,21.6014],[-100.1746,21.6105],[-100.1671,21.6341],[-100.1806,21.6502]]]},"properties":{"CVE_ENT":"11","CVE_MUN":"043","CVEGEO":"11043","NOMGEO":"Victoria"}},
{"type":"Feature","geometry":{"type":"Polygon","coordinates":[[[-101.4227,21.825],[-101.4739,21.8274],[-101.4963,21.8099],[-101.5105,21.7991],[-101.5388,21.7773],[-101.5602,21.7799],[-101.5823,21.7727],[-101.5797,21.7364],[-101.5577,21.7351],[-101.5712,21.7064],[-101.5696,21.6904],[-101.5846,21.669],[-101.583,21.6579],[-101.5943,21.6338],[-101.5844,21.6311],[-101.586,21.6078],[-101.6032,21.5936],[-101.6122,21.5753],[-101.6064,21.5646],[-101.6228,21.5448],[-101.6413,21.5266],[-101.589,21.4649],[-101.5804,21.4283],[-101.5704,21.4185],[-101.5621,21.4256],[-101.526,21.4305],[-101.528,21.409],[-101.5098,21.3824],[-101.5002,21.3791],[-101.4532,21.4008],[-101.4334,21.4172],[-101.3711,21.3975],[-101.3287,21.4097],[-101.3331,21.4478],[-101.3391,21.4637],[-101.3166,21.5072],[-101.2857,21.5233],[-101.2907,21.5372],[-101.3073,21.538],[-101.3219,21.5559],[-101.3635,21.5614],[-101.3694,21.5719],[-101.3576,21.5962],[-101.3382,21.6778],[-101.4384,21.6666],[-101.4427,21.6905],[-101.4434,21.7359],[-101.4323,21.7358],[-101.4244,21.7732],[-101.4227,21.825]]]},"properties":{"CVE_ENT":"11","CVE_MUN":"022","CVEGEO":"11022","NOMGEO":"Ocampo"}},
{"type":"Feature","geometry":{"type":"Polygon","coordinates":[[[-100.7214,21.2979],[-100.7326,21.2942],[-100.743,21.3157],[-100.7657,21.3194],[-100.7691,21.336],[-100.7983,21.3165],[-100.8131,21.3216],[-100.8244,21.315],[-100.8386,21.3279],[-100.8505,21.3204],[-100.8587,21.3344],[-100.8717,21.3246],[-100.8998,21.3241],[-100.9034,21.3418],[-100.9234,21.3412],[-100.9167,21.3173],[-100.9463,21.3053],[-100.9619,21.3067],[-100.9749,21.3184],[-100.9981,21.3501],[-101.0036,21.3336],[-101.0405,21.326],[-101.0495,21.3171],[-101.0512,21.2886],[-101.0719,21.2779],[-101.087,21.2805],[-101.0819,21.3127],[-101.098,21.3184],[-101.1098,21.294],[-101.1003,21.287],[-101.1056,21.258],[-101.152,21.2387],[-101.1848,21.2335],[-101.2039,21.2076],[-101.1732,21.2114],[-101.1712,21.1868],[-101.1528,21.1882],[-101.1473,21.1586],[-101.1213,21.1554],[-101.1066,21.1401],[-101.13,21.081],[-101.1227,21.0536],[-101.146,21.0455],[-101.1268,21.0076],[-101.1078,21.0135],[-101.0828,21.0048],[-101.0776,20.9901],[-101.0572,20.9793],[-101.0739,20.9629],[-101.1129,20.9535],[-101.1074,20.93],[-101.0879,20.8734],[-101.0919,20.871],[-101.089,20.8651],[-101.0855,20.8649],[-101.0867,20.86],[-101.0718,20.8684],[-101.052,20.874],[-101.0291,20.8856],[-100.9936,20.9212],[-100.9696,20.9276],[-100.9711,20.9443],[-100.9554,20.9506],[-100.9423,20.9451],[-100.9349,20.9594],[-100.9224,20.9623],[-100.9237,20.9925],[-100.9104,20.9921],[-100.8835,21.0211],[-100.8681,21.0114],[-100.8463,21.0282],[-100.8544,21.0663],[-100.832,21.0702],[-100.8095,21.0661],[-100.7824,21.09],[-100.765,21.0908],[-100.7011,21.1058],[-100.6366,21.1086],[-100.6361,21.117],[-100.6579,21.132],[-100.6729,21.1305],[-100.6704,21.1605],[-100.6822,21.1627],[-100.6931,21.196],[-100.6632,21.2059],[-100.6558,21.2335],[-100.6762,21.2465],[-100.7166,21.2789],[-100.7214,21.2979]]]},"properties":{"CVE_ENT":"11","CVE_MUN":"014","CVEGEO":"11014","NOMGEO":"Dolores Hidalgo Cuna de la Independencia Nacional"}},
{"type":"Feature","geometry":{"type":"Polygon","coordinates":[[[-99.7773,21.495],[-99.791,21.4907],[-99.7884,21.4771],[-99.8171,21.4617],[-99.8349,21.4781],[-99.867,21.4735],[-99.906,21.4481],[-99.9424,21.4618],[-99.958,21.4827],[-99.9507,21.4947],[-99.9651,21.5051],[-99.957,21.5262],[-99.9987,21.5242],[-100.0441,21.5256],[-100.0623,21.5233],[-100.058,21.4957],[-100.0964,21.462],[-100.0903,21.4447],[-100.0875,21.4152],[-100.132,21.4072],[-100.1186,21.3917],[-100.1176,21.3645],[-100.129,21.335],[-100.149,21.3246],[-100.1525,21.3037],[-100.1352,21.2877],[-100.1345,21.2692],[-100.1257,21.2584],[-100.1508,21.2365],[-100.1474,21.2167],[-100.1303,21.2155],[-100.1187,21.2288],[-100.0721,21.2292],[-100.0633,21.2121],[-100.0365,21.2132],[-100.0212,21.1914],[-100.0111,21.1895],[-99.9864,21.2183],[-99.9479,21.2124],[-99.9409,21.1938],[-99.9042,21.1853],[-99.8952,21.2044],[-99.8891,21.2345],[-99.8773,21.2616],[-99.8733,21.2891],[-99.8593,21.3403],[-99.8297,21.3774],[-99.7969,21.3948],[-99.7791,21.3949],[-99.7797,21.4393],[-99.7722,21.4673],[-99.7773,21.495]]]},"properties":{"CVE_ENT":"11","CVE_MUN":"045","CVEGEO":"11045","NOMGEO":"Xichú"}},
{"type":"Feature","geometry":{"type":"Polygon","coordinates":[[[-101.5271,20.7491],[-101.5575,20.7599],[-101.5705,20.7538],[-101.6022,20.7765],[-101.6338,20.762],[-101.6452,20.7435],[-101.6376,20.7226],[-101.6372,20.6946],[-101.623,20.6776],[-101.6148,20.6577],[-101.599,20.6542],[-101.5801,20.6387],[-101.5781,20.62],[-101.5827,20.5939],[-101.5953,20.5653],[-101.5875,20.556],[-101.5855,20.5354],[-101.6049,20.527],[-101.6084,20.5139],[-101.6007,20.4988],[-101.6114,20.4722],[-101.61,20.4499],[-101.595,20.4317],[-101.6004,20.4067],[-101.6229,20.3732],[-101.6432,20.3669],[-101.6456,20.3531],[-101.6215,20.3263],[-101.6323,20.3135],[-101.6271,20.3034],[-101.6199,20.3155],[-101.5993,20.3071],[-101.5778,20.3264],[-101.5636,20.3205],[-101.5706,20.3563],[-101.5768,20.368],[-101.5747,20.3916],[-101.5561,20.4017],[-101.5306,20.3985],[-101.5085,20.4065],[-101.4553,20.4152],[-101.4384,20.4069],[-101.4121,20.3857],[-101.3959,20.4143],[-101.38,20.4162],[-101.3896,20.4573],[-101.4031,20.4782],[-101.372,20.4878],[-101.367,20.5042],[-101.3979,20.5034],[-101.4005,20.5158],[-101.4444,20.5011],[-101.4723,20.5025],[-101.4936,20.5088],[-101.501,20.5197],[-101.5076,20.5616],[-101.4845,20.5649],[-101.4723,20.5727],[-101.4747,20.5885],[-101.4974,20.5961],[-101.4957,20.6399],[-101.503,20.6801],[-101.5111,20.6798],[-101.5269,20.7058],[-101.5283,20.7178],[-101.5415,20.7316],[-101.5271,20.7491]]]},"properties":{"CVE_ENT":"11","CVE_MUN":"001","CVEGEO":"11001","NOMGEO":"Abasolo"}},
{"type":"Feature","geometry":{"type":"Polygon","coordinates":[[[-100.2771,21.6865],[-100.3221,21.6821],[-100.3514,21.6917],[-100.3755,21.6798],[-100.419,21.6747],[-100.4357,21.6807],[-100.4513,21.6663],[-100.4615,21.6371],[-100.4604,21.624],[-100.4724,21.6043],[-100.4715,21.5876],[-100.4554,21.5563],[-100.4643,21.5432],[-100.534,21.5423],[-100.5467,21.5323],[-100.5711,21.5301],[-100.5844,21.5223],[-100.615,21.5058],[-100.6219,21.519],[-100.6143,21.5331],[-100.6354,21.5432],[-100.6385,21.5283],[-100.6575,21.5247],[-100.6824,21.5477],[-100.7176,21.5502],[-100.735,21.579],[-100.7513,21.5806],[-100.7301,21.5355],[-100.7028,21.5461],[-100.6943,21.5348],[-100.7344,21.5218],[-100.7257,21.5118],[-100.7009,21.5168],[-100.7042,21.4574],[-100.6898,21.4279],[-100.6959,21.4238],[-100.678,21.3935],[-100.6412,21.4016],[-100.5984,21.3914],[-100.6044,21.3719],[-100.6023,21.3497],[-100.6079,21.3343],[-100.6325,21.3504],[-100.6439,21.3368],[-100.6795,21.3632],[-100.6939,21.3698],[-100.6931,21.3356],[-100.6812,21.3308],[-100.6721,21.3119],[-100.7017,21.3091],[-100.7214,21.2979],[-100.7166,21.2789],[-100.6762,21.2465],[-100.6558,21.2335],[-100.6632,21.2059],[-100.6931,21.196],[-100.6822,21.1627],[-100.6704,21.1605],[-100.6729,21.1305],[-100.6579,21.132],[-100.6361,21.117],[-100.6366,21.1086],[-100.5925,21.1009],[-100.5666,21.101],[-100.5287,21.0711],[-100.5076,21.0828],[-100.5036,21.0949],[-100.475,21.1047],[-100.459,21.115],[-100.4849,21.1787],[-100.4435,21.1921],[-100.4325,21.1754],[-100.4198,21.185],[-100.4081,21.1773],[-100.3916,21.1913],[-100.3603,21.1911],[-100.3519,21.2108],[-100.3651,21.2541],[-100.3822,21.2645],[-100.3712,21.278],[-100.3724,21.3006],[-100.3489,21.3298],[-100.3664,21.3368],[-100.3683,21.3477],[-100.3568,21.366],[-100.366,21.3727],[-100.355,21.3913],[-100.3411,21.3949],[-100.3441,21.4232],[-100.3253,21.4285],[-100.2996,21.4188],[-100.2995,21.4382],[-100.262,21.4533],[-100.2355,21.4706],[-100.2333,21.4865],[-100.2439,21.4948],[-100.2385,21.5218],[-100.2308,21.5366],[-100.2392,21.548],[-100.2142,21.5678],[-100.2135,21.5983],[-100.206,21.613],[-100.2166,21.6314],[-100.2232,21.6656],[-100.2463,21.6649],[-100.2771,21.6865]]]},"properties":{"CVE_ENT":"11","CVE_MUN":"033","CVEGEO":"11033","NOMGEO":"San Luis de la Paz"}},
{"type":"Feature","geometry":{"type":"Polygon","coordinates":[[[-99.7791,21.3949],[-99.7969,21.3948],[-99.8297,21.3774],[-99.8593,21.3403],[-99.8733,21.2891],[-99.8773,21.2616],[-99.8891,21.2345],[-99.8952,21.2044],[-99.9042,21.1853],[-99.8882,21.1696],[-99.8716,21.1697],[-99.8291,21.1579],[-99.777,21.1959],[-99.7754,21.2049],[-99.7465,21.2253],[-99.7385,21.2358],[-99.6955,21.2282],[-99.6934,21.2359],[-99.6987,21.2408],[-99.6982,21.2682],[-99.6736,21.2969],[-99.6856,21.3083],[-99.7076,21.3145],[-99.7373,21.3129],[-99.7342,21.3014],[-99.7579,21.2921],[-99.784,21.3201],[-99.7945,21.3574],[-99.7755,21.375],[-99.7791,21.3949]]]},"properties":{"CVE_ENT":"11","CVE_MUN":"006","CVEGEO":"11006","NOMGEO":"Atarjea"}},
{"type":"Feature","geometry":{"type":"Polygon","coordinates":[[[-100.494,20.0235],[-100.5031,20.0478],[-100.4945,20.0767],[-100.5234,20.0766],[-100.5367,20.0941],[-100.5465,20.0816],[-100.5655,20.0787],[-100.5854,20.0605],[-100.596,20.0786],[-100.5816,20.0824],[-100.5997,20.1232],[-100.6022,20.1505],[-100.6513,20.1544],[-100.6535,20.1794],[-100.6405,20.1846],[-100.6346,20.1973],[-100.6415,20.2141],[-100.6767,20.2289],[-100.6904,20.2092],[-100.7069,20.1947],[-100.7461,20.1763],[-100.7817,20.1731],[-100.8213,20.1567],[-100.8203,20.1412],[-100.8592,20.1258],[-100.8674,20.1038],[-100.8822,20.1279],[-100.8967,20.1094],[-100.8958,20.0916],[-100.8872,20.0843],[-100.8937,20.0638],[-100.9082,20.0512],[-100.9185,20.0555],[-100.9244,20.0285],[-100.9501,20.0175],[-100.9507,20.0065],[-100.9703,20.0052],[-100.9827,20.0026],[-100.9767,19.9827],[-101.0025,19.965],[-101.0031,19.9532],[-100.9838,19.9567],[-100.9718,19.93],[-100.9587,19.9308],[-100.9479,19.9336],[-100.9475,19.9625],[-100.9307,19.956],[-100.9016,19.9595],[-100.8826,19.9439],[-100.8603,19.9489],[-100.8537,19.9345],[-100.8358,19.9346],[-100.8302,19.9541],[-100.8329,19.9724],[-100.8243,19.9783],[-100.8022,19.9583],[-100.7921,19.9556],[-100.7788,19.9151],[-100.7471,19.9131],[-100.7188,19.9405],[-100.6806,19.9505],[-100.6604,19.9645],[-100.6538,19.9597],[-100.6197,19.9572],[-100.6019,19.9859],[-100.5759,20.0197],[-100.5748,20.0482],[-100.5644,20.0493],[-100.5637,20.0725],[-100.5327,20.0785],[-100.512,20.0661],[-100.5071,20.0419],[-100.494,20.0235]]]},"properties":{"CVE_ENT":"11","CVE_MUN":"002","CVEGEO":"11002","NOMGEO":"Acámbaro"}},
{"type":"Feature","geometry":{"type":"Polygon","coordinates":[[[-101.6907,20.696],[-101.7088,20.7036],[-101.7276,20.6947],[-101.7331,20.679],[-101.7535,20.6646],[-101.7636,20.6333],[-101.7762,20.6227],[-101.7562,20.6054],[-101.7326,20.602],[-101.718,20.6082],[-101.7078,20.5844],[-101.7112,20.5643],[-101.7239,20.5539],[-101.7223,20.5382],[-101.6696,20.5366],[-101.6522,20.5529],[-101.6342,20.5477],[-101.6352,20.5284],[-101.6049,20.527],[-101.5855,20.5354],[-101.5875,20.556],[-101.5953,20.5653],[-101.5827,20.5939],[-101.5781,20.62],[-101.5801,20.6387],[-101.599,20.6542],[-101.6148,20.6577],[-101.623,20.6776],[-101.6372,20.6946],[-101.6465,20.6874],[-101.6907,20.696]]]},"properties":{"CVE_ENT":"11","CVE_MUN":"012","CVEGEO":"11012","NOMGEO":"Cuerámaro"}},
{"type":"Feature","geometry":{"type":"Polygon","coordinates":[[[-100.2401,21.1205],[-100.2738,21.1602],[-100.2911,21.1683],[-100.3217,21.2086],[-100.3519,21.2108],[-100.3603,21.1911],[-100.3916,21.1913],[-100.4081,21.1773],[-100.4198,21.185],[-100.4325,21.1754],[-100.4435,21.1921],[-100.4849,21.1787],[-100.459,21.115],[-100.4549,21.1056],[-100.3296,21.0912],[-100.3279,21.0813],[-100.303,21.0752],[-100.2933,21.0923],[-100.2922,21.0979],[-100.2537,21.0873],[-100.2401,21.1205]]]},"properties":{"CVE_ENT":"11","CVE_MUN":"013","CVEGEO":"11013","NOMGEO":"Doctor Mora"}},
{"type":"Feature","geometry":{"type":"Polygon","coordinates":[[[-100.8236,20.3752],[-100.7848,20.3561],[-100.7818,20.375],[-100.7374,20.3739],[-100.7253,20.392],[-100.7278,20.4052],[-100.7,20.4013],[-100.6937,20.4251],[-100.6943,20.4297],[-100.6959,20.4389],[-100.6936,20.447],[-100.6938,20.479],[-100.7259,20.4854],[-100.7414,20.4982],[-100.7645,20.5081],[-100.7589,20.5351],[-100.751,20.5496],[-100.7299,20.5692],[-100.7127,20.5678],[-100.7111,20.5833],[-100.6983,20.6212],[-100.6761,20.6181],[-100.6627,20.6291],[-100.6723,20.6641],[-100.6426,20.6532],[-100.6349,20.6668],[-100.6525,20.6712],[-100.6668,20.6886],[-100.7223,20.6798],[-100.7474,20.6533],[-100.7621,20.6498],[-100.7902,20.6769],[-100.8093,20.6883],[-100.8234,20.6644],[-100.8483,20.6652],[-100.8582,20.6635],[-100.8592,20.6618],[-100.8603,20.6612],[-100.8613,20.661],[-100.8654,20.6596],[-100.8622,20.656],[-100.8683,20.6503],[-100.8706,20.6288],[-100.8849,20.6289],[-100.8741,20.5851],[-100.888,20.5866],[-100.8884,20.5825],[-100.8886,20.5814],[-100.8892,20.5753],[-100.9108,20.5696],[-100.9091,20.5155],[-100.902,20.4961],[-100.8553,20.4878],[-100.8453,20.4823],[-100.852,20.4391],[-100.8267,20.4315],[-100.8444,20.3918],[-100.8236,20.3752]]]},"properties":{"CVE_ENT":"11","CVE_MUN":"007","CVEGEO":"11007","NOMGEO":"Celaya"}},
{"type":"Feature","geometry":{"type":"Polygon","coordinates":[[[-100.4033,20.3608],[-100.41,20.376],[-100.4444,20.3872],[-100.4695,20.3869],[-100.4785,20.3725],[-100.4807,20.3548],[-100.5086,20.3324],[-100.5418,20.3346],[-100.586,20.3105],[-100.5931,20.3257],[-100.6431,20.3481],[-100.6536,20.3481],[-100.687,20.3214],[-100.6776,20.3071],[-100.6832,20.2837],[-100.6698,20.2778],[-100.6779,20.2574],[-100.6767,20.2289],[-100.6415,20.2141],[-100.6346,20.1973],[-100.6405,20.1846],[-100.6535,20.1794],[-100.6513,20.1544],[-100.6022,20.1505],[-100.5997,20.1232],[-100.5816,20.0824],[-100.596,20.0786],[-100.5854,20.0605],[-100.5655,20.0787],[-100.5465,20.0816],[-100.5367,20.0941],[-100.5234,20.0766],[-100.4945,20.0767],[-100.5031,20.0478],[-100.494,20.0235],[-100.4905,20.0157],[-100.4562,20.0076],[-100.4485,19.9828],[-100.405,19.9838],[-100.3629,19.9899],[-100.3704,20.0213],[-100.3544,20.0278],[-100.362,20.0534],[-100.3583,20.0649],[-100.3898,20.0808],[-100.3971,20.0971],[-100.3853,20.1045],[-100.3915,20.121],[-100.3809,20.1301],[-100.4012,20.1265],[-100.4214,20.1401],[-100.4043,20.1513],[-100.3947,20.1674],[-100.4018,20.1794],[-100.4441,20.1757],[-100.4462,20.1876],[-100.4295,20.19],[-100.4346,20.217],[-100.4193,20.2296],[-100.4095,20.2541],[-100.4082,20.2774],[-100.3955,20.2864],[-100.3626,20.2866],[-100.3864,20.3068],[-100.392,20.3143],[-100.3908,20.3364],[-100.394,20.3502],[-100.4033,20.3608]]]},"properties":{"CVE_ENT":"11","CVE_MUN":"019","CVEGEO":"11019","NOMGEO":"Jerécuaro"}},
{"type":"Feature","geometry":{"type":"Polygon","coordinates":[[[-100.9889,20.7887],[-101.0023,20.7823],[-101.0331,20.7848],[-101.0341,20.8002],[-101.0671,20.8139],[-101.0679,20.805],[-101.0806,20.8016],[-101.0961,20.7649],[-101.1182,20.7483],[-101.1027,20.7426],[-101.1006,20.7221],[-101.1127,20.7117],[-101.0741,20.7014],[-101.0643,20.6761],[-101.0793,20.6715],[-101.0647,20.6404],[-101.0808,20.6392],[-101.0833,20.621],[-101.0705,20.6196],[-101.067,20.5815],[-101.0629,20.5634],[-101.0628,20.5632],[-101.0628,20.5631],[-101.0617,20.5586],[-101.0562,20.5573],[-101.055,20.5526],[-101.0533,20.5527],[-101.0512,20.5531],[-101.0574,20.579],[-101.0373,20.5662],[-101.0229,20.561],[-101.0003,20.5682],[-101.0017,20.5813],[-100.9796,20.5917],[-100.9655,20.579],[-100.927,20.5782],[-100.9225,20.5713],[-100.916,20.5708],[-100.9155,20.572],[-100.9126,20.5712],[-100.9089,20.5715],[-100.9028,20.5764],[-100.8892,20.5753],[-100.8741,20.5851],[-100.8849,20.6289],[-100.8706,20.6288],[-100.8683,20.6503],[-100.8654,20.6521],[-100.8631,20.6544],[-100.8622,20.656],[-100.8654,20.6596],[-100.864,20.6616],[-100.8606,20.6612],[-100.86,20.6657],[-100.8595,20.668],[-100.8518,20.6816],[-100.8844,20.6982],[-100.9135,20.6909],[-100.9267,20.7024],[-100.9568,20.6976],[-100.9668,20.7321],[-100.9794,20.7407],[-100.9671,20.78],[-100.9738,20.7938],[-100.9889,20.7887]]]},"properties":{"CVE_ENT":"11","CVE_MUN":"035","CVEGEO":"11035","NOMGEO":"Santa Cruz de Juventino Rosas"}},
{"type":"Feature","geometry":{"type":"Polygon","coordinates":[[[-100.9842,20.3284],[-100.9774,20.3353],[-100.9789,20.3388],[-100.9799,20.3488],[-100.998,20.363],[-101.0153,20.3637],[-101.0178,20.3784],[-101.0113,20.3926],[-101.0283,20.4081],[-101.0335,20.4349],[-101.0426,20.4415],[-101.044,20.4516],[-101.0543,20.4486],[-101.0703,20.4542],[-101.074,20.4369],[-101.0846,20.4449],[-101.0912,20.439],[-101.094,20.4407],[-101.1015,20.4352],[-101.0873,20.4152],[-101.1135,20.3955],[-101.1062,20.3424],[-101.1095,20.3172],[-101.0785,20.3007],[-101.0715,20.2871],[-101.049,20.275],[-101.0418,20.2775],[-101.0056,20.2855],[-100.9996,20.3068],[-100.9788,20.3177],[-100.9842,20.3284]]]},"properties":{"CVE_ENT":"11","CVE_MUN":"018","CVEGEO":"11018","NOMGEO":"Jaral del Progreso"}},
{"type":"Feature","geometry":{"type":"Polygon","coordinates":[[[-101.7348,20.7949],[-101.7708,20.7996],[-101.8098,20.8242],[-101.8045,20.8341],[-101.8457,20.8361],[-101.8611,20.8463],[-101.903,20.8262],[-101.9349,20.8101],[-101.9384,20.829],[-101.996,20.8352],[-101.9972,20.8242],[-102.0478,20.8195],[-102.0556,20.812],[-102.0674,20.7716],[-102.0734,20.7495],[-102.0614,20.7371],[-102.0342,20.7355],[-102.0404,20.7232],[-102.0144,20.7171],[-102.0187,20.6863],[-102.0138,20.6644],[-101.9971,20.6647],[-101.9701,20.6558],[-101.9559,20.6281],[-101.9628,20.5702],[-101.969,20.5624],[-101.9289,20.5677],[-101.9308,20.5456],[-101.8994,20.559],[-101.8901,20.547],[-101.8731,20.5479],[-101.8579,20.54],[-101.8485,20.5717],[-101.8123,20.5787],[-101.8072,20.6072],[-101.7762,20.6227],[-101.7636,20.6333],[-101.7535,20.6646],[-101.7331,20.679],[-101.7276,20.6947],[-101.7088,20.7036],[-101.6907,20.696],[-101.6907,20.7099],[-101.7013,20.7291],[-101.6885,20.7687],[-101.6938,20.7842],[-101.7348,20.7949]]]},"properties":{"CVE_ENT":"11","CVE_MUN":"008","CVEGEO":"11008","NOMGEO":"Manuel Doblado"}},
{"type":"Feature","geometry":{"type":"Polygon","coordinates":[[[-101.0802,20.0828],[-101.0905,20.1062],[-101.0898,20.1207],[-101.1021,20.129],[-101.1258,20.1646],[-101.1593,20.1603],[-101.1555,20.1774],[-101.197,20.1823],[-101.2124,20.1741],[-101.2025,20.1502],[-101.1788,20.1269],[-101.1848,20.1066],[-101.1993,20.102],[-101.1928,20.0858],[-101.205,20.0706],[-101.202,20.0549],[-101.2118,20.0377],[-101.1932,20.0345],[-101.1963,20.0572],[-101.1767,20.0645],[-101.1652,20.0872],[-101.1537,20.0838],[-101.132,20.0607],[-101.1197,20.0735],[-101.0802,20.0828]]]},"properties":{"CVE_ENT":"11","CVE_MUN":"041","CVEGEO":"11041","NOMGEO":"Uriangato"}},
{"type":"Feature","geometry":{"type":"Polygon","coordinates":[[[-100.8276,20.3528],[-100.8802,20.355],[-100.8822,20.3812],[-100.8988,20.3786],[-100.9104,20.3413],[-100.9697,20.3385],[-100.9842,20.3284],[-100.9788,20.3177],[-100.9996,20.3068],[-101.0056,20.2855],[-101.0418,20.2775],[-101.0498,20.2528],[-101.0346,20.2506],[-101.047,20.23],[-101.0467,20.2117],[-101.0201,20.2001],[-101.0213,20.2105],[-100.9926,20.2079],[-100.9594,20.1984],[-100.9416,20.1871],[-100.9401,20.1667],[-100.9475,20.1335],[-100.9788,20.1318],[-101.0004,20.1094],[-101.0118,20.0815],[-100.9928,20.0649],[-101.014,20.0457],[-100.9976,20.0256],[-100.9897,20.0273],[-100.9681,20.012],[-100.9703,20.0052],[-100.9507,20.0065],[-100.9501,20.0175],[-100.9244,20.0285],[-100.9185,20.0555],[-100.9082,20.0512],[-100.8937,20.0638],[-100.8872,20.0843],[-100.8958,20.0916],[-100.8967,20.1094],[-100.8822,20.1279],[-100.8674,20.1038],[-100.8592,20.1258],[-100.8203,20.1412],[-100.8213,20.1567],[-100.7817,20.1731],[-100.7822,20.1953],[-100.7896,20.2321],[-100.8128,20.2327],[-100.8131,20.2521],[-100.8365,20.2592],[-100.8391,20.2851],[-100.8246,20.2986],[-100.8296,20.3305],[-100.8191,20.3453],[-100.8276,20.3528]]]},"properties":{"CVE_ENT":"11","CVE_MUN":"028","CVEGEO":"11028","NOMGEO":"Salvatierra"}},
{"type":"Feature","geometry":{"type":"Polygon","coordinates":[[[-100.0147,21.051],[-100.0431,21.0475],[-100.0742,21.0585],[-100.0797,21.0676],[-100.0679,21.0802],[-100.0711,21.091],[-100.1102,21.107],[-100.1111,21.126],[-100.1273,21.131],[-100.1307,21.1441],[-100.1475,21.1442],[-100.1525,21.1561],[-100.1635,21.1365],[-100.1885,21.1309],[-100.2048,21.1221],[-100.2069,21.1074],[-100.2401,21.1205],[-100.2537,21.0873],[-100.2922,21.0979],[-100.2933,21.0923],[-100.2801,21.0887],[-100.281,21.0721],[-100.2676,21.069],[-100.2542,21.0443],[-100.2572,21.0114],[-100.2472,20.9972],[-100.2493,20.9832],[-100.2319,20.9761],[-100.2455,20.9633],[-100.2393,20.9608],[-100.2009,20.937],[-100.1878,20.9325],[-100.1842,20.9332],[-100.1845,20.9314],[-100.1815,20.9304],[-100.1784,20.9387],[-100.1353,20.9373],[-100.1178,20.9222],[-100.0927,20.9317],[-100.0642,20.9363],[-100.0807,20.9499],[-100.0688,20.9579],[-100.078,20.9727],[-100.0739,20.9897],[-100.0607,21.0058],[-100.0612,21.0285],[-100.0226,21.0146],[-100.0111,21.0285],[-100.0113,21.0408],[-100.0147,21.051]]]},"properties":{"CVE_ENT":"11","CVE_MUN":"040","CVEGEO":"11040","NOMGEO":"Tierra Blanca"}},
{"type":"Feature","geometry":{"type":"Polygon","coordinates":[[[-101.3132,20.5394],[-101.3203,20.5351],[-101.3413,20.5464],[-101.3666,20.5268],[-101.367,20.5042],[-101.372,20.4878],[-101.4031,20.4782],[-101.3896,20.4573],[-101.38,20.4162],[-101.3959,20.4143],[-101.4121,20.3857],[-101.4298,20.3773],[-101.4411,20.3404],[-101.4601,20.3235],[-101.4567,20.3044],[-101.4583,20.2696],[-101.4369,20.2638],[-101.4197,20.2744],[-101.3953,20.2485],[-101.3614,20.249],[-101.3436,20.2715],[-101.3212,20.2707],[-101.2933,20.2847],[-101.2464,20.2935],[-101.2446,20.2838],[-101.2229,20.2787],[-101.2129,20.2692],[-101.2042,20.2478],[-101.1784,20.2599],[-101.1691,20.272],[-101.1456,20.2653],[-101.1283,20.2768],[-101.1118,20.2769],[-101.1167,20.3024],[-101.0942,20.2909],[-101.0785,20.3007],[-101.1095,20.3172],[-101.1062,20.3424],[-101.1135,20.3955],[-101.0873,20.4152],[-101.1015,20.4352],[-101.094,20.4407],[-101.0983,20.443],[-101.102,20.4505],[-101.1,20.4529],[-101.1015,20.462],[-101.1146,20.4684],[-101.1281,20.4899],[-101.1448,20.4769],[-101.1574,20.4845],[-101.2012,20.471],[-101.2343,20.4507],[-101.2463,20.4788],[-101.2597,20.4949],[-101.2815,20.5023],[-101.2909,20.5163],[-101.2819,20.5327],[-101.2991,20.5342],[-101.3029,20.5331],[-101.3105,20.5266],[-101.3132,20.5394]]]},"properties":{"CVE_ENT":"11","CVE_MUN":"042","CVEGEO":"11042","NOMGEO":"Valle de Santiago"}},
{"type":"Feature","geometry":{"type":"Polygon","coordinates":[[[-100.6536,20.3481],[-100.6607,20.3853],[-100.656,20.4068],[-100.6703,20.4232],[-100.6907,20.424],[-100.7,20.4013],[-100.7278,20.4052],[-100.7253,20.392],[-100.7374,20.3739],[-100.7818,20.375],[-100.7848,20.3561],[-100.8236,20.3752],[-100.8276,20.3528],[-100.8191,20.3453],[-100.8296,20.3305],[-100.8246,20.2986],[-100.8391,20.2851],[-100.8365,20.2592],[-100.8131,20.2521],[-100.8128,20.2327],[-100.7896,20.2321],[-100.7822,20.1953],[-100.7817,20.1731],[-100.7461,20.1763],[-100.7069,20.1947],[-100.6904,20.2092],[-100.6767,20.2289],[-100.6779,20.2574],[-100.6698,20.2778],[-100.6832,20.2837],[-100.6776,20.3071],[-100.687,20.3214],[-100.6536,20.3481]]]},"properties":{"CVE_ENT":"11","CVE_MUN":"039","CVEGEO":"11039","NOMGEO":"Tarimoro"}},
{"type":"Feature","geometry":{"type":"Polygon","coordinates":[[[-100.2933,21.0923],[-100.303,21.0752],[-100.3279,21.0813],[-100.3296,21.0912],[-100.4549,21.1056],[-100.459,21.115],[-100.475,21.1047],[-100.5036,21.0949],[-100.5076,21.0828],[-100.5287,21.0711],[-100.5284,21.0347],[-100.515,21.0046],[-100.5296,20.9992],[-100.5105,20.9701],[-100.4863,20.9561],[-100.48,20.9302],[-100.4722,20.9284],[-100.4532,20.9232],[-100.454,20.9002],[-100.4128,20.8878],[-100.3944,20.8922],[-100.3336,20.8907],[-100.2984,20.9153],[-100.2992,20.9313],[-100.2655,20.9292],[-100.2636,20.971],[-100.2455,20.9633],[-100.2319,20.9761],[-100.2493,20.9832],[-100.2472,20.9972],[-100.2572,21.0114],[-100.2542,21.0443],[-100.2676,21.069],[-100.281,21.0721],[-100.2801,21.0887],[-100.2933,21.0923]]]},"properties":{"CVE_ENT":"11","CVE_MUN":"032","CVEGEO":"11032","NOMGEO":"San José de Iturbide"}},
{"type":"Feature","geometry":{"type":"Polygon","coordinates":[[[-101.6049,20.527],[-101.6352,20.5284],[-101.6342,20.5477],[-101.6522,20.5529],[-101.6696,20.5366],[-101.7223,20.5382],[-101.7239,20.5539],[-101.7112,20.5643],[-101.7078,20.5844],[-101.718,20.6082],[-101.7326,20.602],[-101.7562,20.6054],[-101.7762,20.6227],[-101.8072,20.6072],[-101.8123,20.5787],[-101.8485,20.5717],[-101.8579,20.54],[-101.8731,20.5479],[-101.8901,20.547],[-101.8994,20.559],[-101.9308,20.5456],[-101.9289,20.5677],[-101.969,20.5624],[-101.9848,20.5352],[-102.0094,20.545],[-102.0101,20.5261],[-102.0302,20.496],[-102.0461,20.4817],[-102.0466,20.454],[-102.0563,20.452],[-102.0793,20.4214],[-102.0963,20.3841],[-102.065,20.3749],[-102.022,20.3812],[-102.0179,20.3709],[-102.0251,20.3493],[-102.0138,20.3479],[-101.9964,20.3596],[-101.9678,20.3593],[-101.9627,20.3453],[-101.9464,20.3432],[-101.9505,20.2989],[-101.9415,20.2795],[-101.9449,20.2551],[-101.9344,20.2493],[-101.9399,20.2271],[-101.907,20.2133],[-101.9149,20.1944],[-101.8978,20.2041],[-101.8813,20.1991],[-101.8721,20.2103],[-101.8584,20.2114],[-101.8348,20.2247],[-101.8277,20.2141],[-101.8091,20.2044],[-101.7965,20.2128],[-101.7866,20.2193],[-101.7604,20.2019],[-101.7327,20.2107],[-101.7106,20.2053],[-101.6938,20.192],[-101.6855,20.2185],[-101.6693,20.2194],[-101.6633,20.2376],[-101.6474,20.2384],[-101.6508,20.2529],[-101.6438,20.2657],[-101.6255,20.267],[-101.6344,20.2903],[-101.6271,20.3034],[-101.6323,20.3135],[-101.6215,20.3263],[-101.6456,20.3531],[-101.6432,20.3669],[-101.6229,20.3732],[-101.6004,20.4067],[-101.595,20.4317],[-101.61,20.4499],[-101.6114,20.4722],[-101.6007,20.4988],[-101.6084,20.5139],[-101.6049,20.527]]]},"properties":{"CVE_ENT":"11","CVE_MUN":"023","CVEGEO":"11023","NOMGEO":"Pénjamo"}},
{"type":"Feature","geometry":{"type":"Polygon","coordinates":[[[-100.494,20.0235],[-100.5071,20.0419],[-100.512,20.0661],[-100.5327,20.0785],[-100.5637,20.0725],[-100.5644,20.0493],[-100.5748,20.0482],[-100.5759,20.0197],[-100.6019,19.9859],[-100.5956,19.9917],[-100.5579,19.9917],[-100.5694,19.9655],[-100.5524,19.9576],[-100.5268,19.9658],[-100.53,19.9393],[-100.5118,19.9422],[-100.5104,19.9555],[-100.4616,19.9802],[-100.4485,19.9828],[-100.4562,20.0076],[-100.4905,20.0157],[-100.494,20.0235]]]},"properties":{"CVE_ENT":"11","CVE_MUN":"038","CVEGEO":"11038","NOMGEO":"Tarandacuao"}},
{"type":"Feature","geometry":{"type":"Polygon","coordinates":[[[-101.0785,20.3007],[-101.0942,20.2909],[-101.1167,20.3024],[-101.1118,20.2769],[-101.1283,20.2768],[-101.1456,20.2653],[-101.1691,20.272],[-101.1784,20.2599],[-101.2042,20.2478],[-101.2129,20.2692],[-101.2229,20.2787],[-101.2446,20.2838],[-101.2464,20.2935],[-101.2933,20.2847],[-101.3212,20.2707],[-101.3436,20.2715],[-101.3614,20.249],[-101.3529,20.234],[-101.3632,20.1958],[-101.4056,20.2033],[-101.4199,20.2016],[-101.4225,20.1632],[-101.391,20.1271],[-101.4087,20.1231],[-101.4047,20.0802],[-101.3923,20.0833],[-101.3943,20.0529],[-101.4025,20.0448],[-101.3881,20.0304],[-101.3749,20.0404],[-101.3482,20.0321],[-101.3283,20.032],[-101.3165,20.0374],[-101.2917,20.0361],[-101.3051,20.0518],[-101.3197,20.0496],[-101.3251,20.0707],[-101.3117,20.0871],[-101.3023,20.1076],[-101.2881,20.114],[-101.2681,20.1339],[-101.2658,20.1553],[-101.2522,20.1619],[-101.233,20.1573],[-101.2102,20.1447],[-101.2025,20.1502],[-101.2124,20.1741],[-101.197,20.1823],[-101.1555,20.1774],[-101.1593,20.1603],[-101.1258,20.1646],[-101.1021,20.129],[-101.0898,20.1207],[-101.0905,20.1062],[-101.0802,20.0828],[-101.0749,20.0884],[-101.043,20.0914],[-101.0118,20.0815],[-101.0004,20.1094],[-101.0193,20.106],[-101.053,20.13],[-101.0543,20.1419],[-101.0373,20.1468],[-101.0101,20.185],[-101.0201,20.2001],[-101.0467,20.2117],[-101.047,20.23],[-101.0346,20.2506],[-101.0498,20.2528],[-101.0418,20.2775],[-101.049,20.275],[-101.0715,20.2871],[-101.0785,20.3007]]]},"properties":{"CVE_ENT":"11","CVE_MUN":"046","CVEGEO":"11046","NOMGEO":"Yuriria"}},
{"type":"Feature","geometry":{"type":"Polygon","coordinates":[[[-101.2025,20.1502],[-101.2102,20.1447],[-101.233,20.1573],[-101.2522,20.1619],[-101.2658,20.1553],[-101.2681,20.1339],[-101.2881,20.114],[-101.3023,20.1076],[-101.3117,20.0871],[-101.3251,20.0707],[-101.3197,20.0496],[-101.3051,20.0518],[-101.2917,20.0361],[-101.281,20.0275],[-101.253,20.0355],[-101.2383,20.0321],[-101.2207,20.0114],[-101.2031,20.0072],[-101.2015,20.0257],[-101.1832,20.0267],[-101.1604,20.0402],[-101.1963,20.0572],[-101.1932,20.0345],[-101.2118,20.0377],[-101.202,20.0549],[-101.205,20.0706],[-101.1928,20.0858],[-101.1993,20.102],[-101.1848,20.1066],[-101.1788,20.1269],[-101.2025,20.1502]]]},"properties":{"CVE_ENT":"11","CVE_MUN":"021","CVEGEO":"11021","NOMGEO":"Moroleón"}},
{"type":"Feature","geometry":{"type":"Polygon","coordinates":[[[-101.3867,21.1385],[-101.3883,21.1537],[-101.3722,21.177],[-101.3835,21.1909],[-101.3912,21.2129],[-101.4069,21.215],[-101.4125,21.2271],[-101.427,21.2278],[-101.4401,21.2519],[-101.468,21.259],[-101.484,21.2519],[-101.4973,21.2552],[-101.5016,21.2331],[-101.5221,21.2318],[-101.5282,21.2554],[-101.5437,21.2707],[-101.5767,21.2877],[-101.5861,21.31],[-101.6155,21.3183],[-101.6162,21.3244],[-101.6459,21.3283],[-101.6432,21.2993],[-101.6629,21.2866],[-101.686,21.2938],[-101.6977,21.2838],[-101.7358,21.2773],[-101.7597,21.2676],[-101.7682,21.2577],[-101.7659,21.2422],[-101.7738,21.22],[-101.7744,21.1966],[-101.7807,21.1914],[-101.7873,21.1564],[-101.804,21.1663],[-101.8106,21.1426],[-101.8334,21.1373],[-101.8308,21.1194],[-101.8177,21.107],[-101.8049,21.0765],[-101.8089,21.053],[-101.7854,21.0489],[-101.7799,21.0425],[-101.7838,21.0163],[-101.7303,21.0051],[-101.7352,20.9831],[-101.7108,20.983],[-101.7018,20.9977],[-101.6684,20.9942],[-101.6714,20.951],[-101.7128,20.9545],[-101.7179,20.9252],[-101.7161,20.9101],[-101.7002,20.9052],[-101.697,20.894],[-101.6894,20.8646],[-101.6619,20.898],[-101.6466,20.8915],[-101.6414,20.9291],[-101.5803,20.9219],[-101.5862,20.9083],[-101.5675,20.9052],[-101.5613,20.9443],[-101.5409,20.9423],[-101.5597,20.9574],[-101.5621,20.979],[-101.5818,20.9769],[-101.5731,21.0295],[-101.4994,21.0105],[-101.4885,21.0444],[-101.4832,21.1047],[-101.4725,21.1522],[-101.4525,21.1514],[-101.4348,21.1373],[-101.4011,21.1309],[-101.3867,21.1385]]]},"properties":{"CVE_ENT":"11","CVE_MUN":"020","CVEGEO":"11020","NOMGEO":"León"}}
]}