{"type":"FeatureCollection", "features": [
{"type":"Feature","geometry":{"type":"Polygon","coordinates":[[[-99.0575,20.9592],[-99.0626,20.9808],[-99.0789,20.9973],[-99.0879,20.9978],[-99.099,21.0177],[-99.094,21.0245],[-99.1212,21.0511],[-99.1555,21.1101],[-99.1809,21.1266],[-99.2055,21.119],[-99.2154,21.1062],[-99.2436,21.1039],[-99.2498,21.0714],[-99.2661,21.0604],[-99.2655,21.0464],[-99.2388,21.0314],[-99.2226,21.0323],[-99.2359,21.0039],[-99.2567,20.9895],[-99.2435,20.9786],[-99.2279,20.948],[-99.2208,20.9541],[-99.2056,20.9332],[-99.2104,20.9229],[-99.1986,20.8945],[-99.1731,20.8983],[-99.1402,20.8884],[-99.1127,20.8727],[-99.1435,20.8487],[-99.1375,20.8298],[-99.1065,20.8218],[-99.0922,20.8051],[-99.066,20.827],[-99.0395,20.8259],[-99.0262,20.8193],[-99.0173,20.8281],[-99.0328,20.8602],[-99.0332,20.8697],[-99.0527,20.8734],[-99.069,20.9028],[-99.054,20.9418],[-99.0575,20.9592]]]},"properties":{"CVE_ENT":"13","CVE_MUN":"031","CVEGEO":"13031","NOMGEO":"Jacala de Ledezma"}},
{"type":"Feature","geometry":{"type":"Polygon","coordinates":[[[-99.0403,20.1888],[-99.0543,20.1937],[-99.1026,20.1922],[-99.1093,20.1863],[-99.1398,20.1953],[-99.1668,20.1571],[-99.1735,20.1524],[-99.1753,20.1511],[-99.1754,20.1511],[-99.104,20.1414],[-99.1257,20.1236],[-99.1402,20.0705],[-99.1512,20.0638],[-99.1731,20.088],[-99.189,20.0728],[-99.1641,20.0556],[-99.1491,20.035],[-99.1425,20.027],[-99.1182,20.0293],[-99.0894,20.0343],[-99.0709,20.018],[-99.0755,20.0374],[-99.0695,20.0494],[-99.0711,20.0728],[-99.0436,20.0681],[-99.0339,20.077],[-99.0067,20.068],[-99.0027,20.0824],[-99.0159,20.1],[-98.9983,20.1255],[-99.0121,20.1369],[-98.9967,20.1601],[-98.9722,20.1603],[-98.9685,20.1878],[-98.9909,20.1889],[-99.0085,20.1808],[-99.0155,20.1902],[-99.0403,20.1888]]]},"properties":{"CVE_ENT":"13","CVE_MUN":"005","CVEGEO":"13005","NOMGEO":"Ajacuba"}},
{"type":"Feature","geometry":{"type":"Polygon","coordinates":[[[-98.915,20.047],[-98.9304,20.041],[-98.9352,20.0529],[-98.9531,20.0517],[-98.9611,20.0409],[-98.9467,20.0275],[-98.9421,20.0006],[-98.9447,19.9751],[-98.9652,19.9739],[-98.9812,19.9547],[-98.9956,19.9569],[-98.9998,19.9418],[-98.9561,19.9282],[-98.9527,19.9067],[-98.943,19.8913],[-98.9139,19.8769],[-98.8832,19.9015],[-98.8706,19.895],[-98.8548,19.9129],[-98.8641,19.9215],[-98.8733,19.9299],[-98.8762,19.9326],[-98.8684,19.9536],[-98.8871,19.9641],[-98.9161,20.0358],[-98.9192,20.0444],[-98.915,20.047]]]},"properties":{"CVE_ENT":"13","CVE_MUN":"075","CVEGEO":"13075","NOMGEO":"Tolcayuca"}},
{"type":"Feature","geometry":{"type":"Polygon","coordinates":[[[-98.3094,21.185],[-98.3211,21.1813],[-98.3276,21.1791],[-98.3327,21.1745],[-98.338,21.1727],[-98.3424,21.1672],[-98.342,21.161],[-98.3581,21.1563],[-98.3919,21.1597],[-98.4164,21.155],[-98.4299,21.1725],[-98.4464,21.1797],[-98.4535,21.211],[-98.4816,21.2296],[-98.4693,21.2342],[-98.4692,21.2495],[-98.4993,21.2522],[-98.5165,21.2443],[-98.5399,21.2316],[-98.5419,21.2074],[-98.5267,21.197],[-98.5111,21.1713],[-98.4966,21.1645],[-98.4935,21.1464],[-98.5066,21.1245],[-98.5204,21.1258],[-98.5333,21.1106],[-98.5541,21.1113],[-98.5498,21.132],[-98.5614,21.1545],[-98.581,21.1375],[-98.5818,21.125],[-98.6018,21.1283],[-98.6146,21.122],[-98.6171,21.0938],[-98.5773,21.0653],[-98.5551,21.0638],[-98.5365,21.0442],[-98.5071,21.0509],[-98.4807,21.0554],[-98.4694,21.0397],[-98.4509,21.0442],[-98.416,21.0438],[-98.4034,21.0567],[-98.3808,21.0653],[-98.3924,21.0813],[-98.3734,21.0996],[-98.3425,21.1055],[-98.3167,21.0886],[-98.2929,21.1013],[-98.2822,21.1364],[-98.2955,21.1483],[-98.2781,21.1745],[-98.2791,21.1928],[-98.2962,21.188],[-98.3094,21.185]]]},"properties":{"CVE_ENT":"13","CVE_MUN":"028","CVEGEO":"13028","NOMGEO":"Huejutla de Reyes"}},
{"type":"Feature","geometry":{"type":"Polygon","coordinates":[[[-98.6321,20.2306],[-98.6391,20.2472],[-98.664,20.2454],[-98.6724,20.2269],[-98.6604,20.204],[-98.6663,20.1645],[-98.6524,20.1445],[-98.6358,20.1397],[-98.6308,20.1295],[-98.6089,20.13],[-98.6051,20.1175],[-98.6019,20.1179],[-98.5898,20.1262],[-98.5736,20.1216],[-98.5661,20.1304],[-98.5588,20.1759],[-98.5864,20.166],[-98.6127,20.1778],[-98.6068,20.1984],[-98.629,20.2072],[-98.6321,20.2306]]]},"properties":{"CVE_ENT":"13","CVE_MUN":"045","CVEGEO":"13045","NOMGEO":"Omitlán de Juárez"}},
{"type":"Feature","geometry":{"type":"Polygon","coordinates":[[[-98.6081,19.7251],[-98.6323,19.7213],[-98.624,19.6969],[-98.6376,19.669],[-98.6205,19.661],[-98.6442,19.6488],[-98.6647,19.6604],[-98.6708,19.6533],[-98.6677,19.6446],[-98.6726,19.6314],[-98.6679,19.6182],[-98.6617,19.6101],[-98.6656,19.6062],[-98.6577,19.6056],[-98.6473,19.6078],[-98.638,19.5988],[-98.609,19.6024],[-98.5903,19.6194],[-98.5795,19.6377],[-98.5664,19.6403],[-98.5469,19.6215],[-98.5356,19.6344],[-98.5246,19.647],[-98.5281,19.6609],[-98.5606,19.6924],[-98.5693,19.721],[-98.5841,19.7235],[-98.6021,19.7157],[-98.6081,19.7251]]]},"properties":{"CVE_ENT":"13","CVE_MUN":"021","CVEGEO":"13021","NOMGEO":"Emiliano Zapata"}},
{"type":"Feature","geometry":{"type":"Polygon","coordinates":[[[-98.4585,20.3337],[-98.4696,20.3351],[-98.4922,20.3154],[-98.4985,20.2971],[-98.4802,20.2791],[-98.4884,20.267],[-98.4714,20.2511],[-98.4649,20.2341],[-98.4793,20.2289],[-98.4785,20.2159],[-98.4615,20.1943],[-98.4849,20.1826],[-98.4801,20.159],[-98.492,20.1416],[-98.5025,20.1121],[-98.5173,20.0993],[-98.4798,20.0768],[-98.454,20.0937],[-98.444,20.1075],[-98.4044,20.1363],[-98.396,20.1299],[-98.3755,20.1418],[-98.378,20.1722],[-98.3686,20.1824],[-98.3723,20.1904],[-98.3677,20.1975],[-98.3674,20.2048],[-98.3752,20.2052],[-98.3751,20.2089],[-98.3671,20.2083],[-98.3645,20.209],[-98.3706,20.2118],[-98.3936,20.2201],[-98.3981,20.225],[-98.4114,20.2832],[-98.3942,20.3004],[-98.3936,20.3061],[-98.3966,20.3125],[-98.3964,20.3138],[-98.3959,20.3149],[-98.3949,20.315],[-98.3954,20.3158],[-98.4078,20.3216],[-98.4271,20.3266],[-98.4585,20.3337]]]},"properties":{"CVE_ENT":"13","CVE_MUN":"001","CVEGEO":"13001","NOMGEO":"Acatlán"}},
{"type":"Feature","geometry":{"type":"Polygon","coordinates":[[[-98.147,20.2206],[-98.1477,20.2264],[-98.1759,20.2542],[-98.192,20.2581],[-98.2083,20.2394],[-98.23,20.2361],[-98.2361,20.2235],[-98.2597,20.2153],[-98.2669,20.2082],[-98.2758,20.2054],[-98.2903,20.1781],[-98.2722,20.1678],[-98.2467,20.131],[-98.2475,20.1106],[-98.2647,20.095],[-98.2763,20.087],[-98.2635,20.0732],[-98.2511,20.0844],[-98.2184,20.0798],[-98.1999,20.084],[-98.1804,20.0769],[-98.1577,20.0842],[-98.1592,20.0931],[-98.1283,20.1072],[-98.1219,20.1246],[-98.1085,20.1208],[-98.1051,20.1423],[-98.1397,20.1503],[-98.1297,20.1617],[-98.1298,20.1766],[-98.1276,20.1824],[-98.15,20.2058],[-98.147,20.2206]]]},"properties":{"CVE_ENT":"13","CVE_MUN":"002","CVEGEO":"13002","NOMGEO":"Acaxochitlán"}},
{"type":"Feature","geometry":{"type":"Polygon","coordinates":[[[-98.9425,21.3027],[-98.945,21.3113],[-98.9779,21.2964],[-99.0128,21.2954],[-99.0431,21.2796],[-99.0551,21.2825],[-99.0512,21.2534],[-99.0699,21.2431],[-99.0735,21.2304],[-99.0524,21.2195],[-99.0431,21.1787],[-99.0548,21.1594],[-99.0391,21.1515],[-99.0306,21.1646],[-99.0045,21.1695],[-99.001,21.1798],[-98.9554,21.1775],[-98.9344,21.1913],[-98.9229,21.2065],[-98.9036,21.2127],[-98.9148,21.2273],[-98.921,21.2624],[-98.9326,21.2983],[-98.9425,21.3027]]]},"properties":{"CVE_ENT":"13","CVE_MUN":"049","CVEGEO":"13049","NOMGEO":"Pisaflores"}},
{"type":"Feature","geometry":{"type":"Polygon","coordinates":[[[-98.8157,20.3895],[-98.8266,20.414],[-98.8434,20.4066],[-98.8705,20.4195],[-98.8817,20.4198],[-98.9046,20.4359],[-98.913,20.4266],[-98.9031,20.4022],[-98.9065,20.3865],[-98.9181,20.3734],[-98.9057,20.3487],[-98.9072,20.3374],[-98.9293,20.3377],[-98.9435,20.3498],[-98.9587,20.3524],[-98.9506,20.3141],[-98.9888,20.3002],[-98.9762,20.2908],[-98.993,20.2681],[-98.9838,20.2429],[-98.9794,20.1989],[-98.9909,20.1889],[-98.9685,20.1878],[-98.9467,20.1822],[-98.9411,20.1914],[-98.9465,20.2073],[-98.9397,20.2169],[-98.9381,20.2531],[-98.8776,20.2941],[-98.8691,20.2843],[-98.8649,20.2597],[-98.8518,20.2476],[-98.8147,20.2477],[-98.8203,20.2681],[-98.7979,20.2922],[-98.7857,20.3097],[-98.8116,20.3111],[-98.8202,20.3184],[-98.8036,20.3435],[-98.7992,20.3622],[-98.8157,20.3895]]]},"properties":{"CVE_ENT":"13","CVE_MUN":"003","CVEGEO":"13003","NOMGEO":"Actopan"}},
{"type":"Feature","geometry":{"type":"Polygon","coordinates":[[[-99.1767,20.7088],[-99.2174,20.6982],[-99.235,20.7056],[-99.2745,20.6991],[-99.2731,20.6743],[-99.2817,20.6592],[-99.2768,20.64],[-99.2561,20.6063],[-99.2725,20.5846],[-99.2692,20.5727],[-99.2818,20.5406],[-99.248,20.5205],[-99.2811,20.512],[-99.2927,20.4825],[-99.2844,20.4686],[-99.288,20.4531],[-99.2988,20.4471],[-99.2897,20.4065],[-99.2679,20.4144],[-99.2238,20.413],[-99.2034,20.4071],[-99.1636,20.4105],[-99.1296,20.4071],[-99.1152,20.3951],[-99.1157,20.3761],[-99.104,20.3688],[-99.0865,20.3825],[-99.0915,20.3968],[-99.0919,20.4346],[-99.0937,20.4528],[-99.1248,20.4595],[-99.1232,20.4784],[-99.0989,20.519],[-99.1112,20.535],[-99.1264,20.5311],[-99.1413,20.5498],[-99.1457,20.5649],[-99.1507,20.6095],[-99.1641,20.641],[-99.1796,20.6594],[-99.1699,20.6749],[-99.1767,20.7088]]]},"properties":{"CVE_ENT":"13","CVE_MUN":"030","CVEGEO":"13030","NOMGEO":"Ixmiquilpan"}},
{"type":"Feature","geometry":{"type":"Polygon","coordinates":[[[-99.0403,20.1888],[-99.0268,20.2313],[-99.0129,20.2423],[-99.0134,20.2644],[-99.0614,20.2505],[-99.0666,20.2756],[-99.0949,20.2893],[-99.1119,20.2913],[-99.1251,20.2775],[-99.1224,20.2391],[-99.1372,20.2297],[-99.1318,20.2173],[-99.1128,20.199],[-99.1398,20.1953],[-99.1093,20.1863],[-99.1026,20.1922],[-99.0543,20.1937],[-99.0403,20.1888]]]},"properties":{"CVE_ENT":"13","CVE_MUN":"023","CVEGEO":"13023","NOMGEO":"Francisco I. Madero"}},
{"type":"Feature","geometry":{"type":"Polygon","coordinates":[[[-98.3341,20.3289],[-98.3274,20.3473],[-98.3094,20.3697],[-98.2973,20.4059],[-98.3173,20.4288],[-98.321,20.418],[-98.3372,20.4141],[-98.3553,20.4018],[-98.3862,20.4027],[-98.4183,20.38],[-98.4585,20.3337],[-98.4271,20.3266],[-98.4078,20.3216],[-98.3954,20.3158],[-98.3946,20.3161],[-98.3936,20.3176],[-98.3907,20.3166],[-98.3866,20.3192],[-98.3843,20.3137],[-98.3652,20.3058],[-98.3438,20.3107],[-98.3341,20.3289]]]},"properties":{"CVE_ENT":"13","CVE_MUN":"004","CVEGEO":"13004","NOMGEO":"Agua Blanca de Iturbide"}},
{"type":"Feature","geometry":{"type":"Polygon","coordinates":[[[-97.985,20.517],[-98.0042,20.5249],[-98.0287,20.5897],[-98.0177,20.6017],[-98.021,20.6268],[-98.04,20.6319],[-98.0668,20.6739],[-98.0828,20.6421],[-98.0875,20.6225],[-98.1005,20.614],[-98.0895,20.5908],[-98.094,20.5747],[-98.0723,20.5688],[-98.0691,20.5379],[-98.0564,20.5281],[-98.0443,20.5089],[-98.0851,20.4923],[-98.0962,20.4776],[-98.116,20.4665],[-98.1125,20.4422],[-98.1509,20.4207],[-98.1548,20.4115],[-98.1753,20.4104],[-98.1592,20.3877],[-98.1263,20.3987],[-98.1222,20.4059],[-98.0939,20.3866],[-98.0632,20.436],[-98.0256,20.4486],[-98.0128,20.4667],[-98.0086,20.4829],[-97.9888,20.4954],[-97.985,20.517]]]},"properties":{"CVE_ENT":"13","CVE_MUN":"027","CVEGEO":"13027","NOMGEO":"Huehuetla"}},
{"type":"Feature","geometry":{"type":"Polygon","coordinates":[[[-98.587,19.9922],[-98.6202,20.0186],[-98.5799,20.0676],[-98.6033,20.0866],[-98.5839,20.122],[-98.6019,20.1179],[-98.6051,20.1175],[-98.6145,20.1084],[-98.6172,20.09],[-98.6559,20.101],[-98.6631,20.1096],[-98.6641,20.0733],[-98.6992,20.0486],[-98.6755,20.0262],[-98.6797,20.0126],[-98.7071,20.0239],[-98.7221,20.0202],[-98.7272,20.0085],[-98.7164,20.0068],[-98.7132,19.9989],[-98.7263,20.0047],[-98.7184,19.9927],[-98.7194,19.9866],[-98.7056,19.9828],[-98.7024,19.9898],[-98.6829,19.9903],[-98.6629,19.9817],[-98.6574,19.9545],[-98.6417,19.9537],[-98.6297,19.9662],[-98.6089,19.9716],[-98.5971,19.9869],[-98.587,19.9922]]]},"properties":{"CVE_ENT":"13","CVE_MUN":"022","CVEGEO":"13022","NOMGEO":"Epazoyucan"}},
{"type":"Feature","geometry":{"type":"Polygon","coordinates":[[[-98.7791,20.7993],[-98.8029,20.7825],[-98.8271,20.771],[-98.8455,20.769],[-98.8524,20.7856],[-98.8782,20.7889],[-98.8719,20.803],[-98.8752,20.8252],[-98.898,20.841],[-98.9109,20.8305],[-98.9301,20.7953],[-98.9419,20.786],[-98.93,20.7753],[-98.935,20.7631],[-98.9678,20.7569],[-98.9858,20.7356],[-98.9558,20.691],[-98.9651,20.6769],[-98.9452,20.6427],[-98.9318,20.6529],[-98.9031,20.665],[-98.8911,20.6869],[-98.8894,20.7157],[-98.8657,20.7056],[-98.8583,20.7167],[-98.8444,20.7126],[-98.8377,20.6921],[-98.8264,20.6818],[-98.8167,20.6942],[-98.828,20.7176],[-98.7811,20.7246],[-98.7531,20.7408],[-98.7556,20.7668],[-98.7791,20.7993]]]},"properties":{"CVE_ENT":"13","CVE_MUN":"020","CVEGEO":"13020","NOMGEO":"Eloxochitlán"}},
{"type":"Feature","geometry":{"type":"Polygon","coordinates":[[[-99.1784,20.0964],[-99.1905,20.1084],[-99.1751,20.1156],[-99.1661,20.1306],[-99.1884,20.1227],[-99.2226,20.1166],[-99.227,20.1086],[-99.2752,20.1038],[-99.2913,20.0936],[-99.2607,20.0644],[-99.2451,20.0685],[-99.2405,20.0789],[-99.2192,20.0796],[-99.2032,20.0929],[-99.1784,20.0964]]]},"properties":{"CVE_ENT":"13","CVE_MUN":"074","CVEGEO":"13074","NOMGEO":"Tlaxcoapan"}},
{"type":"Feature","geometry":{"type":"Polygon","coordinates":[[[-99.19,20.1542],[-99.1966,20.1557],[-99.2086,20.1605],[-99.209,20.1605],[-99.2113,20.1602],[-99.2116,20.1593],[-99.2135,20.1558],[-99.2328,20.1554],[-99.2416,20.1429],[-99.2421,20.1277],[-99.2752,20.1038],[-99.227,20.1086],[-99.2226,20.1166],[-99.1884,20.1227],[-99.1661,20.1306],[-99.1931,20.1476],[-99.19,20.1542]]]},"properties":{"CVE_ENT":"13","CVE_MUN":"070","CVEGEO":"13070","NOMGEO":"Tlahuelilpan"}},
{"type":"Feature","geometry":{"type":"Polygon","coordinates":[[[-98.8245,21.1612],[-98.8509,21.1759],[-98.8638,21.1884],[-98.8829,21.1926],[-98.9036,21.2127],[-98.9229,21.2065],[-98.9344,21.1913],[-98.9554,21.1775],[-99.001,21.1798],[-99.0045,21.1695],[-99.0306,21.1646],[-99.0391,21.1515],[-99.0272,21.1307],[-99.0412,21.114],[-99.0349,21.0876],[-99.0443,21.0783],[-99.0227,21.0674],[-99.0179,21.0571],[-98.9854,21.0399],[-98.9615,21.045],[-98.9453,21.0496],[-98.9438,21.0655],[-98.9291,21.0787],[-98.9179,21.0985],[-98.9011,21.0952],[-98.8694,21.1232],[-98.8671,21.1371],[-98.8406,21.1345],[-98.844,21.1549],[-98.8245,21.1612]]]},"properties":{"CVE_ENT":"13","CVE_MUN":"018","CVEGEO":"13018","NOMGEO":"Chapulhuacán"}},
{"type":"Feature","geometry":{"type":"Polygon","coordinates":[[[-99.51,20.4742],[-99.5344,20.461],[-99.5493,20.4766],[-99.5408,20.512],[-99.5754,20.5006],[-99.5944,20.5035],[-99.6058,20.4766],[-99.6172,20.4782],[-99.6187,20.4536],[-99.63,20.4506],[-99.6452,20.4711],[-99.6807,20.4817],[-99.6869,20.4742],[-99.7292,20.4603],[-99.7549,20.4226],[-99.766,20.4243],[-99.777,20.4412],[-99.7766,20.4557],[-99.8039,20.4604],[-99.8113,20.4738],[-99.8294,20.4778],[-99.8333,20.4792],[-99.834,20.48],[-99.8351,20.481],[-99.8354,20.4778],[-99.8384,20.4514],[-99.8442,20.4007],[-99.8591,20.2685],[-99.8315,20.2972],[-99.8242,20.2915],[-99.7847,20.2882],[-99.7571,20.2894],[-99.7421,20.284],[-99.7293,20.2993],[-99.7151,20.2945],[-99.6979,20.3032],[-99.6766,20.3],[-99.6528,20.282],[-99.6363,20.2807],[-99.6089,20.2946],[-99.6057,20.3076],[-99.587,20.32],[-99.5772,20.3094],[-99.5767,20.2943],[-99.5568,20.2947],[-99.5412,20.3058],[-99.5308,20.3259],[-99.5422,20.3295],[-99.5332,20.3537],[-99.5335,20.3735],[-99.5211,20.3784],[-99.514,20.4063],[-99.5182,20.4242],[-99.4978,20.4256],[-99.4985,20.4375],[-99.5157,20.4577],[-99.51,20.4742]]]},"properties":{"CVE_ENT":"13","CVE_MUN":"029","CVEGEO":"13029","NOMGEO":"Huichapan"}},
{"type":"Feature","geometry":{"type":"Polygon","coordinates":[[[-98.958,21.0319],[-98.9722,21.0209],[-98.973,21.0039],[-98.991,20.9918],[-99.0216,20.9926],[-99.0364,20.9615],[-99.0575,20.9592],[-99.054,20.9418],[-99.069,20.9028],[-99.0527,20.8734],[-99.0332,20.8697],[-99.0328,20.8602],[-99.0173,20.8281],[-99.0262,20.8193],[-99.0395,20.8259],[-99.066,20.827],[-99.0922,20.8051],[-99.1037,20.7832],[-99.0855,20.7824],[-99.0805,20.7687],[-99.06,20.7658],[-99.0371,20.7744],[-99.0133,20.7628],[-99.0047,20.7389],[-99.0158,20.7294],[-99.0218,20.7113],[-99.0169,20.6957],[-99.0042,20.6809],[-99.0098,20.6646],[-99.0023,20.6527],[-98.9563,20.6357],[-98.9452,20.6427],[-98.9651,20.6769],[-98.9558,20.691],[-98.9858,20.7356],[-98.9678,20.7569],[-98.935,20.7631],[-98.93,20.7753],[-98.9419,20.786],[-98.9301,20.7953],[-98.9109,20.8305],[-98.898,20.841],[-98.8866,20.8583],[-98.8791,20.8863],[-98.8626,20.9024],[-98.8577,20.9246],[-98.8452,20.934],[-98.86,20.9721],[-98.8642,20.9884],[-98.8785,20.9951],[-98.9152,20.9928],[-98.9279,20.9852],[-98.947,21.028],[-98.958,21.0319]]]},"properties":{"CVE_ENT":"13","CVE_MUN":"071","CVEGEO":"13071","NOMGEO":"Tlahuiltepa"}},
{"type":"Feature","geometry":{"type":"Polygon","coordinates":[[[-99.4695,20.1643],[-99.4867,20.17],[-99.5053,20.1605],[-99.5187,20.1483],[-99.4871,20.1052],[-99.481,20.0822],[-99.4598,20.0655],[-99.4484,20.0422],[-99.4407,20.0134],[-99.4178,20.0134],[-99.4022,20.0039],[-99.3775,20.0049],[-99.3632,19.9962],[-99.3641,19.9732],[-99.3424,19.9443],[-99.3284,19.9652],[-99.3207,19.9617],[-99.3061,19.9377],[-99.293,19.9402],[-99.311,19.9578],[-99.3045,19.9714],[-99.2764,19.9754],[-99.2709,20.004],[-99.2608,20.0273],[-99.2873,20.0396],[-99.2902,20.0595],[-99.2607,20.0644],[-99.313,20.1142],[-99.3365,20.1466],[-99.3409,20.1435],[-99.3478,20.133],[-99.3689,20.1259],[-99.3891,20.1275],[-99.4128,20.1388],[-99.4271,20.1397],[-99.4437,20.1631],[-99.4695,20.1643]]]},"properties":{"CVE_ENT":"13","CVE_MUN":"076","CVEGEO":"13076","NOMGEO":"Tula de Allende"}},
{"type":"Feature","geometry":{"type":"Polygon","coordinates":[[[-98.4674,21.3786],[-98.4798,21.3966],[-98.5043,21.3894],[-98.5158,21.3723],[-98.5508,21.384],[-98.5682,21.3717],[-98.5875,21.3724],[-98.6033,21.3579],[-98.644,21.3665],[-98.6528,21.3468],[-98.6742,21.3489],[-98.6836,21.3419],[-98.671,21.325],[-98.6476,21.3123],[-98.6336,21.3134],[-98.5991,21.2921],[-98.6077,21.2565],[-98.6013,21.2321],[-98.6091,21.201],[-98.6396,21.1831],[-98.6579,21.1855],[-98.6772,21.1995],[-98.6946,21.1783],[-98.6911,21.1675],[-98.6787,21.1678],[-98.6602,21.1571],[-98.6574,21.1229],[-98.6453,21.1065],[-98.6171,21.0938],[-98.6146,21.122],[-98.6018,21.1283],[-98.5818,21.125],[-98.581,21.1375],[-98.5614,21.1545],[-98.5267,21.197],[-98.5419,21.2074],[-98.5399,21.2316],[-98.5165,21.2443],[-98.5412,21.2695],[-98.4978,21.3279],[-98.4852,21.3501],[-98.4656,21.3471],[-98.4674,21.3786]]]},"properties":{"CVE_ENT":"13","CVE_MUN":"046","CVEGEO":"13046","NOMGEO":"San Felipe Orizatlán"}},
{"type":"Feature","geometry":{"type":"Polygon","coordinates":[[[-99.1784,20.0964],[-99.1512,20.0638],[-99.1402,20.0705],[-99.1257,20.1236],[-99.104,20.1414],[-99.1175,20.1433],[-99.152,20.1479],[-99.1628,20.1494],[-99.1673,20.15],[-99.1686,20.1502],[-99.1706,20.1504],[-99.173,20.1508],[-99.1752,20.1511],[-99.1754,20.1511],[-99.1766,20.1513],[-99.1798,20.1508],[-99.1854,20.1552],[-99.1896,20.1552],[-99.19,20.1542],[-99.1931,20.1476],[-99.1661,20.1306],[-99.1751,20.1156],[-99.1905,20.1084],[-99.1784,20.0964]]]},"properties":{"CVE_ENT":"13","CVE_MUN":"065","CVEGEO":"13065","NOMGEO":"Tetepango"}},
{"type":"Feature","geometry":{"type":"Polygon","coordinates":[[[-98.3816,19.9023],[-98.3862,19.9125],[-98.4222,19.9163],[-98.4422,19.878],[-98.456,19.8696],[-98.4863,19.8747],[-98.5004,19.8686],[-98.515,19.8443],[-98.5537,19.8541],[-98.5602,19.8363],[-98.5754,19.8241],[-98.5883,19.8231],[-98.5785,19.7885],[-98.5969,19.7658],[-98.6081,19.7251],[-98.6021,19.7157],[-98.5841,19.7235],[-98.5693,19.721],[-98.5606,19.6924],[-98.5516,19.7022],[-98.5524,19.7208],[-98.5351,19.7135],[-98.538,19.7485],[-98.5278,19.7568],[-98.5004,19.7619],[-98.4948,19.7711],[-98.4541,19.7997],[-98.4265,19.8073],[-98.385,19.8376],[-98.3852,19.8517],[-98.3789,19.8922],[-98.3816,19.9023]]]},"properties":{"CVE_ENT":"13","CVE_MUN":"061","CVEGEO":"13061","NOMGEO":"Tepeapulco"}},
{"type":"Feature","geometry":{"type":"Polygon","coordinates":[[[-99.2436,21.1039],[-99.2572,21.1049],[-99.2823,21.1221],[-99.2826,21.1306],[-99.3086,21.1473],[-99.336,21.1301],[-99.3459,21.1012],[-99.3899,21.1024],[-99.3995,21.0941],[-99.3896,21.0718],[-99.3727,21.0734],[-99.3719,21.0558],[-99.3639,21.0485],[-99.3681,21.0256],[-99.384,21.0097],[-99.3963,20.981],[-99.3885,20.9666],[-99.3904,20.9536],[-99.4075,20.9366],[-99.4044,20.9291],[-99.3914,20.9115],[-99.3824,20.89],[-99.3725,20.8812],[-99.3511,20.8978],[-99.3338,20.8898],[-99.3366,20.871],[-99.3215,20.8693],[-99.3117,20.8585],[-99.3007,20.881],[-99.2835,20.8848],[-99.2551,20.8995],[-99.2454,20.9118],[-99.2279,20.948],[-99.2435,20.9786],[-99.2567,20.9895],[-99.2359,21.0039],[-99.2226,21.0323],[-99.2388,21.0314],[-99.2655,21.0464],[-99.2661,21.0604],[-99.2498,21.0714],[-99.2436,21.1039]]]},"properties":{"CVE_ENT":"13","CVE_MUN":"047","CVEGEO":"13047","NOMGEO":"Pacula"}},
{"type":"Feature","geometry":{"type":"Polygon","coordinates":[[[-98.2373,20.931],[-98.2543,20.9349],[-98.2754,20.9302],[-98.3125,20.946],[-98.3145,20.9355],[-98.3025,20.9145],[-98.3077,20.8942],[-98.3451,20.8649],[-98.3529,20.836],[-98.3272,20.828],[-98.3148,20.8098],[-98.3435,20.7979],[-98.326,20.7842],[-98.3078,20.801],[-98.292,20.7855],[-98.248,20.7894],[-98.2363,20.7968],[-98.2269,20.8162],[-98.2538,20.8228],[-98.2623,20.8469],[-98.2608,20.8715],[-98.251,20.8973],[-98.2249,20.9066],[-98.2394,20.923],[-98.2373,20.931]]]},"properties":{"CVE_ENT":"13","CVE_MUN":"078","CVEGEO":"13078","NOMGEO":"Xochiatipan"}},
{"type":"Feature","geometry":{"type":"Polygon","coordinates":[[[-99.293,19.9402],[-99.3061,19.9377],[-99.3207,19.9617],[-99.3284,19.9652],[-99.3424,19.9443],[-99.3641,19.9732],[-99.3632,19.9962],[-99.3775,20.0049],[-99.4022,20.0039],[-99.4178,20.0134],[-99.4407,20.0134],[-99.4368,19.9998],[-99.4445,19.9851],[-99.4736,19.9544],[-99.484,19.9052],[-99.4327,19.8753],[-99.4301,19.8709],[-99.415,19.8505],[-99.3918,19.8599],[-99.3732,19.8515],[-99.3823,19.828],[-99.3878,19.7773],[-99.3858,19.7771],[-99.383,19.7714],[-99.3739,19.7759],[-99.3706,19.7818],[-99.3674,19.7801],[-99.3571,19.7812],[-99.3503,19.7774],[-99.346,19.7794],[-99.3446,19.7795],[-99.3445,19.7799],[-99.3435,19.7805],[-99.3355,19.7977],[-99.3216,19.7957],[-99.2969,19.8352],[-99.2787,19.8404],[-99.271,19.8586],[-99.248,19.8598],[-99.2359,19.8735],[-99.2396,19.888],[-99.2528,19.8882],[-99.2716,19.9105],[-99.2732,19.9212],[-99.2512,19.9327],[-99.2593,19.9607],[-99.2699,19.965],[-99.293,19.9402]]]},"properties":{"CVE_ENT":"13","CVE_MUN":"063","CVEGEO":"13063","NOMGEO":"Tepeji del Río de Ocampo"}},
{"type":"Feature","geometry":{"type":"Polygon","coordinates":[[[-99.3395,20.3071],[-99.3491,20.3211],[-99.3457,20.3324],[-99.3612,20.3392],[-99.3972,20.3196],[-99.4107,20.3257],[-99.4399,20.3264],[-99.4967,20.3346],[-99.5089,20.3249],[-99.5308,20.3259],[-99.5412,20.3058],[-99.5568,20.2947],[-99.5494,20.2754],[-99.576,20.2799],[-99.5873,20.2703],[-99.5777,20.2552],[-99.5921,20.2365],[-99.5616,20.2391],[-99.5645,20.211],[-99.5317,20.1864],[-99.5195,20.1903],[-99.5122,20.1751],[-99.5053,20.1605],[-99.4867,20.17],[-99.4695,20.1643],[-99.4667,20.1772],[-99.4482,20.1913],[-99.4541,20.2207],[-99.4422,20.2349],[-99.4514,20.2489],[-99.437,20.2547],[-99.4075,20.2758],[-99.3904,20.255],[-99.3723,20.2588],[-99.3401,20.254],[-99.3367,20.2528],[-99.3369,20.27],[-99.349,20.2882],[-99.3395,20.3071]]]},"properties":{"CVE_ENT":"13","CVE_MUN":"017","CVEGEO":"13017","NOMGEO":"Chapantongo"}},
{"type":"Feature","geometry":{"type":"Polygon","coordinates":[[[-98.7739,20.024],[-98.7968,20.0352],[-98.801,20.0277],[-98.8224,20.0387],[-98.8303,20.0293],[-98.8106,20.0218],[-98.79,19.9864],[-98.8009,19.9724],[-98.77,19.9437],[-98.7468,19.9267],[-98.7527,19.911],[-98.7547,19.8768],[-98.7388,19.8672],[-98.7345,19.8672],[-98.731,19.8652],[-98.7293,19.865],[-98.7277,19.864],[-98.7185,19.8623],[-98.7128,19.8538],[-98.6991,19.8584],[-98.6872,19.8505],[-98.6976,19.8321],[-98.6772,19.8132],[-98.6748,19.8324],[-98.6652,19.8354],[-98.6553,19.836],[-98.627,19.8525],[-98.6127,19.8483],[-98.5749,19.8647],[-98.5733,19.8915],[-98.5553,19.889],[-98.5512,19.889],[-98.5491,19.8904],[-98.5404,19.8873],[-98.5349,19.8914],[-98.5347,19.8933],[-98.5345,19.8948],[-98.5336,19.9013],[-98.5281,19.9085],[-98.5455,19.9329],[-98.5697,19.9344],[-98.572,19.9512],[-98.5944,19.9563],[-98.5873,19.9649],[-98.5844,19.9822],[-98.5971,19.9869],[-98.6089,19.9716],[-98.6297,19.9662],[-98.6417,19.9537],[-98.6574,19.9545],[-98.6629,19.9817],[-98.6829,19.9903],[-98.7024,19.9898],[-98.7056,19.9828],[-98.7194,19.9866],[-98.7189,19.9909],[-98.7308,19.9801],[-98.7716,19.9854],[-98.7581,20.0147],[-98.7739,20.024]]]},"properties":{"CVE_ENT":"13","CVE_MUN":"083","CVEGEO":"13083","NOMGEO":"Zempoala"}},
{"type":"Feature","geometry":{"type":"Polygon","coordinates":[[[-98.5373,19.8876],[-98.5404,19.8873],[-98.5491,19.8904],[-98.5553,19.889],[-98.5733,19.8915],[-98.5749,19.8647],[-98.6127,19.8483],[-98.627,19.8525],[-98.6539,19.8504],[-98.6553,19.836],[-98.6607,19.8349],[-98.6398,19.8109],[-98.6388,19.8008],[-98.6175,19.7881],[-98.6117,19.7741],[-98.5969,19.7658],[-98.5785,19.7885],[-98.5883,19.8231],[-98.5754,19.8241],[-98.5602,19.8363],[-98.5537,19.8541],[-98.515,19.8443],[-98.5004,19.8686],[-98.5222,19.8715],[-98.5373,19.8876]]]},"properties":{"CVE_ENT":"13","CVE_MUN":"072","CVEGEO":"13072","NOMGEO":"Tlanalapa"}},
{"type":"Feature","geometry":{"type":"Polygon","coordinates":[[[-99.2113,20.1602],[-99.2298,20.1676],[-99.2239,20.197],[-99.2486,20.2024],[-99.24,20.2357],[-99.2573,20.2271],[-99.2796,20.2365],[-99.2999,20.2356],[-99.308,20.2402],[-99.3063,20.2436],[-99.3048,20.2456],[-99.3036,20.2466],[-99.3028,20.2475],[-99.3018,20.2489],[-99.3119,20.2501],[-99.3148,20.2482],[-99.3365,20.252],[-99.358,20.2365],[-99.3615,20.1998],[-99.3421,20.1863],[-99.3506,20.1704],[-99.313,20.1142],[-99.2913,20.0936],[-99.2752,20.1038],[-99.2421,20.1277],[-99.2416,20.1429],[-99.2328,20.1554],[-99.2135,20.1558],[-99.2116,20.1593],[-99.2113,20.1602]]]},"properties":{"CVE_ENT":"13","CVE_MUN":"067","CVEGEO":"13067","NOMGEO":"Tezontepec de Aldama"}},
{"type":"Feature","geometry":{"type":"Polygon","coordinates":[[[-98.416,21.0438],[-98.4509,21.0442],[-98.4694,21.0397],[-98.4807,21.0554],[-98.5071,21.0509],[-98.5172,21.0334],[-98.5311,21.0253],[-98.5327,20.9914],[-98.5501,20.9731],[-98.5352,20.9484],[-98.5397,20.9329],[-98.5267,20.9304],[-98.497,20.9364],[-98.4813,20.9658],[-98.4684,20.9606],[-98.4501,20.9659],[-98.4432,20.9782],[-98.4361,21.0212],[-98.4216,21.0281],[-98.416,21.0438]]]},"properties":{"CVE_ENT":"13","CVE_MUN":"026","CVEGEO":"13026","NOMGEO":"Huazalingo"}},
{"type":"Feature","geometry":{"type":"Polygon","coordinates":[[[-98.7687,21.1744],[-98.803,21.1932],[-98.7888,21.1664],[-98.8245,21.1612],[-98.844,21.1549],[-98.8406,21.1345],[-98.8671,21.1371],[-98.8694,21.1232],[-98.9011,21.0952],[-98.9179,21.0985],[-98.9291,21.0787],[-98.9438,21.0655],[-98.9453,21.0496],[-98.9615,21.045],[-98.958,21.0319],[-98.947,21.028],[-98.9279,20.9852],[-98.9152,20.9928],[-98.8785,20.9951],[-98.8642,20.9884],[-98.86,20.9721],[-98.8215,20.9662],[-98.8178,20.9736],[-98.7922,20.9676],[-98.7654,20.9682],[-98.7662,20.9456],[-98.7504,20.956],[-98.7543,20.9916],[-98.7425,20.9979],[-98.7587,21.0354],[-98.7551,21.0517],[-98.7796,21.0673],[-98.7756,21.0907],[-98.7531,21.1055],[-98.7406,21.132],[-98.744,21.1551],[-98.7687,21.1744]]]},"properties":{"CVE_ENT":"13","CVE_MUN":"062","CVEGEO":"13062","NOMGEO":"Tepehuacán de Guerrero"}},
{"type":"Feature","geometry":{"type":"Polygon","coordinates":[[[-99.5568,20.2947],[-99.5767,20.2943],[-99.5772,20.3094],[-99.587,20.32],[-99.6057,20.3076],[-99.6089,20.2946],[-99.6363,20.2807],[-99.6528,20.282],[-99.6766,20.3],[-99.6979,20.3032],[-99.7151,20.2945],[-99.7293,20.2993],[-99.7421,20.284],[-99.7571,20.2894],[-99.7847,20.2882],[-99.8242,20.2915],[-99.8315,20.2972],[-99.8591,20.2685],[-99.8419,20.2819],[-99.7904,20.238],[-99.7884,20.2231],[-99.7513,20.1889],[-99.7292,20.172],[-99.7107,20.1662],[-99.699,20.1724],[-99.6741,20.1675],[-99.6597,20.1808],[-99.6551,20.1631],[-99.641,20.1642],[-99.6294,20.1459],[-99.5996,20.1697],[-99.5726,20.1643],[-99.5512,20.1705],[-99.5287,20.1636],[-99.5122,20.1751],[-99.5195,20.1903],[-99.5317,20.1864],[-99.5645,20.211],[-99.5616,20.2391],[-99.5921,20.2365],[-99.5777,20.2552],[-99.5873,20.2703],[-99.576,20.2799],[-99.5494,20.2754],[-99.5568,20.2947]]]},"properties":{"CVE_ENT":"13","CVE_MUN":"044","CVEGEO":"13044","NOMGEO":"Nopala de Villagrán"}},
{"type":"Feature","geometry":{"type":"Polygon","coordinates":[[[-98.2647,20.095],[-98.2785,20.0894],[-98.3236,20.0954],[-98.331,20.0741],[-98.3436,20.0624],[-98.3555,20.0647],[-98.35,20.0464],[-98.3357,20.0345],[-98.3509,20.021],[-98.3597,19.9884],[-98.3718,19.9785],[-98.3653,19.9563],[-98.3787,19.9196],[-98.3816,19.9023],[-98.3789,19.8922],[-98.3852,19.8517],[-98.3634,19.8623],[-98.3403,19.8574],[-98.3227,19.8455],[-98.3145,19.8545],[-98.2866,19.8873],[-98.2694,19.8957],[-98.2678,19.9161],[-98.2563,19.915],[-98.251,19.9349],[-98.2302,19.9494],[-98.2191,19.9672],[-98.1978,19.9598],[-98.1807,19.9598],[-98.167,19.9718],[-98.1604,19.9781],[-98.1742,19.9974],[-98.164,20.0225],[-98.1736,20.0338],[-98.1809,20.047],[-98.1681,20.0573],[-98.1577,20.0842],[-98.1804,20.0769],[-98.1999,20.084],[-98.2184,20.0798],[-98.2511,20.0844],[-98.2635,20.0732],[-98.2763,20.087],[-98.2647,20.095]]]},"properties":{"CVE_ENT":"13","CVE_MUN":"016","CVEGEO":"13016","NOMGEO":"Cuautepec de Hinojosa"}},
{"type":"Feature","geometry":{"type":"Polygon","coordinates":[[[-98.9452,20.6427],[-98.9563,20.6357],[-99.0023,20.6527],[-99.0098,20.6646],[-99.0042,20.6809],[-99.0169,20.6957],[-99.0218,20.7113],[-99.0158,20.7294],[-99.0047,20.7389],[-99.0133,20.7628],[-99.0371,20.7744],[-99.06,20.7658],[-99.0805,20.7687],[-99.0978,20.751],[-99.1193,20.7472],[-99.1243,20.7278],[-99.1472,20.7097],[-99.1767,20.7088],[-99.1699,20.6749],[-99.1796,20.6594],[-99.1641,20.641],[-99.1507,20.6095],[-99.1457,20.5649],[-99.1413,20.5498],[-99.1264,20.5311],[-99.1112,20.535],[-99.0989,20.519],[-99.1232,20.4784],[-99.1248,20.4595],[-99.0937,20.4528],[-99.0919,20.4346],[-99.078,20.4226],[-99.048,20.419],[-99.0277,20.4489],[-99.0143,20.4479],[-98.9963,20.4587],[-98.9868,20.481],[-98.9682,20.4902],[-98.9721,20.5117],[-98.9491,20.526],[-98.9638,20.5457],[-98.9631,20.573],[-98.944,20.5826],[-98.9527,20.6036],[-98.9284,20.6394],[-98.9318,20.6529],[-98.9452,20.6427]]]},"properties":{"CVE_ENT":"13","CVE_MUN":"015","CVEGEO":"13015","NOMGEO":"Cardonal"}},
{"type":"Feature","geometry":{"type":"Polygon","coordinates":[[[-98.4501,20.9659],[-98.4684,20.9606],[-98.4813,20.9658],[-98.497,20.9364],[-98.5267,20.9304],[-98.5397,20.9329],[-98.5554,20.9395],[-98.5557,20.9517],[-98.5917,20.9567],[-98.6097,20.9547],[-98.6332,20.9433],[-98.6488,20.9203],[-98.6349,20.9089],[-98.6415,20.898],[-98.6692,20.8891],[-98.6627,20.8619],[-98.6532,20.8452],[-98.6424,20.8402],[-98.6234,20.8467],[-98.5775,20.8527],[-98.5779,20.8608],[-98.5336,20.8797],[-98.5055,20.8861],[-98.4873,20.8741],[-98.4567,20.8713],[-98.4383,20.8603],[-98.4329,20.8666],[-98.4454,20.8851],[-98.4402,20.9182],[-98.426,20.9187],[-98.4222,20.9348],[-98.43,20.9616],[-98.4501,20.9659]]]},"properties":{"CVE_ENT":"13","CVE_MUN":"014","CVEGEO":"13014","NOMGEO":"Calnali"}},
{"type":"Feature","geometry":{"type":"Polygon","coordinates":[[[-98.4383,20.8603],[-98.4567,20.8713],[-98.4873,20.8741],[-98.5055,20.8861],[-98.5098,20.8682],[-98.5379,20.8427],[-98.5547,20.845],[-98.5738,20.8329],[-98.5924,20.8285],[-98.5815,20.8],[-98.564,20.7902],[-98.5815,20.7804],[-98.5855,20.763],[-98.6189,20.7517],[-98.6388,20.7572],[-98.6681,20.7515],[-98.6886,20.7308],[-98.6835,20.7164],[-98.6689,20.706],[-98.6484,20.6997],[-98.6402,20.6853],[-98.6193,20.6826],[-98.6002,20.6911],[-98.5881,20.7071],[-98.5748,20.7123],[-98.5515,20.7349],[-98.5394,20.7305],[-98.532,20.7133],[-98.5128,20.7332],[-98.4756,20.7392],[-98.456,20.7556],[-98.4643,20.7719],[-98.4496,20.8061],[-98.4437,20.8343],[-98.4251,20.8496],[-98.4383,20.8603]]]},"properties":{"CVE_ENT":"13","CVE_MUN":"068","CVEGEO":"13068","NOMGEO":"Tianguistengo"}},
{"type":"Feature","geometry":{"type":"Polygon","coordinates":[[[-99.1986,20.8945],[-99.2104,20.9229],[-99.2056,20.9332],[-99.2208,20.9541],[-99.2279,20.948],[-99.2454,20.9118],[-99.2551,20.8995],[-99.2835,20.8848],[-99.3007,20.881],[-99.3117,20.8585],[-99.3215,20.8693],[-99.3366,20.871],[-99.3338,20.8898],[-99.3511,20.8978],[-99.3725,20.8812],[-99.3824,20.89],[-99.3914,20.9115],[-99.4044,20.9291],[-99.415,20.9191],[-99.413,20.905],[-99.4324,20.901],[-99.4486,20.8577],[-99.4559,20.8495],[-99.4826,20.8392],[-99.4852,20.8181],[-99.5028,20.7886],[-99.4965,20.7813],[-99.523,20.7546],[-99.5428,20.7462],[-99.547,20.7277],[-99.5355,20.7114],[-99.5057,20.6849],[-99.5019,20.659],[-99.493,20.6431],[-99.4683,20.6293],[-99.4492,20.6245],[-99.4534,20.6086],[-99.4295,20.6078],[-99.366,20.5789],[-99.3483,20.5755],[-99.3266,20.5783],[-99.3125,20.5726],[-99.2896,20.5944],[-99.2725,20.5846],[-99.2561,20.6063],[-99.2768,20.64],[-99.2817,20.6592],[-99.2731,20.6743],[-99.2745,20.6991],[-99.257,20.7239],[-99.2557,20.7413],[-99.2623,20.7555],[-99.2415,20.7584],[-99.2269,20.7674],[-99.24,20.7898],[-99.2404,20.8043],[-99.2121,20.8139],[-99.2088,20.8356],[-99.2179,20.838],[-99.1978,20.873],[-99.1986,20.8945]]]},"properties":{"CVE_ENT":"13","CVE_MUN":"084","CVEGEO":"13084","NOMGEO":"Zimapán"}},
{"type":"Feature","geometry":{"type":"Polygon","coordinates":[[[-98.4292,20.7164],[-98.4215,20.7393],[-98.4255,20.7489],[-98.4665,20.7103],[-98.4972,20.6999],[-98.5251,20.6818],[-98.5361,20.6634],[-98.5502,20.6894],[-98.5291,20.704],[-98.532,20.7133],[-98.5394,20.7305],[-98.5515,20.7349],[-98.5748,20.7123],[-98.5881,20.7071],[-98.6002,20.6911],[-98.6193,20.6826],[-98.6402,20.6853],[-98.6484,20.6997],[-98.6689,20.706],[-98.7125,20.6923],[-98.7031,20.6811],[-98.6856,20.6795],[-98.6915,20.6621],[-98.7044,20.6629],[-98.7042,20.6442],[-98.689,20.6166],[-98.6805,20.6092],[-98.6885,20.5854],[-98.6812,20.5642],[-98.665,20.5675],[-98.6471,20.5552],[-98.6393,20.5696],[-98.6427,20.5869],[-98.6177,20.5932],[-98.6122,20.5885],[-98.5726,20.599],[-98.5657,20.6125],[-98.5379,20.6273],[-98.5203,20.6261],[-98.5045,20.607],[-98.5059,20.5962],[-98.4963,20.5895],[-98.4785,20.5943],[-98.4952,20.6366],[-98.4948,20.6443],[-98.4674,20.6661],[-98.4604,20.6768],[-98.4599,20.6962],[-98.4292,20.7164]]]},"properties":{"CVE_ENT":"13","CVE_MUN":"081","CVEGEO":"13081","NOMGEO":"Zacualtipán de Ángeles"}},
{"type":"Feature","geometry":{"type":"Polygon","coordinates":[[[-99.0922,20.8051],[-99.1065,20.8218],[-99.1375,20.8298],[-99.1435,20.8487],[-99.1127,20.8727],[-99.1402,20.8884],[-99.1731,20.8983],[-99.1986,20.8945],[-99.1978,20.873],[-99.2179,20.838],[-99.2088,20.8356],[-99.2121,20.8139],[-99.2404,20.8043],[-99.24,20.7898],[-99.2269,20.7674],[-99.2415,20.7584],[-99.2623,20.7555],[-99.2557,20.7413],[-99.257,20.7239],[-99.2745,20.6991],[-99.235,20.7056],[-99.2174,20.6982],[-99.1767,20.7088],[-99.1472,20.7097],[-99.1243,20.7278],[-99.1193,20.7472],[-99.0978,20.751],[-99.0805,20.7687],[-99.0855,20.7824],[-99.1037,20.7832],[-99.0922,20.8051]]]},"properties":{"CVE_ENT":"13","CVE_MUN":"043","CVEGEO":"13043","NOMGEO":"Nicolás Flores"}},
{"type":"Feature","geometry":{"type":"Polygon","coordinates":[[[-98.7547,19.8768],[-98.7527,19.911],[-98.7468,19.9267],[-98.77,19.9437],[-98.8009,19.9724],[-98.843,19.9257],[-98.8713,19.9423],[-98.8762,19.9326],[-98.8733,19.9299],[-98.8641,19.9215],[-98.8548,19.9129],[-98.8706,19.895],[-98.8558,19.9043],[-98.8412,19.8924],[-98.844,19.882],[-98.8148,19.8678],[-98.7952,19.8564],[-98.7939,19.8721],[-98.7806,19.8835],[-98.7547,19.8768]]]},"properties":{"CVE_ENT":"13","CVE_MUN":"066","CVEGEO":"13066","NOMGEO":"Villa de Tezontepec"}},
{"type":"Feature","geometry":{"type":"Polygon","coordinates":[[[-99.1491,20.035],[-99.1737,20.0364],[-99.1927,20.0471],[-99.2004,20.035],[-99.2314,20.0231],[-99.2433,20.0299],[-99.2608,20.0273],[-99.2709,20.004],[-99.2764,19.9754],[-99.3045,19.9714],[-99.311,19.9578],[-99.293,19.9402],[-99.2699,19.965],[-99.2593,19.9607],[-99.2512,19.9327],[-99.2732,19.9212],[-99.2716,19.9105],[-99.2528,19.8882],[-99.2396,19.888],[-99.2359,19.8735],[-99.2183,19.8891],[-99.2239,19.902],[-99.2107,19.9145],[-99.226,19.95],[-99.2154,19.9546],[-99.1969,19.9848],[-99.1772,19.9931],[-99.1614,20.0124],[-99.1586,20.0272],[-99.1425,20.027],[-99.1491,20.035]]]},"properties":{"CVE_ENT":"13","CVE_MUN":"013","CVEGEO":"13013","NOMGEO":"Atotonilco de Tula"}},
{"type":"Feature","geometry":{"type":"Polygon","coordinates":[[[-98.1876,21.1108],[-98.206,21.1268],[-98.2081,21.143],[-98.2273,21.1504],[-98.2491,21.1294],[-98.2647,21.1412],[-98.2822,21.1364],[-98.2929,21.1013],[-98.3167,21.0886],[-98.3027,21.0732],[-98.3101,21.0455],[-98.317,21.0358],[-98.3201,21.0063],[-98.3304,21.0022],[-98.3388,20.9849],[-98.3251,20.9498],[-98.3125,20.946],[-98.2754,20.9302],[-98.2543,20.9349],[-98.2373,20.931],[-98.2257,20.9594],[-98.2098,20.9707],[-98.215,20.9896],[-98.2017,20.9943],[-98.2027,21.0094],[-98.1909,21.0264],[-98.1726,21.0208],[-98.1557,21.0334],[-98.1508,21.0472],[-98.1545,21.0661],[-98.1491,21.083],[-98.1876,21.1108]]]},"properties":{"CVE_ENT":"13","CVE_MUN":"025","CVEGEO":"13025","NOMGEO":"Huautla"}},
{"type":"Feature","geometry":{"type":"Polygon","coordinates":[[[-98.6943,20.141],[-98.7026,20.1571],[-98.7025,20.1757],[-98.7176,20.1819],[-98.7376,20.1815],[-98.7481,20.1635],[-98.7483,20.1443],[-98.773,20.1493],[-98.787,20.1429],[-98.787,20.1424],[-98.787,20.1406],[-98.7877,20.1384],[-98.7887,20.1373],[-98.7884,20.1349],[-98.8012,20.1238],[-98.8092,20.141],[-98.8331,20.1383],[-98.8593,20.1116],[-98.8492,20.1023],[-98.864,20.0798],[-98.8527,20.0681],[-98.8519,20.0598],[-98.8411,20.0515],[-98.8472,20.0494],[-98.8562,20.0521],[-98.8571,20.0466],[-98.8501,20.0346],[-98.837,20.042],[-98.8303,20.0293],[-98.8224,20.0387],[-98.801,20.0277],[-98.7968,20.0352],[-98.7739,20.024],[-98.7762,20.0342],[-98.7601,20.0672],[-98.7224,20.1106],[-98.7157,20.1307],[-98.6943,20.141]]]},"properties":{"CVE_ENT":"13","CVE_MUN":"048","CVEGEO":"13048","NOMGEO":"Pachuca de Soto"}},
{"type":"Feature","geometry":{"type":"Polygon","coordinates":[[[-98.664,20.2454],[-98.6843,20.2666],[-98.7042,20.2386],[-98.7157,20.2409],[-98.6971,20.2676],[-98.7106,20.2797],[-98.7209,20.2786],[-98.7384,20.2965],[-98.7645,20.2841],[-98.7845,20.2844],[-98.7979,20.2922],[-98.8203,20.2681],[-98.8147,20.2477],[-98.8143,20.2326],[-98.8233,20.225],[-98.8248,20.1973],[-98.8332,20.1825],[-98.8301,20.1626],[-98.837,20.1527],[-98.8231,20.1557],[-98.8163,20.1722],[-98.7806,20.1734],[-98.7808,20.1561],[-98.7946,20.147],[-98.7925,20.1452],[-98.787,20.1424],[-98.787,20.1429],[-98.7826,20.1436],[-98.7826,20.1439],[-98.7775,20.1459],[-98.773,20.1493],[-98.7483,20.1443],[-98.7481,20.1635],[-98.7376,20.1815],[-98.7176,20.1819],[-98.7025,20.1757],[-98.6604,20.204],[-98.6724,20.2269],[-98.664,20.2454]]]},"properties":{"CVE_ENT":"13","CVE_MUN":"038","CVEGEO":"13038","NOMGEO":"Mineral del Chico"}},
{"type":"Feature","geometry":{"type":"Polygon","coordinates":[[[-98.9467,20.1822],[-98.9685,20.1878],[-98.9722,20.1603],[-98.9967,20.1601],[-99.0121,20.1369],[-98.9983,20.1255],[-99.0159,20.1],[-99.0027,20.0824],[-99.0067,20.068],[-99.0339,20.077],[-99.0436,20.0681],[-99.0711,20.0728],[-99.0695,20.0494],[-99.0755,20.0374],[-99.0709,20.018],[-99.0638,20.0142],[-99.0676,19.985],[-99.0476,19.9952],[-99.0494,20.0077],[-99.0313,20.0149],[-99.0345,19.9718],[-99.0277,19.9646],[-99.0041,19.965],[-99.0113,19.9821],[-99.0133,20.0109],[-99.006,20.0264],[-99.0056,20.0532],[-98.9926,20.0657],[-98.9611,20.0409],[-98.9531,20.0517],[-98.9352,20.0529],[-98.9304,20.041],[-98.915,20.047],[-98.9042,20.0505],[-98.8903,20.0443],[-98.8752,20.0449],[-98.862,20.0416],[-98.8562,20.0521],[-98.8472,20.0494],[-98.8411,20.0515],[-98.8519,20.0598],[-98.8527,20.0681],[-98.864,20.0798],[-98.8492,20.1023],[-98.8593,20.1116],[-98.8331,20.1383],[-98.8092,20.141],[-98.8012,20.1238],[-98.787,20.1424],[-98.7925,20.1452],[-98.7946,20.147],[-98.7808,20.1561],[-98.7806,20.1734],[-98.8163,20.1722],[-98.8231,20.1557],[-98.837,20.1527],[-98.9269,20.1727],[-98.9467,20.1822]]]},"properties":{"CVE_ENT":"13","CVE_MUN":"052","CVEGEO":"13052","NOMGEO":"San Agustín Tlaxiaca"}},
{"type":"Feature","geometry":{"type":"Polygon","coordinates":[[[-98.7254,20.7227],[-98.7531,20.7408],[-98.7811,20.7246],[-98.828,20.7176],[-98.8167,20.6942],[-98.8264,20.6818],[-98.8377,20.6921],[-98.8444,20.7126],[-98.8583,20.7167],[-98.8657,20.7056],[-98.8894,20.7157],[-98.8911,20.6869],[-98.9031,20.665],[-98.9318,20.6529],[-98.9284,20.6394],[-98.9527,20.6036],[-98.944,20.5826],[-98.9631,20.573],[-98.9638,20.5457],[-98.9491,20.526],[-98.9484,20.499],[-98.9153,20.4968],[-98.9084,20.4858],[-98.9105,20.4692],[-98.8938,20.4621],[-98.9046,20.4359],[-98.8817,20.4198],[-98.8705,20.4195],[-98.8434,20.4066],[-98.8266,20.414],[-98.8157,20.3895],[-98.8035,20.3937],[-98.7917,20.4107],[-98.7738,20.4109],[-98.7727,20.4366],[-98.728,20.4469],[-98.6763,20.4452],[-98.6623,20.4378],[-98.6583,20.4421],[-98.6763,20.4901],[-98.6898,20.5073],[-98.6882,20.5388],[-98.6812,20.5642],[-98.6885,20.5854],[-98.6805,20.6092],[-98.689,20.6166],[-98.7042,20.6442],[-98.7044,20.6629],[-98.6915,20.6621],[-98.6856,20.6795],[-98.7031,20.6811],[-98.7125,20.6923],[-98.7291,20.6997],[-98.7254,20.7227]]]},"properties":{"CVE_ENT":"13","CVE_MUN":"037","CVEGEO":"13037","NOMGEO":"Metztitlán"}},
{"type":"Feature","geometry":{"type":"Polygon","coordinates":[[[-98.5059,20.5962],[-98.5045,20.607],[-98.5203,20.6261],[-98.5379,20.6273],[-98.5657,20.6125],[-98.5726,20.599],[-98.6122,20.5885],[-98.6177,20.5932],[-98.6427,20.5869],[-98.6393,20.5696],[-98.6471,20.5552],[-98.665,20.5675],[-98.6812,20.5642],[-98.6882,20.5388],[-98.6898,20.5073],[-98.6763,20.4901],[-98.6583,20.4421],[-98.6623,20.4378],[-98.6563,20.4307],[-98.6238,20.4138],[-98.589,20.4404],[-98.5504,20.4325],[-98.5537,20.4464],[-98.5721,20.4639],[-98.5793,20.4787],[-98.595,20.4911],[-98.5841,20.5044],[-98.5581,20.5109],[-98.5347,20.5307],[-98.5245,20.5484],[-98.5211,20.5844],[-98.5059,20.5962]]]},"properties":{"CVE_ENT":"13","CVE_MUN":"036","CVEGEO":"13036","NOMGEO":"San Agustín Metzquititlán"}},
{"type":"Feature","geometry":{"type":"Polygon","coordinates":[[[-98.1005,20.614],[-98.1112,20.6162],[-98.108,20.6121],[-98.1496,20.5628],[-98.1725,20.5301],[-98.2121,20.5285],[-98.2287,20.5208],[-98.2399,20.5014],[-98.2637,20.4914],[-98.2774,20.4727],[-98.3157,20.4457],[-98.3173,20.4288],[-98.2973,20.4059],[-98.3094,20.3697],[-98.3274,20.3473],[-98.3341,20.3289],[-98.3232,20.3293],[-98.311,20.3224],[-98.292,20.3308],[-98.2787,20.3576],[-98.2567,20.3817],[-98.2275,20.3851],[-98.2079,20.3822],[-98.1753,20.4104],[-98.1548,20.4115],[-98.1509,20.4207],[-98.1125,20.4422],[-98.116,20.4665],[-98.0962,20.4776],[-98.0851,20.4923],[-98.0443,20.5089],[-98.0564,20.5281],[-98.0691,20.5379],[-98.0723,20.5688],[-98.094,20.5747],[-98.0895,20.5908],[-98.1005,20.614]]]},"properties":{"CVE_ENT":"13","CVE_MUN":"053","CVEGEO":"13053","NOMGEO":"San Bartolo Tutotepec"}},
{"type":"Feature","geometry":{"type":"Polygon","coordinates":[[[-98.6623,20.4378],[-98.6763,20.4452],[-98.728,20.4469],[-98.7727,20.4366],[-98.7738,20.4109],[-98.7917,20.4107],[-98.8035,20.3937],[-98.8157,20.3895],[-98.7992,20.3622],[-98.8036,20.3435],[-98.8202,20.3184],[-98.8116,20.3111],[-98.7857,20.3097],[-98.7979,20.2922],[-98.7845,20.2844],[-98.7645,20.2841],[-98.7384,20.2965],[-98.7209,20.2786],[-98.7106,20.2797],[-98.6971,20.2676],[-98.7157,20.2409],[-98.7042,20.2386],[-98.6843,20.2666],[-98.664,20.2454],[-98.6391,20.2472],[-98.6321,20.2306],[-98.6278,20.2476],[-98.6374,20.2581],[-98.6299,20.2763],[-98.6122,20.2738],[-98.6008,20.3001],[-98.59,20.3065],[-98.5677,20.3004],[-98.5563,20.3161],[-98.5543,20.3301],[-98.5349,20.3343],[-98.5345,20.347],[-98.5474,20.3612],[-98.5431,20.3756],[-98.5502,20.3957],[-98.5504,20.4325],[-98.589,20.4404],[-98.6238,20.4138],[-98.6563,20.4307],[-98.6623,20.4378]]]},"properties":{"CVE_ENT":"13","CVE_MUN":"012","CVEGEO":"13012","NOMGEO":"Atotonilco el Grande"}},
{"type":"Feature","geometry":{"type":"Polygon","coordinates":[[[-98.3167,21.0886],[-98.3425,21.1055],[-98.3734,21.0996],[-98.3924,21.0813],[-98.3808,21.0653],[-98.4034,21.0567],[-98.416,21.0438],[-98.4216,21.0281],[-98.4361,21.0212],[-98.4432,20.9782],[-98.4196,20.9921],[-98.3953,20.9842],[-98.3803,20.9871],[-98.3423,20.9512],[-98.3524,20.9426],[-98.3312,20.9298],[-98.3145,20.9355],[-98.3125,20.946],[-98.3251,20.9498],[-98.3388,20.9849],[-98.3304,21.0022],[-98.3201,21.0063],[-98.317,21.0358],[-98.3101,21.0455],[-98.3027,21.0732],[-98.3167,21.0886]]]},"properties":{"CVE_ENT":"13","CVE_MUN":"011","CVEGEO":"13011","NOMGEO":"Atlapexco"}},
{"type":"Feature","geometry":{"type":"Polygon","coordinates":[[[-99.1731,20.088],[-99.1791,20.0958],[-99.2192,20.0796],[-99.2405,20.0789],[-99.2451,20.0685],[-99.2607,20.0644],[-99.2902,20.0595],[-99.2873,20.0396],[-99.2608,20.0273],[-99.2433,20.0299],[-99.2314,20.0231],[-99.2004,20.035],[-99.1927,20.0471],[-99.1737,20.0364],[-99.1491,20.035],[-99.1641,20.0556],[-99.189,20.0728],[-99.1731,20.088]]]},"properties":{"CVE_ENT":"13","CVE_MUN":"010","CVEGEO":"13010","NOMGEO":"Atitalaquia"}},
{"type":"Feature","geometry":{"type":"Polygon","coordinates":[[[-98.8147,20.2477],[-98.8518,20.2476],[-98.8649,20.2597],[-98.8691,20.2843],[-98.8776,20.2941],[-98.9381,20.2531],[-98.9397,20.2169],[-98.9465,20.2073],[-98.9411,20.1914],[-98.9467,20.1822],[-98.9269,20.1727],[-98.837,20.1527],[-98.8301,20.1626],[-98.8332,20.1825],[-98.8248,20.1973],[-98.8233,20.225],[-98.8143,20.2326],[-98.8147,20.2477]]]},"properties":{"CVE_ENT":"13","CVE_MUN":"009","CVEGEO":"13009","NOMGEO":"El Arenal"}},
{"type":"Feature","geometry":{"type":"Polygon","coordinates":[[[-98.3145,19.8545],[-98.3227,19.8455],[-98.3403,19.8574],[-98.3634,19.8623],[-98.3852,19.8517],[-98.385,19.8376],[-98.4265,19.8073],[-98.4541,19.7997],[-98.4948,19.7711],[-98.5004,19.7619],[-98.5278,19.7568],[-98.538,19.7485],[-98.5351,19.7135],[-98.5524,19.7208],[-98.5516,19.7022],[-98.5606,19.6924],[-98.5281,19.6609],[-98.5246,19.647],[-98.5356,19.6344],[-98.5198,19.6031],[-98.4916,19.6074],[-98.4927,19.6138],[-98.4907,19.6163],[-98.4902,19.62],[-98.4874,19.6175],[-98.4838,19.6188],[-98.4665,19.6137],[-98.4096,19.6167],[-98.3817,19.6094],[-98.367,19.6282],[-98.3757,19.6367],[-98.383,19.6314],[-98.4236,19.6536],[-98.399,19.676],[-98.4152,19.6983],[-98.4339,19.6949],[-98.4344,19.7124],[-98.4431,19.7195],[-98.425,19.7336],[-98.4027,19.7439],[-98.4006,19.7557],[-98.3867,19.7712],[-98.3717,19.7776],[-98.3643,19.7981],[-98.3402,19.8139],[-98.3112,19.8186],[-98.2937,19.8411],[-98.2835,19.847],[-98.3006,19.8453],[-98.3145,19.8545]]]},"properties":{"CVE_ENT":"13","CVE_MUN":"008","CVEGEO":"13008","NOMGEO":"Apan"}},
{"type":"Feature","geometry":{"type":"Polygon","coordinates":[[[-98.2553,19.7188],[-98.2382,19.7223],[-98.2151,19.7413],[-98.1967,19.7427],[-98.2026,19.768],[-98.2162,19.7784],[-98.2352,19.7775],[-98.2497,19.7988],[-98.2509,19.8128],[-98.265,19.8251],[-98.2671,19.8433],[-98.2835,19.847],[-98.2937,19.8411],[-98.3112,19.8186],[-98.3402,19.8139],[-98.3643,19.7981],[-98.3717,19.7776],[-98.3867,19.7712],[-98.4006,19.7557],[-98.4027,19.7439],[-98.425,19.7336],[-98.4431,19.7195],[-98.4344,19.7124],[-98.4339,19.6949],[-98.4152,19.6983],[-98.399,19.676],[-98.4236,19.6536],[-98.383,19.6314],[-98.3757,19.6367],[-98.367,19.6282],[-98.3238,19.6853],[-98.323,19.6995],[-98.3333,19.7088],[-98.3317,19.7223],[-98.3226,19.7233],[-98.3155,19.7256],[-98.3132,19.7272],[-98.3111,19.7277],[-98.3103,19.7275],[-98.3073,19.727],[-98.3016,19.7231],[-98.2725,19.7247],[-98.2553,19.7188]]]},"properties":{"CVE_ENT":"13","CVE_MUN":"007","CVEGEO":"13007","NOMGEO":"Almoloya"}},
{"type":"Feature","geometry":{"type":"Polygon","coordinates":[[[-99.2927,20.4825],[-99.2999,20.4647],[-99.3167,20.4522],[-99.3246,20.4668],[-99.3245,20.4926],[-99.3731,20.5033],[-99.4267,20.5053],[-99.4413,20.5018],[-99.4566,20.4875],[-99.4685,20.4949],[-99.51,20.4742],[-99.5157,20.4577],[-99.4985,20.4375],[-99.4978,20.4256],[-99.5182,20.4242],[-99.514,20.4063],[-99.5211,20.3784],[-99.5335,20.3735],[-99.5332,20.3537],[-99.5422,20.3295],[-99.5308,20.3259],[-99.5089,20.3249],[-99.4967,20.3346],[-99.4399,20.3264],[-99.4107,20.3257],[-99.3972,20.3196],[-99.3612,20.3392],[-99.3457,20.3324],[-99.3491,20.3211],[-99.3395,20.3071],[-99.2998,20.3277],[-99.2894,20.3618],[-99.2853,20.3895],[-99.2897,20.4065],[-99.2988,20.4471],[-99.288,20.4531],[-99.2844,20.4686],[-99.2927,20.4825]]]},"properties":{"CVE_ENT":"13","CVE_MUN":"006","CVEGEO":"13006","NOMGEO":"Alfajayucan"}},
{"type":"Feature","geometry":{"type":"Polygon","coordinates":[[[-99.104,20.3688],[-99.1157,20.3761],[-99.1152,20.3951],[-99.1296,20.4071],[-99.1636,20.4105],[-99.167,20.3971],[-99.1635,20.372],[-99.1451,20.372],[-99.143,20.353],[-99.1271,20.3409],[-99.1253,20.316],[-99.1119,20.2913],[-99.0949,20.2893],[-99.0666,20.2756],[-99.0614,20.2505],[-99.0134,20.2644],[-99.0129,20.2423],[-99.0268,20.2313],[-99.0403,20.1888],[-99.0155,20.1902],[-99.0085,20.1808],[-98.9909,20.1889],[-98.9794,20.1989],[-98.9838,20.2429],[-98.993,20.2681],[-98.9762,20.2908],[-98.9888,20.3002],[-98.9506,20.3141],[-98.9587,20.3524],[-98.9731,20.3378],[-98.9819,20.3517],[-99.0131,20.3423],[-99.0273,20.354],[-99.0612,20.3562],[-99.0675,20.3511],[-99.0962,20.3515],[-99.104,20.3688]]]},"properties":{"CVE_ENT":"13","CVE_MUN":"054","CVEGEO":"13054","NOMGEO":"San Salvador"}},
{"type":"Feature","geometry":{"type":"Polygon","coordinates":[[[-98.9046,20.4359],[-98.8938,20.4621],[-98.9105,20.4692],[-98.9084,20.4858],[-98.9153,20.4968],[-98.9484,20.499],[-98.9491,20.526],[-98.9721,20.5117],[-98.9682,20.4902],[-98.9868,20.481],[-98.9963,20.4587],[-99.0143,20.4479],[-99.0277,20.4489],[-99.048,20.419],[-99.078,20.4226],[-99.0919,20.4346],[-99.0915,20.3968],[-99.0865,20.3825],[-99.104,20.3688],[-99.0962,20.3515],[-99.0675,20.3511],[-99.0612,20.3562],[-99.0273,20.354],[-99.0131,20.3423],[-98.9819,20.3517],[-98.9731,20.3378],[-98.9587,20.3524],[-98.9435,20.3498],[-98.9293,20.3377],[-98.9072,20.3374],[-98.9057,20.3487],[-98.9181,20.3734],[-98.9065,20.3865],[-98.9031,20.4022],[-98.913,20.4266],[-98.9046,20.4359]]]},"properties":{"CVE_ENT":"13","CVE_MUN":"055","CVEGEO":"13055","NOMGEO":"Santiago de Anaya"}},
{"type":"Feature","geometry":{"type":"Polygon","coordinates":[[[-98.3145,20.9355],[-98.3312,20.9298],[-98.3524,20.9426],[-98.3423,20.9512],[-98.3803,20.9871],[-98.3953,20.9842],[-98.4196,20.9921],[-98.4432,20.9782],[-98.4501,20.9659],[-98.43,20.9616],[-98.4222,20.9348],[-98.426,20.9187],[-98.4402,20.9182],[-98.4454,20.8851],[-98.4329,20.8666],[-98.4383,20.8603],[-98.4251,20.8496],[-98.3982,20.8587],[-98.3819,20.8535],[-98.3649,20.8634],[-98.3451,20.8649],[-98.3077,20.8942],[-98.3025,20.9145],[-98.3145,20.9355]]]},"properties":{"CVE_ENT":"13","CVE_MUN":"080","CVEGEO":"13080","NOMGEO":"Yahualica"}},
{"type":"Feature","geometry":{"type":"Polygon","coordinates":[[[-98.5055,20.8861],[-98.5336,20.8797],[-98.5779,20.8608],[-98.5775,20.8527],[-98.6234,20.8467],[-98.6424,20.8402],[-98.6532,20.8452],[-98.6863,20.8448],[-98.7022,20.8243],[-98.7145,20.8007],[-98.7036,20.7731],[-98.6928,20.7643],[-98.7132,20.7508],[-98.7043,20.74],[-98.7254,20.7227],[-98.7291,20.6997],[-98.7125,20.6923],[-98.6689,20.706],[-98.6835,20.7164],[-98.6886,20.7308],[-98.6681,20.7515],[-98.6388,20.7572],[-98.6189,20.7517],[-98.5855,20.763],[-98.5815,20.7804],[-98.564,20.7902],[-98.5815,20.8],[-98.5924,20.8285],[-98.5738,20.8329],[-98.5547,20.845],[-98.5379,20.8427],[-98.5098,20.8682],[-98.5055,20.8861]]]},"properties":{"CVE_ENT":"13","CVE_MUN":"079","CVEGEO":"13079","NOMGEO":"Xochicoatlán"}},
{"type":"Feature","geometry":{"type":"Polygon","coordinates":[[[-98.3232,20.3293],[-98.3341,20.3289],[-98.3438,20.3107],[-98.3652,20.3058],[-98.3843,20.3137],[-98.3866,20.3192],[-98.3936,20.3176],[-98.3942,20.317],[-98.3946,20.3161],[-98.3949,20.3159],[-98.3949,20.315],[-98.3959,20.3149],[-98.3966,20.3125],[-98.3942,20.3004],[-98.4114,20.2832],[-98.3981,20.225],[-98.3659,20.2099],[-98.3645,20.209],[-98.3618,20.2073],[-98.3617,20.2072],[-98.3601,20.2059],[-98.3556,20.2038],[-98.3546,20.2022],[-98.3358,20.189],[-98.3337,20.1882],[-98.3302,20.2069],[-98.3109,20.1934],[-98.2894,20.2123],[-98.2669,20.2082],[-98.2765,20.2205],[-98.2814,20.2336],[-98.2842,20.25],[-98.2838,20.256],[-98.2844,20.2579],[-98.2849,20.267],[-98.2933,20.2918],[-98.3196,20.3113],[-98.311,20.3224],[-98.3232,20.3293]]]},"properties":{"CVE_ENT":"13","CVE_MUN":"035","CVEGEO":"13035","NOMGEO":"Metepec"}},
{"type":"Feature","geometry":{"type":"Polygon","coordinates":[[[-98.6911,21.1675],[-98.7052,21.1872],[-98.7195,21.1842],[-98.7245,21.155],[-98.7328,21.1478],[-98.7293,21.1263],[-98.7338,21.0805],[-98.7302,20.9983],[-98.722,20.9874],[-98.7175,20.9506],[-98.7044,20.9284],[-98.7074,20.9146],[-98.6488,20.9203],[-98.6332,20.9433],[-98.6097,20.9547],[-98.5917,20.9567],[-98.5557,20.9517],[-98.5554,20.9395],[-98.5397,20.9329],[-98.5352,20.9484],[-98.5501,20.9731],[-98.5327,20.9914],[-98.5311,21.0253],[-98.5172,21.0334],[-98.5071,21.0509],[-98.5365,21.0442],[-98.5551,21.0638],[-98.5773,21.0653],[-98.6171,21.0938],[-98.6453,21.1065],[-98.6574,21.1229],[-98.6602,21.1571],[-98.6787,21.1678],[-98.6911,21.1675]]]},"properties":{"CVE_ENT":"13","CVE_MUN":"073","CVEGEO":"13073","NOMGEO":"Tlanchinol"}},
{"type":"Feature","geometry":{"type":"Polygon","coordinates":[[[-98.7195,21.1842],[-98.7346,21.1815],[-98.7551,21.1867],[-98.7687,21.1744],[-98.744,21.1551],[-98.7406,21.132],[-98.7531,21.1055],[-98.7756,21.0907],[-98.7796,21.0673],[-98.7551,21.0517],[-98.7587,21.0354],[-98.7425,20.9979],[-98.7543,20.9916],[-98.7504,20.956],[-98.7662,20.9456],[-98.7728,20.934],[-98.7617,20.8947],[-98.7064,20.8638],[-98.7278,20.8475],[-98.7509,20.8393],[-98.7459,20.8304],[-98.7283,20.8315],[-98.7022,20.8243],[-98.6863,20.8448],[-98.6532,20.8452],[-98.6627,20.8619],[-98.6692,20.8891],[-98.6415,20.898],[-98.6349,20.9089],[-98.6488,20.9203],[-98.7074,20.9146],[-98.7044,20.9284],[-98.7175,20.9506],[-98.722,20.9874],[-98.7302,20.9983],[-98.7338,21.0805],[-98.7293,21.1263],[-98.7328,21.1478],[-98.7245,21.155],[-98.7195,21.1842]]]},"properties":{"CVE_ENT":"13","CVE_MUN":"034","CVEGEO":"13034","NOMGEO":"Lolotla"}},
{"type":"Feature","geometry":{"type":"Polygon","coordinates":[[[-99.1636,20.4105],[-99.2034,20.4071],[-99.2238,20.413],[-99.2679,20.4144],[-99.2897,20.4065],[-99.2853,20.3895],[-99.2894,20.3618],[-99.2998,20.3277],[-99.3395,20.3071],[-99.349,20.2882],[-99.3369,20.27],[-99.3367,20.2528],[-99.3148,20.2482],[-99.3018,20.2489],[-99.2918,20.2454],[-99.2168,20.2388],[-99.2012,20.2524],[-99.1916,20.2714],[-99.2099,20.2866],[-99.224,20.3093],[-99.2188,20.3185],[-99.2307,20.353],[-99.1876,20.3533],[-99.1635,20.372],[-99.167,20.3971],[-99.1636,20.4105]]]},"properties":{"CVE_ENT":"13","CVE_MUN":"019","CVEGEO":"13019","NOMGEO":"Chilcuautla"}},
{"type":"Feature","geometry":{"type":"Polygon","coordinates":[[[-98.2758,20.2054],[-98.2894,20.2123],[-98.3109,20.1934],[-98.3302,20.2069],[-98.3337,20.1882],[-98.3358,20.189],[-98.3546,20.2022],[-98.3594,20.2043],[-98.3645,20.209],[-98.3671,20.2083],[-98.3751,20.2089],[-98.3752,20.2052],[-98.3674,20.2048],[-98.3677,20.1975],[-98.3723,20.1904],[-98.3686,20.1824],[-98.378,20.1722],[-98.3755,20.1418],[-98.396,20.1299],[-98.4044,20.1363],[-98.444,20.1075],[-98.454,20.0937],[-98.4798,20.0768],[-98.5002,20.0805],[-98.4967,20.0647],[-98.4592,20.0527],[-98.4452,20.062],[-98.4085,20.0691],[-98.403,20.0638],[-98.3555,20.0647],[-98.3436,20.0624],[-98.331,20.0741],[-98.3236,20.0954],[-98.2785,20.0894],[-98.2647,20.095],[-98.2475,20.1106],[-98.2467,20.131],[-98.2722,20.1678],[-98.2903,20.1781],[-98.2758,20.2054]]]},"properties":{"CVE_ENT":"13","CVE_MUN":"077","CVEGEO":"13077","NOMGEO":"Tulancingo de Bravo"}},
{"type":"Feature","geometry":{"type":"Polygon","coordinates":[[[-98.7189,19.9909],[-98.7184,19.9927],[-98.7153,19.9922],[-98.715,19.9922],[-98.7263,20.0047],[-98.7132,19.9989],[-98.7164,20.0068],[-98.7221,20.0202],[-98.7071,20.0239],[-98.6797,20.0126],[-98.6755,20.0262],[-98.6992,20.0486],[-98.6641,20.0733],[-98.6708,20.1214],[-98.6895,20.1298],[-98.6943,20.141],[-98.7157,20.1307],[-98.7224,20.1106],[-98.7601,20.0672],[-98.7762,20.0342],[-98.7739,20.024],[-98.7581,20.0147],[-98.7716,19.9854],[-98.7308,19.9801],[-98.7189,19.9909]]]},"properties":{"CVE_ENT":"13","CVE_MUN":"051","CVEGEO":"13051","NOMGEO":"Mineral de la Reforma"}},
{"type":"Feature","geometry":{"type":"Polygon","coordinates":[[[-98.8501,20.0346],[-98.862,20.0416],[-98.8752,20.0449],[-98.9042,20.0505],[-98.9192,20.0444],[-98.9161,20.0358],[-98.9063,20.0186],[-98.9039,20.0084],[-98.8948,19.997],[-98.8871,19.9641],[-98.8684,19.9536],[-98.8884,19.9327],[-98.8798,19.9243],[-98.8772,19.9295],[-98.8765,19.9314],[-98.8762,19.9326],[-98.8759,19.9334],[-98.8742,19.937],[-98.8713,19.9423],[-98.843,19.9257],[-98.8009,19.9724],[-98.79,19.9864],[-98.8106,20.0218],[-98.8303,20.0293],[-98.837,20.042],[-98.8501,20.0346]]]},"properties":{"CVE_ENT":"13","CVE_MUN":"082","CVEGEO":"13082","NOMGEO":"Zapotlán de Juárez"}},
{"type":"Feature","geometry":{"type":"Polygon","coordinates":[[[-99.3401,20.254],[-99.3723,20.2588],[-99.3904,20.255],[-99.4075,20.2758],[-99.437,20.2547],[-99.4514,20.2489],[-99.4422,20.2349],[-99.4541,20.2207],[-99.4482,20.1913],[-99.4667,20.1772],[-99.4695,20.1643],[-99.4437,20.1631],[-99.4271,20.1397],[-99.4128,20.1388],[-99.3891,20.1275],[-99.3689,20.1259],[-99.3478,20.133],[-99.3409,20.1435],[-99.3506,20.1704],[-99.3421,20.1863],[-99.3615,20.1998],[-99.358,20.2365],[-99.3401,20.254]]]},"properties":{"CVE_ENT":"13","CVE_MUN":"064","CVEGEO":"13064","NOMGEO":"Tepetitlán"}},
{"type":"Feature","geometry":{"type":"Polygon","coordinates":[[[-98.4696,20.3351],[-98.5059,20.3354],[-98.5345,20.347],[-98.5349,20.3343],[-98.5543,20.3301],[-98.5563,20.3161],[-98.5677,20.3004],[-98.59,20.3065],[-98.6008,20.3001],[-98.6122,20.2738],[-98.6299,20.2763],[-98.6374,20.2581],[-98.6278,20.2476],[-98.6321,20.2306],[-98.629,20.2072],[-98.6068,20.1984],[-98.6127,20.1778],[-98.5864,20.166],[-98.5588,20.1759],[-98.5661,20.1304],[-98.5736,20.1216],[-98.5548,20.1022],[-98.5274,20.1076],[-98.5173,20.0993],[-98.5025,20.1121],[-98.492,20.1416],[-98.4801,20.159],[-98.4849,20.1826],[-98.4615,20.1943],[-98.4785,20.2159],[-98.4793,20.2289],[-98.4649,20.2341],[-98.4714,20.2511],[-98.4884,20.267],[-98.4802,20.2791],[-98.4985,20.2971],[-98.4922,20.3154],[-98.4696,20.3351]]]},"properties":{"CVE_ENT":"13","CVE_MUN":"024","CVEGEO":"13024","NOMGEO":"Huasca de Ocampo"}},
{"type":"Feature","geometry":{"type":"Polygon","coordinates":[[[-99.1253,20.316],[-99.1706,20.289],[-99.1622,20.2466],[-99.1788,20.2453],[-99.1839,20.2318],[-99.2012,20.2524],[-99.2168,20.2388],[-99.2918,20.2454],[-99.3018,20.2489],[-99.3028,20.2475],[-99.3048,20.2456],[-99.3063,20.2436],[-99.308,20.2402],[-99.2999,20.2356],[-99.2796,20.2365],[-99.2573,20.2271],[-99.24,20.2357],[-99.2486,20.2024],[-99.2239,20.197],[-99.2298,20.1676],[-99.2125,20.16],[-99.2113,20.1602],[-99.209,20.1605],[-99.2086,20.1605],[-99.1966,20.1557],[-99.1902,20.1544],[-99.1896,20.1552],[-99.1854,20.1552],[-99.1798,20.1508],[-99.1754,20.1511],[-99.1753,20.1511],[-99.1735,20.1524],[-99.1668,20.1571],[-99.1398,20.1953],[-99.1128,20.199],[-99.1318,20.2173],[-99.1372,20.2297],[-99.1224,20.2391],[-99.1251,20.2775],[-99.1119,20.2913],[-99.1253,20.316]]]},"properties":{"CVE_ENT":"13","CVE_MUN":"041","CVEGEO":"13041","NOMGEO":"Mixquiahuala de Juárez"}},
{"type":"Feature","geometry":{"type":"Polygon","coordinates":[[[-98.0939,20.3866],[-98.1222,20.4059],[-98.1263,20.3987],[-98.1592,20.3877],[-98.1753,20.4104],[-98.2079,20.3822],[-98.2275,20.3851],[-98.2567,20.3817],[-98.2787,20.3576],[-98.292,20.3308],[-98.311,20.3224],[-98.3196,20.3113],[-98.2933,20.2918],[-98.2891,20.2697],[-98.2849,20.267],[-98.2844,20.2628],[-98.2672,20.2723],[-98.2574,20.2986],[-98.2365,20.3043],[-98.2155,20.2915],[-98.1903,20.294],[-98.1804,20.3034],[-98.18,20.3359],[-98.1633,20.3278],[-98.1268,20.3362],[-98.1125,20.3543],[-98.0997,20.3824],[-98.0939,20.3866]]]},"properties":{"CVE_ENT":"13","CVE_MUN":"060","CVEGEO":"13060","NOMGEO":"Tenango de Doria"}},
{"type":"Feature","geometry":{"type":"Polygon","coordinates":[[[-99.5019,20.659],[-99.531,20.6549],[-99.5412,20.6434],[-99.5569,20.6436],[-99.5737,20.6348],[-99.5781,20.6209],[-99.6076,20.6062],[-99.6129,20.595],[-99.6341,20.6055],[-99.658,20.6018],[-99.6854,20.579],[-99.7279,20.5754],[-99.7314,20.5679],[-99.7384,20.5606],[-99.7459,20.5593],[-99.7563,20.5614],[-99.7793,20.5593],[-99.803,20.5455],[-99.8281,20.543],[-99.8351,20.481],[-99.834,20.48],[-99.8333,20.4792],[-99.8294,20.4778],[-99.8113,20.4738],[-99.8039,20.4604],[-99.7766,20.4557],[-99.777,20.4412],[-99.766,20.4243],[-99.7549,20.4226],[-99.7292,20.4603],[-99.6869,20.4742],[-99.6807,20.4817],[-99.6452,20.4711],[-99.63,20.4506],[-99.6187,20.4536],[-99.6172,20.4782],[-99.6058,20.4766],[-99.5944,20.5035],[-99.5754,20.5006],[-99.5408,20.512],[-99.5493,20.4766],[-99.5344,20.461],[-99.51,20.4742],[-99.4685,20.4949],[-99.4839,20.5],[-99.4811,20.5231],[-99.4729,20.5273],[-99.4882,20.5589],[-99.4758,20.5765],[-99.4706,20.6054],[-99.4534,20.6086],[-99.4492,20.6245],[-99.4683,20.6293],[-99.493,20.6431],[-99.5019,20.659]]]},"properties":{"CVE_ENT":"13","CVE_MUN":"059","CVEGEO":"13059","NOMGEO":"Tecozautla"}},
{"type":"Feature","geometry":{"type":"Polygon","coordinates":[[[-98.5614,21.1545],[-98.5498,21.132],[-98.5541,21.1113],[-98.5333,21.1106],[-98.5204,21.1258],[-98.5066,21.1245],[-98.4935,21.1464],[-98.4966,21.1645],[-98.5111,21.1713],[-98.5267,21.197],[-98.5614,21.1545]]]},"properties":{"CVE_ENT":"13","CVE_MUN":"032","CVEGEO":"13032","NOMGEO":"Jaltocán"}},
{"type":"Feature","geometry":{"type":"Polygon","coordinates":[[[-99.2725,20.5846],[-99.2896,20.5944],[-99.3125,20.5726],[-99.3266,20.5783],[-99.3483,20.5755],[-99.366,20.5789],[-99.4295,20.6078],[-99.4534,20.6086],[-99.4706,20.6054],[-99.4758,20.5765],[-99.4882,20.5589],[-99.4729,20.5273],[-99.4811,20.5231],[-99.4839,20.5],[-99.4685,20.4949],[-99.4566,20.4875],[-99.4413,20.5018],[-99.4267,20.5053],[-99.3731,20.5033],[-99.3245,20.4926],[-99.3246,20.4668],[-99.3167,20.4522],[-99.2999,20.4647],[-99.2927,20.4825],[-99.2811,20.512],[-99.248,20.5205],[-99.2818,20.5406],[-99.2692,20.5727],[-99.2725,20.5846]]]},"properties":{"CVE_ENT":"13","CVE_MUN":"058","CVEGEO":"13058","NOMGEO":"Tasquillo"}},
{"type":"Feature","geometry":{"type":"Polygon","coordinates":[[[-98.5736,20.1216],[-98.5898,20.1262],[-98.6019,20.1179],[-98.5839,20.122],[-98.6033,20.0866],[-98.5799,20.0676],[-98.6202,20.0186],[-98.587,19.9922],[-98.5844,19.9822],[-98.5878,19.9763],[-98.5873,19.9649],[-98.5944,19.9563],[-98.572,19.9512],[-98.5697,19.9344],[-98.5455,19.9329],[-98.5281,19.9085],[-98.5336,19.9013],[-98.5349,19.8914],[-98.5373,19.8876],[-98.5222,19.8715],[-98.5004,19.8686],[-98.4863,19.8747],[-98.456,19.8696],[-98.4422,19.878],[-98.4222,19.9163],[-98.3862,19.9125],[-98.3816,19.9023],[-98.3787,19.9196],[-98.3653,19.9563],[-98.3718,19.9785],[-98.3597,19.9884],[-98.3927,19.9895],[-98.4005,19.9991],[-98.3883,20.0192],[-98.4257,20.0265],[-98.4417,20.0438],[-98.4592,20.0527],[-98.4967,20.0647],[-98.5002,20.0805],[-98.4798,20.0768],[-98.5173,20.0993],[-98.5274,20.1076],[-98.5548,20.1022],[-98.5736,20.1216]]]},"properties":{"CVE_ENT":"13","CVE_MUN":"057","CVEGEO":"13057","NOMGEO":"Singuilucan"}},
{"type":"Feature","geometry":{"type":"Polygon","coordinates":[[[-99.1253,20.316],[-99.1271,20.3409],[-99.143,20.353],[-99.1451,20.372],[-99.1635,20.372],[-99.1876,20.3533],[-99.2307,20.353],[-99.2188,20.3185],[-99.224,20.3093],[-99.2099,20.2866],[-99.1916,20.2714],[-99.2012,20.2524],[-99.1839,20.2318],[-99.1788,20.2453],[-99.1622,20.2466],[-99.1706,20.289],[-99.1253,20.316]]]},"properties":{"CVE_ENT":"13","CVE_MUN":"050","CVEGEO":"13050","NOMGEO":"Progreso de Obregón"}},
{"type":"Feature","geometry":{"type":"Polygon","coordinates":[[[-98.3555,20.0647],[-98.403,20.0638],[-98.4085,20.0691],[-98.4452,20.062],[-98.4592,20.0527],[-98.4417,20.0438],[-98.4257,20.0265],[-98.3883,20.0192],[-98.4005,19.9991],[-98.3927,19.9895],[-98.3597,19.9884],[-98.3509,20.021],[-98.3357,20.0345],[-98.35,20.0464],[-98.3555,20.0647]]]},"properties":{"CVE_ENT":"13","CVE_MUN":"056","CVEGEO":"13056","NOMGEO":"Santiago Tulantepec de Lugo Guerrero"}},
{"type":"Feature","geometry":{"type":"Polygon","coordinates":[[[-98.7662,20.9456],[-98.7654,20.9682],[-98.7922,20.9676],[-98.8178,20.9736],[-98.8215,20.9662],[-98.86,20.9721],[-98.8452,20.934],[-98.8577,20.9246],[-98.8626,20.9024],[-98.8585,20.8906],[-98.8439,20.8878],[-98.827,20.8697],[-98.7992,20.8719],[-98.7817,20.8554],[-98.7852,20.8299],[-98.7791,20.7993],[-98.7556,20.7668],[-98.7531,20.7408],[-98.7254,20.7227],[-98.7043,20.74],[-98.7132,20.7508],[-98.6928,20.7643],[-98.7036,20.7731],[-98.7145,20.8007],[-98.7022,20.8243],[-98.7283,20.8315],[-98.7459,20.8304],[-98.7509,20.8393],[-98.7278,20.8475],[-98.7064,20.8638],[-98.7617,20.8947],[-98.7728,20.934],[-98.7662,20.9456]]]},"properties":{"CVE_ENT":"13","CVE_MUN":"042","CVEGEO":"13042","NOMGEO":"Molango de Escamilla"}},
{"type":"Feature","geometry":{"type":"Polygon","coordinates":[[[-99.0548,21.1594],[-99.0913,21.153],[-99.1326,21.153],[-99.1749,21.1385],[-99.1809,21.1266],[-99.1555,21.1101],[-99.1212,21.0511],[-99.094,21.0245],[-99.099,21.0177],[-99.0879,20.9978],[-99.0789,20.9973],[-99.0626,20.9808],[-99.0575,20.9592],[-99.0364,20.9615],[-99.0216,20.9926],[-98.991,20.9918],[-98.973,21.0039],[-98.9722,21.0209],[-98.958,21.0319],[-98.9615,21.045],[-98.9854,21.0399],[-99.0179,21.0571],[-99.0227,21.0674],[-99.0443,21.0783],[-99.0349,21.0876],[-99.0412,21.114],[-99.0272,21.1307],[-99.0391,21.1515],[-99.0548,21.1594]]]},"properties":{"CVE_ENT":"13","CVE_MUN":"040","CVEGEO":"13040","NOMGEO":"La Misión"}},
{"type":"Feature","geometry":{"type":"Polygon","coordinates":[[[-98.9139,19.8769],[-98.943,19.8913],[-98.9527,19.9067],[-98.966,19.8917],[-98.9892,19.8814],[-99.0206,19.8677],[-99.0001,19.8333],[-99.0082,19.8284],[-98.9651,19.8067],[-98.9455,19.8038],[-98.9276,19.8434],[-98.9079,19.8499],[-98.9052,19.8635],[-98.9139,19.8769]]]},"properties":{"CVE_ENT":"13","CVE_MUN":"069","CVEGEO":"13069","NOMGEO":"Tizayuca"}},
{"type":"Feature","geometry":{"type":"Polygon","coordinates":[[[-98.6604,20.204],[-98.7025,20.1757],[-98.7026,20.1571],[-98.6925,20.1492],[-98.6895,20.1298],[-98.6708,20.1214],[-98.6631,20.1096],[-98.6559,20.101],[-98.6172,20.09],[-98.6145,20.1084],[-98.6051,20.1175],[-98.6089,20.13],[-98.6308,20.1295],[-98.6358,20.1397],[-98.6524,20.1445],[-98.6663,20.1645],[-98.6604,20.204]]]},"properties":{"CVE_ENT":"13","CVE_MUN":"039","CVEGEO":"13039","NOMGEO":"Mineral del Monte"}},
{"type":"Feature","geometry":{"type":"Polygon","coordinates":[[[-98.7791,20.7993],[-98.7852,20.8299],[-98.7817,20.8554],[-98.7992,20.8719],[-98.827,20.8697],[-98.8439,20.8878],[-98.8585,20.8906],[-98.8626,20.9024],[-98.8791,20.8863],[-98.8866,20.8583],[-98.898,20.841],[-98.8752,20.8252],[-98.8719,20.803],[-98.8782,20.7889],[-98.8524,20.7856],[-98.8455,20.769],[-98.8271,20.771],[-98.8029,20.7825],[-98.7791,20.7993]]]},"properties":{"CVE_ENT":"13","CVE_MUN":"033","CVEGEO":"13033","NOMGEO":"Juárez Hidalgo"}}
]}