{"type":"FeatureCollection", "features": [
{"type":"Feature","geometry":{"type":"MultiPolygon","coordinates":[[[[-111.9915,24.5255],[-112.0062,24.5141],[-111.9522,24.4909],[-111.9146,24.4614],[-111.8739,24.4387],[-111.8133,24.3932],[-111.7431,24.346],[-111.7172,24.3167],[-111.7029,24.3251],[-111.6943,24.3495],[-111.7058,24.3806],[-111.7228,24.3938],[-111.7426,24.4188],[-111.7493,24.4414],[-111.7807,24.4625],[-111.8191,24.4672],[-111.8436,24.5041],[-111.8686,24.5212],[-111.8974,24.5161],[-111.9303,24.5194],[-111.9663,24.5181],[-111.9915,24.5255]]],[[[-110.6917,25.3056],[-110.7122,25.3056],[-110.7315,25.292],[-110.7352,25.2766],[-110.7267,25.2599],[-110.7105,25.268],[-110.7034,25.2904],[-110.6917,25.3056]]],[[[-112.1629,25.1002],[-112.1544,25.1437],[-112.1449,25.1609],[-112.1223,25.2205],[-112.1233,25.2538],[-112.1392,25.2548],[-112.1441,25.2269],[-112.1724,25.1252],[-112.204,25.0252],[-112.2432,24.9185],[-112.2885,24.8137],[-112.3045,24.7956],[-112.2731,24.7721],[-112.2611,24.782],[-112.2249,24.7885],[-112.1987,24.7794],[-112.178,24.7669],[-112.1533,24.7448],[-112.1411,24.7271],[-112.1361,24.6934],[-112.1404,24.676],[-112.1609,24.673],[-112.1746,24.6526],[-112.1582,24.6446],[-112.1472,24.625],[-112.1294,24.6151],[-112.1149,24.5999],[-112.101,24.574],[-112.1018,24.5584],[-112.0874,24.5476],[-112.0634,24.542],[-112.0585,24.5566],[-112.085,24.5936],[-112.1073,24.6187],[-112.1367,24.6315],[-112.1438,24.6502],[-112.116,24.6891],[-112.1293,24.7136],[-112.1337,24.733],[-112.1715,24.7658],[-112.1655,24.7767],[-112.1887,24.8062],[-112.2074,24.8186],[-112.2092,24.836],[-112.2231,24.8478],[-112.1991,24.8694],[-112.1782,24.8703],[-112.1818,24.8836],[-112.1665,24.9119],[-112.1852,24.9311],[-112.1892,24.9538],[-112.162,24.9853],[-112.1617,25.0175],[-112.1754,25.0358],[-112.1644,25.0542],[-112.1664,25.083],[-112.1629,25.1002]]],[[[-112.1006,25.4892],[-112.107,25.485],[-112.1034,25.4586],[-112.1053,25.4323],[-112.1164,25.365],[-112.1243,25.3349],[-112.1395,25.2969],[-112.1185,25.2894],[-112.1174,25.309],[-112.1064,25.3226],[-112.1031,25.3391],[-112.109,25.3732],[-112.1046,25.4045],[-112.0965,25.428],[-112.1006,25.4892]]],[[[-112.093,25.6846],[-112.0979,25.683],[-112.0976,25.5922],[-112.0889,25.6085],[-112.0951,25.6303],[-112.096,25.6694],[-112.093,25.6846]]],[[[-110.9409,25.2363],[-110.9601,25.2423],[-111.0006,25.336],[-111.0509,25.4441],[-111.098,25.4739],[-111.2547,25.4103],[-111.3337,25.4597],[-111.6342,25.6537],[-111.6489,25.7502],[-111.6914,26.0003],[-111.7304,26.2502],[-111.7732,26.5542],[-112.1171,26.5484],[-112.4098,26.5428],[-112.7493,26.5357],[-112.9695,26.5307],[-112.9584,26.5212],[-112.9001,26.4909],[-112.8791,26.4764],[-112.8157,26.4241],[-112.7919,26.4071],[-112.7406,26.378],[-112.711,26.3566],[-112.6848,26.3258],[-112.6728,26.3195],[-112.6533,26.3252],[-112.6306,26.3183],[-112.614,26.3021],[-112.5952,26.2943],[-112.5764,26.2788],[-112.5419,26.2621],[-112.5182,26.2426],[-112.4969,26.2315],[-112.4776,26.2392],[-112.4737,26.2587],[-112.4515,26.2617],[-112.4104,26.2453],[-112.3965,26.2348],[-112.3546,26.1898],[-112.328,26.1453],[-112.3137,26.1064],[-112.309,26.0726],[-112.2952,26.0575],[-112.2791,26.0603],[-112.2587,26.0521],[-112.2343,26.0353],[-112.193,25.9875],[-112.1773,25.9504],[-112.1615,25.896],[-112.143,25.8616],[-112.1286,25.814],[-112.1127,25.7931],[-112.1015,25.7492],[-112.099,25.7094],[-112.0837,25.6998],[-112.0861,25.6764],[-112.0751,25.6771],[-112.0651,25.6376],[-112.0708,25.6262],[-112.0615,25.6125],[-112.0656,25.5685],[-112.0632,25.5216],[-112.0796,25.5134],[-112.0895,25.4816],[-112.0886,25.4431],[-112.0686,25.4335],[-112.0712,25.4154],[-112.0882,25.4018],[-112.0948,25.3773],[-112.0801,25.3758],[-112.0881,25.3577],[-112.0702,25.3527],[-112.0705,25.3333],[-112.0817,25.2939],[-112.0753,25.2819],[-112.0863,25.2587],[-112.0803,25.2349],[-112.1052,25.2379],[-112.1047,25.2234],[-112.1303,25.1829],[-112.1466,25.1465],[-112.1554,25.0682],[-112.1398,25.0748],[-112.1208,25.0637],[-112.1307,25.047],[-112.1223,25.0381],[-112.1315,25.0098],[-112.1488,24.9818],[-112.1542,24.964],[-112.1712,24.9678],[-112.1835,24.9598],[-112.1828,24.9431],[-112.1578,24.9263],[-112.1731,24.8607],[-112.1841,24.8422],[-112.155,24.8293],[-112.1408,24.8119],[-112.1369,24.8413],[-112.1433,24.9016],[-112.1273,24.9228],[-112.1394,24.9475],[-112.1297,24.9646],[-112.104,24.983],[-112.0983,24.9647],[-112.1026,24.9478],[-112.0782,24.9503],[-112.0794,24.9387],[-112.0997,24.9293],[-112.0993,24.9027],[-112.1237,24.8723],[-112.1153,24.8481],[-112.0917,24.8352],[-112.1003,24.8147],[-112.1133,24.8058],[-112.1172,24.7899],[-112.1039,24.7796],[-112.0864,24.785],[-112.0766,24.764],[-112.0566,24.7502],[-112.0453,24.7597],[-112.0514,24.7837],[-112.037,24.7823],[-112.0323,24.7584],[-112.0201,24.7437],[-111.9674,24.7374],[-111.9572,24.7693],[-111.9312,24.7498],[-111.9369,24.736],[-111.9021,24.7081],[-111.8658,24.6696],[-111.8384,24.6318],[-111.817,24.5763],[-111.8155,24.5659],[-111.8224,24.5193],[-111.8166,24.5065],[-111.7981,24.5182],[-111.7786,24.5223],[-111.7957,24.5464],[-111.757,24.5412],[-111.7368,24.5496],[-111.7272,24.5389],[-111.7006,24.538],[-111.6915,24.5545],[-111.6973,24.5731],[-111.6839,24.5835],[-111.6815,24.585],[-111.4432,24.7281],[-111.3121,24.8066],[-110.9683,25.0113],[-110.8575,25.0771],[-110.8797,25.1264],[-110.8924,25.1305],[-110.9076,25.146],[-110.9123,25.1697],[-110.909,25.1865],[-110.9205,25.2053],[-110.934,25.2155],[-110.9409,25.2363]]]]},"properties":{"CVE_ENT":"03","CVE_MUN":"001","CVEGEO":"03001","NOMGEO":"Comondú"}},
{"type":"Feature","geometry":{"type":"Polygon","coordinates":[[[-110.12,23.1127],[-110.1096,23.0773],[-110.0992,23.0218],[-110.0839,22.988],[-110.0647,22.9606],[-110.0618,22.9499],[-110.019,22.906],[-109.9829,22.8802],[-109.9651,22.873],[-109.9165,22.8721],[-109.9051,22.8864],[-109.8881,22.8966],[-109.8572,22.8981],[-109.8069,22.9378],[-109.8066,22.9503],[-109.7867,22.9692],[-109.7601,22.9837],[-109.7357,22.9884],[-109.7201,23.0026],[-109.7142,23.0294],[-109.6794,23.0491],[-109.6693,23.0604],[-109.6258,23.0722],[-109.6017,23.0817],[-109.5765,23.084],[-109.5655,23.0963],[-109.5324,23.1117],[-109.5096,23.1409],[-109.4972,23.1496],[-109.4701,23.1869],[-109.4585,23.196],[-109.4498,23.2213],[-109.4379,23.2363],[-109.4387,23.2745],[-109.4249,23.3062],[-109.4243,23.339],[-109.4316,23.377],[-109.4153,23.3823],[-109.4174,23.3991],[-109.4319,23.4207],[-109.4252,23.4503],[-109.4454,23.4756],[-109.4607,23.4873],[-109.4789,23.5183],[-109.4787,23.5354],[-109.471,23.5578],[-109.5153,23.5709],[-109.5201,23.5846],[-109.5867,23.604],[-109.6053,23.6195],[-109.6371,23.627],[-109.6406,23.6325],[-109.6828,23.6487],[-109.6978,23.6714],[-109.8816,23.5658],[-109.8897,23.526],[-109.9309,23.2907],[-109.9468,23.1455],[-110.12,23.1127]]]},"properties":{"CVE_ENT":"03","CVE_MUN":"008","CVEGEO":"03008","NOMGEO":"Los Cabos"}},
{"type":"Feature","geometry":{"type":"MultiPolygon","coordinates":[[[[-109.8004,24.1519],[-109.8197,24.2048],[-109.8425,24.2272],[-109.8575,24.2583],[-109.8711,24.2725],[-109.8898,24.3128],[-109.9187,24.3518],[-109.9227,24.3659],[-109.9352,24.368],[-109.9395,24.325],[-109.9196,24.2943],[-109.9233,24.2715],[-109.918,24.2479],[-109.8932,24.1868],[-109.8637,24.1475],[-109.818,24.1428],[-109.8004,24.1519]]],[[[-111.6147,24.3773],[-111.641,24.3691],[-111.6522,24.376],[-111.6675,24.3552],[-111.5907,24.3685],[-111.6147,24.3773]]],[[[-110.3541,24.5315],[-110.3829,24.5221],[-110.3907,24.497],[-110.3845,24.4746],[-110.3581,24.47],[-110.3744,24.4487],[-110.3728,24.4373],[-110.347,24.4315],[-110.3544,24.4194],[-110.3516,24.4054],[-110.3263,24.403],[-110.3079,24.4562],[-110.2948,24.4584],[-110.2891,24.4717],[-110.3256,24.506],[-110.3357,24.5235],[-110.3541,24.5315]]],[[[-110.3912,24.5902],[-110.4101,24.574],[-110.3888,24.544],[-110.3693,24.5345],[-110.3603,24.5505],[-110.3813,24.5729],[-110.3912,24.5902]]],[[[-109.6978,23.6714],[-109.6951,23.6829],[-109.7005,23.7101],[-109.7116,23.728],[-109.7093,23.7767],[-109.6993,23.799],[-109.7089,23.8056],[-109.7728,23.8751],[-109.8011,23.892],[-109.8255,23.9118],[-109.8375,23.9328],[-109.8383,23.972],[-109.83,23.9921],[-109.8174,23.9949],[-109.804,24.0219],[-109.8253,24.04],[-109.83,24.0617],[-109.883,24.0384],[-109.9304,24.029],[-109.9498,24.0371],[-109.9796,24.0411],[-109.9888,24.0518],[-109.9942,24.1097],[-109.9995,24.1171],[-110.0082,24.1594],[-110.0747,24.2027],[-110.0891,24.216],[-110.101,24.2168],[-110.1377,24.2362],[-110.1517,24.2492],[-110.1734,24.2519],[-110.1934,24.294],[-110.2119,24.2981],[-110.2167,24.3078],[-110.2361,24.3186],[-110.2341,24.3443],[-110.2972,24.3524],[-110.3052,24.3396],[-110.3323,24.3298],[-110.3213,24.3161],[-110.3308,24.2891],[-110.3193,24.2608],[-110.3231,24.2467],[-110.3066,24.2321],[-110.3124,24.2202],[-110.2998,24.2121],[-110.303,24.1791],[-110.3217,24.1562],[-110.3482,24.1436],[-110.3501,24.1148],[-110.3861,24.1063],[-110.4165,24.1089],[-110.4185,24.1319],[-110.4312,24.1481],[-110.415,24.1738],[-110.3856,24.1622],[-110.3774,24.1492],[-110.3536,24.1532],[-110.3271,24.1674],[-110.336,24.1777],[-110.3652,24.1731],[-110.4001,24.1743],[-110.4783,24.1883],[-110.5533,24.2086],[-110.5762,24.2266],[-110.582,24.2403],[-110.6072,24.252],[-110.617,24.2707],[-110.635,24.2918],[-110.6411,24.3158],[-110.6815,24.358],[-110.6833,24.3952],[-110.6931,24.406],[-110.6925,24.4328],[-110.6848,24.4465],[-110.6873,24.4635],[-110.7293,24.515],[-110.738,24.5537],[-110.7332,24.5629],[-110.7402,24.5873],[-110.7394,24.6245],[-110.7333,24.6373],[-110.7293,24.6667],[-110.7198,24.6861],[-110.6939,24.7017],[-110.6822,24.7452],[-110.6656,24.765],[-110.6571,24.8062],[-110.6731,24.8284],[-110.6848,24.8577],[-110.6857,24.8843],[-110.704,24.9015],[-110.7219,24.9352],[-110.7498,24.9664],[-110.7488,24.9878],[-110.7597,25.013],[-110.79,25.0359],[-110.8141,25.0332],[-110.8271,25.0488],[-110.8308,25.0646],[-110.8575,25.0771],[-110.9683,25.0113],[-111.3121,24.8066],[-111.4432,24.7281],[-111.6815,24.585],[-111.6826,24.5831],[-111.6767,24.5751],[-111.655,24.5676],[-111.648,24.5442],[-111.6312,24.5203],[-111.6228,24.4981],[-111.6159,24.4572],[-111.6095,24.4385],[-111.5809,24.4255],[-111.5689,24.407],[-111.5422,24.4145],[-111.5217,24.4065],[-111.517,24.3959],[-111.4987,24.3878],[-111.4933,24.3754],[-111.4755,24.362],[-111.4777,24.3489],[-111.4552,24.3355],[-111.4376,24.3306],[-111.4291,24.3198],[-111.3774,24.2962],[-111.2458,24.2268],[-111.1772,24.1841],[-111.1196,24.155],[-111.0447,24.1086],[-111.0193,24.0903],[-111.0081,24.0707],[-110.9545,24.0339],[-110.887,23.9741],[-110.8748,23.9558],[-110.8516,23.9426],[-110.8143,23.9082],[-110.6846,23.7702],[-110.6598,23.7472],[-110.6001,23.6981],[-110.5572,23.6723],[-110.5148,23.6533],[-110.4696,23.6376],[-110.3861,23.6],[-110.3461,23.5734],[-110.3202,23.5517],[-110.2984,23.5257],[-110.2762,23.4879],[-110.2661,23.4794],[-110.2315,23.4192],[-110.2302,23.4035],[-110.1983,23.3631],[-110.1832,23.3335],[-110.1654,23.3106],[-110.155,23.2579],[-110.1533,23.2295],[-110.12,23.1127],[-109.9468,23.1455],[-109.9309,23.2907],[-109.8897,23.526],[-109.8816,23.5658],[-109.6978,23.6714]]],[[[-110.7068,25.105],[-110.7109,25.1009],[-110.7127,25.0652],[-110.7175,25.0544],[-110.7128,25.0302],[-110.6811,25.0199],[-110.6728,24.9899],[-110.6595,24.972],[-110.6542,24.9464],[-110.6356,24.9295],[-110.6408,24.914],[-110.6208,24.916],[-110.5729,24.8868],[-110.5679,24.8731],[-110.5324,24.8764],[-110.5323,24.8877],[-110.5463,24.9071],[-110.5701,24.9535],[-110.5661,24.9864],[-110.5747,25.0109],[-110.6007,25.0366],[-110.6303,25.0453],[-110.6681,25.0521],[-110.6904,25.0743],[-110.6943,25.0931],[-110.7068,25.105]]]]},"properties":{"CVE_ENT":"03","CVE_MUN":"003","CVEGEO":"03003","NOMGEO":"La Paz"}},
{"type":"Feature","geometry":{"type":"MultiPolygon","coordinates":[[[[-113.227,26.7324],[-113.2377,26.733],[-113.2629,26.7115],[-113.252,26.7016],[-113.1904,26.6853],[-113.1442,26.6576],[-113.1356,26.6582],[-113.1544,26.693],[-113.176,26.719],[-113.2037,26.7225],[-113.227,26.7324]]],[[[-113.2364,26.772],[-113.2052,26.7367],[-113.1955,26.7497],[-113.2364,26.772]]],[[[-111.4422,26.5175],[-111.4634,26.5327],[-111.4993,26.5299],[-111.5555,26.5507],[-111.5695,26.5711],[-111.5643,26.6167],[-111.5679,26.6651],[-111.5607,26.6949],[-111.5724,26.7081],[-111.6077,26.7191],[-111.6274,26.7399],[-111.646,26.7445],[-111.6673,26.7736],[-111.6821,26.7802],[-111.723,26.809],[-111.7481,26.846],[-111.8085,26.8872],[-111.8171,26.8968],[-111.8396,26.8821],[-111.8449,26.855],[-111.8366,26.8344],[-111.8269,26.8277],[-111.8236,26.7845],[-111.8157,26.7667],[-111.8176,26.7523],[-111.8083,26.7157],[-111.7967,26.6913],[-111.767,26.6774],[-111.756,26.6587],[-111.7424,26.6539],[-111.7154,26.6309],[-111.7085,26.6192],[-111.6823,26.5984],[-111.677,26.5871],[-111.6864,26.5733],[-111.7112,26.5524],[-111.6517,26.5507],[-111.4422,26.5175]]],[[[-112.0882,27.2589],[-112.1082,27.2393],[-112.0884,27.216],[-112.0859,27.1955],[-112.0756,27.1779],[-112.0572,27.1834],[-112.0449,27.2076],[-112.0472,27.2253],[-112.0882,27.2589]]],[[[-111.886,27.4557],[-111.9002,27.4509],[-111.8953,27.4306],[-111.8599,27.4306],[-111.8691,27.4545],[-111.886,27.4557]]],[[[-114.2246,27.7663],[-114.2457,27.7425],[-114.2233,27.7368],[-114.2079,27.7449],[-114.2246,27.7663]]],[[[-115.2157,27.8962],[-115.2133,27.8843],[-115.1948,27.8801],[-115.1789,27.8641],[-115.1603,27.8627],[-115.2157,27.8962]]],[[[-111.7641,26.5539],[-111.7846,26.5719],[-111.7944,26.6028],[-111.8067,26.6264],[-111.8375,26.6387],[-111.8507,26.651],[-111.8537,26.6772],[-111.8662,26.6959],[-111.898,26.7159],[-111.9073,26.7312],[-111.8914,26.7484],[-111.8913,26.7633],[-111.8616,26.7846],[-111.8639,26.8087],[-111.8729,26.8319],[-111.8949,26.8433],[-111.9121,26.8582],[-111.9124,26.8734],[-111.9376,26.8834],[-111.9588,26.9023],[-111.9755,26.9359],[-112.0098,26.9614],[-112.0158,26.9852],[-112.0064,27.0332],[-111.9876,27.057],[-111.9701,27.07],[-111.9547,27.0659],[-111.948,27.0791],[-111.9727,27.0978],[-111.9915,27.0961],[-112.0089,27.1163],[-112.0861,27.1309],[-112.1128,27.1409],[-112.1361,27.1596],[-112.1577,27.1619],[-112.1908,27.1945],[-112.2131,27.2046],[-112.2154,27.2136],[-112.1997,27.2459],[-112.2172,27.2809],[-112.2313,27.2962],[-112.2394,27.3228],[-112.2613,27.3325],[-112.2704,27.3578],[-112.2862,27.3639],[-112.3022,27.3839],[-112.2988,27.4004],[-112.306,27.4193],[-112.3155,27.4247],[-112.3221,27.452],[-112.3235,27.491],[-112.3313,27.5156],[-112.3566,27.5366],[-112.3573,27.5487],[-112.3717,27.5629],[-112.3927,27.5711],[-112.4236,27.5921],[-112.4678,27.5992],[-112.475,27.6132],[-112.5308,27.6382],[-112.5608,27.6451],[-112.5734,27.6425],[-112.5964,27.6512],[-112.6017,27.669],[-112.6217,27.6768],[-112.6427,27.7096],[-112.6593,27.7087],[-112.7012,27.7514],[-112.7156,27.785],[-112.716,27.8116],[-112.7428,27.838],[-112.7586,27.8466],[-112.7716,27.8632],[-112.7679,27.8892],[-112.7613,27.8967],[-112.7672,27.9372],[-112.7573,27.9737],[-112.7648,28],[-113.0667,28],[-113.25,28],[-113.5,28],[-113.7333,28],[-113.9167,28],[-114.2054,28],[-114.2535,27.9528],[-114.2744,27.9285],[-114.2746,27.9032],[-114.2638,27.8875],[-114.2333,27.9172],[-114.1836,27.9226],[-114.1587,27.9016],[-114.1327,27.8971],[-114.1292,27.8824],[-114.1682,27.839],[-114.1694,27.8182],[-114.1772,27.7994],[-114.159,27.7762],[-114.1478,27.7479],[-114.1464,27.7262],[-114.1262,27.7127],[-114.0993,27.7153],[-114.0754,27.7322],[-114.0468,27.7363],[-114.0527,27.7658],[-114.0751,27.7968],[-114.0558,27.8002],[-114.031,27.7432],[-114.0156,27.7456],[-113.9983,27.7598],[-113.9819,27.7593],[-113.9484,27.7336],[-113.9202,27.719],[-113.9175,27.7077],[-113.9262,27.6783],[-113.9617,27.6549],[-114.0195,27.6608],[-114.0442,27.6422],[-114.0599,27.638],[-114.091,27.6105],[-114.0791,27.6007],[-114.0907,27.5891],[-114.1265,27.5988],[-114.1502,27.6602],[-114.1749,27.6802],[-114.2008,27.6913],[-114.2169,27.6881],[-114.2402,27.6957],[-114.2752,27.7306],[-114.2987,27.7479],[-114.3177,27.7825],[-114.3091,27.7964],[-114.3226,27.821],[-114.3037,27.8181],[-114.2963,27.8662],[-114.3093,27.8728],[-114.3368,27.8664],[-114.3665,27.847],[-114.3536,27.8415],[-114.3341,27.8599],[-114.3249,27.8375],[-114.3317,27.8108],[-114.3576,27.8146],[-114.3849,27.8061],[-114.4097,27.8155],[-114.4417,27.7966],[-114.4856,27.7762],[-114.5033,27.7725],[-114.5326,27.7861],[-114.5661,27.7843],[-114.6056,27.7739],[-114.6599,27.7813],[-114.6686,27.789],[-114.7026,27.7882],[-114.7196,27.8037],[-114.7373,27.8086],[-114.7625,27.806],[-114.7889,27.8154],[-114.827,27.8091],[-114.8417,27.8119],[-114.8529,27.8265],[-114.9242,27.8343],[-114.9759,27.8252],[-115.0091,27.8288],[-115.0416,27.8567],[-115.0631,27.8592],[-115.082,27.8466],[-115.0522,27.8202],[-115.0485,27.8025],[-115.0358,27.7835],[-115.0316,27.7597],[-115.002,27.7175],[-114.9909,27.7288],[-114.9449,27.7105],[-114.936,27.6967],[-114.9338,27.678],[-114.9016,27.6643],[-114.8927,27.6907],[-114.8751,27.699],[-114.8534,27.6864],[-114.8459,27.6741],[-114.8475,27.6469],[-114.8615,27.6276],[-114.8304,27.6311],[-114.8117,27.6266],[-114.782,27.6042],[-114.7661,27.5766],[-114.7577,27.5473],[-114.7379,27.5242],[-114.7123,27.5211],[-114.6879,27.5091],[-114.6685,27.5063],[-114.6329,27.4875],[-114.5969,27.4762],[-114.576,27.4514],[-114.562,27.449],[-114.5269,27.429],[-114.5089,27.4109],[-114.4996,27.3918],[-114.4902,27.3577],[-114.487,27.3329],[-114.4848,27.2628],[-114.4881,27.2296],[-114.4769,27.2167],[-114.4578,27.2203],[-114.4318,27.2059],[-114.4272,27.1892],[-114.4352,27.1771],[-114.416,27.1689],[-114.3923,27.1825],[-114.3622,27.1629],[-114.3414,27.1598],[-114.304,27.1338],[-114.28,27.1482],[-114.2434,27.151],[-114.1814,27.1384],[-114.1253,27.1117],[-114.0883,27.084],[-114.0623,27.0533],[-114.0535,27.0221],[-114.0397,27.0129],[-114.0033,26.9724],[-113.9869,26.9731],[-113.9759,26.9932],[-113.9437,26.9987],[-113.9072,26.9914],[-113.8791,26.9822],[-113.828,26.9542],[-113.7947,26.9267],[-113.7689,26.8882],[-113.742,26.827],[-113.7368,26.8033],[-113.7163,26.7909],[-113.6874,26.7941],[-113.6658,26.7815],[-113.662,26.7598],[-113.6429,26.733],[-113.6064,26.7127],[-113.5771,26.7048],[-113.5697,26.7149],[-113.5476,26.7185],[-113.5464,26.7408],[-113.5233,26.7509],[-113.5144,26.7816],[-113.5059,26.7928],[-113.4722,26.8014],[-113.4852,26.8194],[-113.4655,26.8295],[-113.417,26.8326],[-113.4298,26.8205],[-113.4222,26.8067],[-113.3687,26.7975],[-113.3178,26.7748],[-113.282,26.7511],[-113.2655,26.7562],[-113.2715,26.7873],[-113.269,26.8188],[-113.2525,26.8455],[-113.2421,26.8359],[-113.2234,26.8375],[-113.2041,26.8501],[-113.204,26.8729],[-113.1965,26.8955],[-113.2019,26.9191],[-113.188,26.9681],[-113.1693,26.9796],[-113.1501,26.9704],[-113.1384,26.9365],[-113.1395,26.9173],[-113.1316,26.8925],[-113.1383,26.858],[-113.1459,26.8474],[-113.1807,26.8219],[-113.187,26.8096],[-113.2156,26.79],[-113.2362,26.7875],[-113.2102,26.7627],[-113.1864,26.761],[-113.1731,26.7672],[-113.1714,26.7943],[-113.1502,26.7766],[-113.1504,26.7552],[-113.1295,26.7255],[-113.114,26.7153],[-113.073,26.6602],[-113.0593,26.6496],[-113.0763,26.6285],[-113.0866,26.6415],[-113.1113,26.6593],[-113.1236,26.6526],[-113.128,26.6337],[-113.1065,26.6299],[-113.0737,26.6106],[-113.059,26.5926],[-113.0341,26.5713],[-112.9964,26.5461],[-112.9816,26.5305],[-112.9695,26.5307],[-112.7493,26.5357],[-112.4098,26.5428],[-112.1171,26.5484],[-111.7732,26.5542],[-111.7641,26.5539]]]]},"properties":{"CVE_ENT":"03","CVE_MUN":"002","CVEGEO":"03002","NOMGEO":"Mulegé"}},
{"type":"Feature","geometry":{"type":"MultiPolygon","coordinates":[[[[-110.7729,25.7123],[-110.7813,25.711],[-110.8002,25.6803],[-110.8044,25.6463],[-110.7924,25.6267],[-110.7893,25.6108],[-110.7613,25.595],[-110.7561,25.61],[-110.7695,25.6786],[-110.7729,25.7123]]],[[[-111.035,25.7143],[-111.0581,25.7085],[-111.0429,25.6587],[-111.0257,25.657],[-111.0132,25.6701],[-111.018,25.6938],[-111.035,25.7143]]],[[[-111.0598,26.0698],[-111.105,26.0523],[-111.1239,26.0613],[-111.1382,26.0502],[-111.1752,26.0419],[-111.1629,26.0207],[-111.1726,26.0042],[-111.1705,25.9817],[-111.1974,25.9563],[-111.209,25.9291],[-111.2073,25.9136],[-111.2233,25.8654],[-111.2333,25.8481],[-111.2289,25.8225],[-111.2127,25.8165],[-111.204,25.8253],[-111.2038,25.8479],[-111.1828,25.8663],[-111.1812,25.9008],[-111.1553,25.9314],[-111.1221,25.9788],[-111.12,25.9939],[-111.1002,25.9969],[-111.0795,25.9726],[-111.0711,25.995],[-111.0842,26.0162],[-111.0714,26.0546],[-111.0598,26.0698]]],[[[-111.2655,26.1373],[-111.2878,26.1185],[-111.2795,26.1065],[-111.2626,26.1086],[-111.2655,26.1373]]],[[[-110.9409,25.2363],[-110.9453,25.2697],[-110.9351,25.2749],[-110.9351,25.2914],[-110.9471,25.2967],[-110.9464,25.3126],[-110.9796,25.3413],[-110.9873,25.3708],[-111.0004,25.3875],[-111.0042,25.4155],[-111.024,25.4428],[-111.0192,25.4621],[-111.0214,25.5023],[-111.0307,25.5171],[-111.0621,25.5127],[-111.0795,25.5253],[-111.1157,25.5252],[-111.1423,25.5498],[-111.145,25.5655],[-111.1645,25.5731],[-111.1744,25.5926],[-111.1938,25.6145],[-111.2012,25.6387],[-111.2006,25.6551],[-111.2163,25.6927],[-111.2118,25.7025],[-111.2253,25.7261],[-111.245,25.7228],[-111.2599,25.7446],[-111.2782,25.7502],[-111.3061,25.7733],[-111.317,25.8174],[-111.3312,25.8395],[-111.3339,25.8632],[-111.3411,25.8734],[-111.3369,25.9082],[-111.3552,25.9288],[-111.3527,25.9454],[-111.3585,25.9613],[-111.3407,25.9832],[-111.3372,26.0019],[-111.3457,26.0263],[-111.3284,26.0488],[-111.319,26.0692],[-111.3239,26.0998],[-111.3444,26.1113],[-111.3584,26.1414],[-111.3652,26.1749],[-111.3783,26.1861],[-111.3788,26.2193],[-111.3975,26.2548],[-111.395,26.2767],[-111.383,26.2806],[-111.3863,26.3213],[-111.4056,26.3466],[-111.4241,26.3501],[-111.4351,26.3688],[-111.4214,26.373],[-111.4623,26.4016],[-111.4696,26.4157],[-111.4683,26.4431],[-111.4724,26.4568],[-111.4552,26.4892],[-111.4569,26.5059],[-111.4422,26.5175],[-111.6517,26.5507],[-111.7112,26.5524],[-111.7641,26.5539],[-111.7732,26.5542],[-111.7304,26.2502],[-111.6914,26.0003],[-111.6489,25.7502],[-111.6342,25.6537],[-111.3337,25.4597],[-111.2547,25.4103],[-111.098,25.4739],[-111.0509,25.4441],[-111.0006,25.336],[-110.9601,25.2423],[-110.9409,25.2363]]]]},"properties":{"CVE_ENT":"03","CVE_MUN":"009","CVEGEO":"03009","NOMGEO":"Loreto"}}
]}